station,valid,tmpf,dwpf,relh,drct,sknt,p01i,alti,mslp,vsby,gust,skyc1,skyc2,skyc3,skyc4,skyl1,skyl2,skyl3,skyl4,wxcodes,ice_accretion_1hr,ice_accretion_3hr,ice_accretion_6hr,peak_wind_gust,peak_wind_drct,peak_wind_time,feel,metar,snowdepth
SBMT,2024-01-01 00:00,66.20,59.00,77.60,120.00,11.00,0.00,30.06,,6.21,,BKN,,,,1700.00,,,,,,,,,,,66.20,SBMT 010000Z 12011KT 9999 BKN017 19/15 Q1018,
SBMT,2024-01-01 01:00,66.20,59.00,77.60,110.00,2.00,0.00,30.09,,6.21,,BKN,,,,1700.00,,,,,,,,,,,66.20,SBMT 010100Z 11002KT 9999 BKN017 19/15 Q1019,
SBMT,2024-01-01 02:00,66.20,59.00,77.60,100.00,8.00,0.00,30.09,,6.21,,BKN,,,,1700.00,,,,,,,,,,,66.20,SBMT 010200Z 10008KT 9999 BKN017 19/15 Q1019,
SBMT,2024-01-01 09:00,64.40,57.20,77.45,90.00,7.00,0.00,30.03,,6.21,,SCT,,,,1700.00,,,,,,,,,,,64.40,SBMT 010900Z 09007KT 9999 SCT017 18/14 Q1017,
SBMT,2024-01-01 10:00,66.20,59.00,77.60,100.00,9.00,0.00,30.03,,6.21,,BKN,,,,1300.00,,,,,,,,,,,66.20,SBMT 011000Z 10009KT 070V130 9999 BKN013 19/15 Q1017,
SBMT,2024-01-01 11:00,68.00,59.00,72.92,100.00,10.00,0.00,30.03,,6.21,,SCT,,,,1700.00,,,,,,,,,,,68.00,SBMT 011100Z 10010KT 060V120 9999 SCT017 20/15 Q1017,
SBMT,2024-01-01 12:00,69.80,59.00,68.55,90.00,10.00,0.00,30.06,,6.21,,BKN,,,,2300.00,,,,,,,,,,,69.80,SBMT 011200Z 09010KT 060V120 9999 BKN023 21/15 Q1018,
SBMT,2024-01-01 13:00,71.60,59.00,64.48,80.00,9.00,0.00,30.06,,6.21,,BKN,,,,2300.00,,,,,,,,,,,71.60,SBMT 011300Z 08009KT 050V110 9999 BKN023 22/15 Q1018,
SBMT,2024-01-01 14:00,73.40,59.00,60.67,110.00,7.00,0.00,30.06,,6.21,,BKN,,,,2600.00,,,,,,,,,,,73.40,SBMT 011400Z 11007KT 070V160 9999 BKN026 23/15 Q1018,
SBMT,2024-01-01 15:00,75.20,59.00,57.12,90.00,7.00,0.00,30.03,,6.21,,BKN,,,,3000.00,,,,,,,,,,,75.20,SBMT 011500Z 09007KT 060V120 9999 BKN030 24/15 Q1017,
SBMT,2024-01-01 16:00,75.20,60.80,60.90,120.00,8.00,0.00,30.03,,6.21,,BKN,,,,3000.00,,,,,,,,,,,75.20,SBMT 011600Z 12008KT 060V170 9999 BKN030 24/16 Q1017,
SBMT,2024-01-01 17:00,75.20,62.60,64.91,130.00,9.00,0.00,30.00,,6.21,,BKN,,,,3000.00,,,,,,,,,,,75.20,SBMT 011700Z 13009KT 9999 BKN030 24/17 Q1016,
SBMT,2024-01-01 18:00,75.20,62.60,64.91,130.00,7.00,0.00,29.97,,6.21,,BKN,,,,3000.00,,,,,,,,,,,75.20,SBMT 011800Z 13007KT 9999 BKN030 24/17 Q1015,
SBMT,2024-01-01 19:00,75.20,62.60,64.91,100.00,10.00,0.00,29.97,,6.21,,BKN,,,,3000.00,,,,,,,,,,,75.20,SBMT 011900Z 10010KT 9999 BKN030 24/17 Q1015,
SBMT,2024-01-01 20:00,75.20,62.60,64.91,110.00,10.00,0.00,29.94,,6.21,,BKN,,,,3000.00,,,,,,,,,,,75.20,SBMT 012000Z 11010KT 9999 BKN030 24/17 Q1014,
SBMT,2024-01-01 21:00,73.40,62.60,68.94,110.00,11.00,0.00,29.94,,6.21,,BKN,,,,3000.00,,,,,,,,,,,73.40,SBMT 012100Z 11011KT 9999 BKN030 23/17 Q1014,
SBMT,2024-01-01 22:00,71.60,62.60,73.27,110.00,9.00,0.00,29.97,,6.21,,BKN,,,,2500.00,,,,,,,,,,,71.60,SBMT 012200Z 11009KT 9999 BKN025 22/17 Q1015,
SBMT,2024-01-01 23:00,71.60,62.60,73.27,110.00,8.00,0.00,30.00,,6.21,,BKN,,,,2500.00,,,,,,,,,,,71.60,SBMT 012300Z 11008KT 9999 BKN025 22/17 Q1016,
SBMT,2024-01-02 00:00,69.80,62.60,77.90,110.00,9.00,0.00,30.00,,6.21,,BKN,,,,2000.00,,,,,,,,,,,69.80,SBMT 020000Z 11009KT 9999 BKN020 21/17 Q1016,
SBMT,2024-01-02 01:00,68.00,62.60,82.86,110.00,9.00,0.00,30.03,,6.21,,BKN,,,,2000.00,,,,,,,,,,,68.00,SBMT 020100Z 11009KT 9999 BKN020 20/17 Q1017,
SBMT,2024-01-02 02:00,68.00,62.60,82.86,100.00,8.00,0.00,30.03,,6.21,,BKN,,,,2000.00,,,,,,,,,,,68.00,SBMT 020200Z 10008KT 9999 BKN020 20/17 Q1017,
SBMT,2024-01-02 09:00,66.20,59.00,77.60,80.00,8.00,0.00,29.97,,6.21,,BKN,,,,1500.00,,,,,,,,,,,66.20,SBMT 020900Z 08008KT 040V110 9999 BKN015 19/15 Q1015,
SBMT,2024-01-02 10:00,68.00,59.00,72.92,60.00,9.00,0.00,30.00,,6.21,,SCT,BKN,,,1300.00,1500.00,,,,,,,,,,68.00,SBMT 021000Z 06009KT 020V110 9999 SCT013 BKN015 20/15 Q1016,
SBMT,2024-01-02 11:00,69.80,59.00,68.55,90.00,8.00,0.00,30.00,,6.21,,FEW,,,,1700.00,,,,,,,,,,,69.80,SBMT 021100Z 09008KT 060V130 9999 FEW017 21/15 Q1016,
SBMT,2024-01-02 12:00,75.20,60.80,60.90,80.00,5.00,0.00,30.00,,6.21,,FEW,,,,2600.00,,,,,,,,,,,75.20,SBMT 021200Z 08005KT 040V190 9999 FEW026 24/16 Q1016,
SBMT,2024-01-02 13:00,77.00,60.80,57.36,60.00,5.00,0.00,29.97,,6.21,,SCT,,,,3000.00,,,,,,,,,,,77.00,SBMT 021300Z 06005KT 340V150 9999 SCT030 25/16 Q1015,
SBMT,2024-01-02 14:00,78.80,62.60,57.60,,5.00,0.00,29.94,,6.21,,SCT,,,,3300.00,,,,,,,,,,,78.80,SBMT 021400Z VRB05KT 9999 SCT033 26/17 Q1014,
SBMT,2024-01-02 15:00,78.80,60.80,54.05,200.00,4.00,0.00,29.94,,6.21,,SCT,,,,4000.00,,,,,,,,,,,78.80,SBMT 021500Z 20004KT 150V280 9999 SCT040 26/16 Q1014,
SBMT,2024-01-02 16:00,82.40,60.80,48.05,340.00,3.00,0.00,29.91,,6.21,,SCT,,,,4000.00,,,,,,,,,,,82.90,SBMT 021600Z 34003KT 290V010 9999 SCT040 28/16 Q1013,
SBMT,2024-01-02 17:00,82.40,64.40,54.55,130.00,6.00,0.00,29.91,,6.21,,BKN,,,,4000.00,,,,,,,,,,,83.98,SBMT 021700Z 13006KT 9999 BKN040 28/18 Q1013,
SBMT,2024-01-02 18:00,80.60,66.20,61.58,160.00,11.00,0.00,29.88,,6.21,,BKN,,,,4000.00,,,,,,,,,,,82.75,SBMT 021800Z 16011KT 9999 BKN040 27/19 Q1012,
SBMT,2024-01-02 19:00,73.40,64.40,73.44,140.00,10.00,0.00,29.91,,6.21,,BKN,,,,3000.00,,,,,,,,,,,73.40,SBMT 021900Z 14010KT 9999 BKN030 23/18 Q1013,
SBMT,2024-01-02 20:00,73.40,64.40,73.44,170.00,9.00,0.00,29.91,,6.21,,BKN,,,,2500.00,,,,,,,,,,,73.40,SBMT 022000Z 17009KT 120V210 9999 BKN025 23/18 Q1013,
SBMT,2024-01-02 21:00,71.60,62.60,73.27,170.00,8.00,0.00,29.91,,6.21,,BKN,,,,2000.00,,,,,,,,,,,71.60,SBMT 022100Z 17008KT 120V200 9999 BKN020 22/17 Q1013,
SBMT,2024-01-02 22:00,71.60,62.60,73.27,140.00,6.00,0.00,29.94,,6.21,,BKN,,,,2000.00,,,,,,,,,,,71.60,SBMT 022200Z 14006KT 100V180 9999 BKN020 22/17 Q1014,
SBMT,2024-01-02 23:00,69.80,62.60,77.90,120.00,8.00,0.00,29.94,,6.21,,BKN,,,,2000.00,,,,,,,,,,,69.80,SBMT 022300Z 12008KT 9999 BKN020 21/17 Q1014,
SBMT,2024-01-03 00:00,69.80,62.60,77.90,110.00,8.00,0.00,29.97,,6.21,,BKN,,,,2000.00,,,,,,,,,,,69.80,SBMT 030000Z 11008KT 9999 BKN020 21/17 Q1015,
SBMT,2024-01-03 01:00,69.80,62.60,77.90,90.00,7.00,0.00,29.97,,6.21,,BKN,,,,2000.00,,,,,,,,,,,69.80,SBMT 030100Z 09007KT 9999 BKN020 21/17 Q1015,
SBMT,2024-01-03 02:00,68.00,62.60,82.86,90.00,8.00,0.00,29.97,,6.21,,SCT,,,,2000.00,,,,,,,,,,,68.00,SBMT 030200Z 09008KT 9999 SCT020 20/17 Q1015,
SBMT,2024-01-03 09:00,68.00,64.40,88.26,70.00,5.00,0.00,29.91,,6.21,,FEW,,,,1300.00,,,,,,,,,,,68.00,SBMT 030900Z 07005KT 9999 FEW013 20/18 Q1013,
SBMT,2024-01-03 10:00,69.80,66.20,88.34,70.00,6.00,0.00,29.91,,6.21,,,,,,,,,,,,,,,,,69.80,SBMT 031000Z 07006KT CAVOK 21/19 Q1013,
SBMT,2024-01-03 11:00,73.40,66.20,78.19,90.00,3.00,0.00,29.94,,6.21,,,,,,,,,,,,,,,,,73.40,SBMT 031100Z 09003KT CAVOK 23/19 Q1014,
SBMT,2024-01-03 12:00,78.80,68.00,69.52,130.00,2.00,0.00,29.94,,6.21,,SCT,,,,3000.00,,,,,,,,,,,78.80,SBMT 031200Z 13002KT 9999 SCT030 26/20 Q1014,
SBMT,2024-01-03 13:00,78.80,66.20,65.33,280.00,3.00,0.00,29.94,,6.21,,SCT,,,,3000.00,,,,,,,,,,,78.80,SBMT 031300Z 28003KT 9999 SCT030 26/19 Q1014,
SBMT,2024-01-03 14:00,82.40,69.80,65.74,280.00,6.00,0.00,29.91,,6.21,,BKN,,,,3000.00,,,,,,,,,,,86.22,SBMT 031400Z 28006KT 9999 BKN030 28/21 Q1013,
SBMT,2024-01-03 15:00,84.20,68.00,58.32,0.00,0.00,0.00,29.88,,6.21,,BKN,,,,3000.00,,,,,,,,,,,87.40,SBMT 031500Z 00000KT 9999 BKN030 29/20 Q1012,
SBMT,2024-01-03 16:00,84.20,66.20,54.80,350.00,4.00,0.00,29.88,,6.21,,BKN,,,,3000.00,,,,,,,,,,,86.50,SBMT 031600Z 35004KT 9999 BKN030 29/19 Q1012,
SBMT,2024-01-03 17:00,87.80,64.40,45.88,270.00,7.00,0.00,29.85,,6.21,,BKN,FEW,,,5000.00,5300.00,,,,,,,,,,89.33,SBMT 031700Z 27007KT 230V330 9999 BKN050 FEW053TCU 31/18 Q1011,
SBMT,2024-01-03 18:00,75.20,66.20,73.61,150.00,11.00,0.00,29.88,,6.21,,SCT,SCT,FEW,,1500.00,5000.00,5300.00,,,,,,,,,75.20,SBMT 031800Z 15011KT 110V200 9999 SCT015 SCT050 FEW053TCU 24/19 Q1012,
SBMT,2024-01-03 19:00,71.60,66.20,83.09,140.00,9.00,0.00,29.88,,3.73,,FEW,BKN,,,900.00,1100.00,,,,,,,,,,71.60,SBMT 031900Z 14009KT 090V180 6000 FEW009 BKN011 22/19 Q1012,
SBMT,2024-01-03 20:00,71.60,66.20,83.09,160.00,6.00,0.00,29.88,,3.73,,BKN,BKN,,,900.00,1100.00,,,-RA,,,,,,,71.60,SBMT 032000Z 16006KT 100V210 6000 -RA BKN009 BKN011 22/19 Q1012,
SBMT,2024-01-03 21:00,69.80,66.20,88.34,140.00,9.00,0.00,29.88,,3.73,,SCT,BKN,,,900.00,1100.00,,,-DZ,,,,,,,69.80,SBMT 032100Z 14009KT 100V170 6000 -DZ SCT009 BKN011 21/19 Q1012,
SBMT,2024-01-03 22:00,71.60,64.40,78.04,150.00,7.00,0.00,29.94,,6.21,,SCT,BKN,,,1500.00,1700.00,,,,,,,,,,71.60,SBMT 032200Z 15007KT 090V200 9999 SCT015 BKN017 22/18 Q1014,
SBMT,2024-01-03 23:00,69.80,62.60,77.90,170.00,8.00,0.00,29.94,,6.21,,SCT,BKN,,,1500.00,1700.00,,,,,,,,,,69.80,SBMT 032300Z 17008KT 140V210 9999 SCT015 BKN017 21/17 Q1014,
SBMT,2024-01-04 00:00,69.80,62.60,77.90,150.00,5.00,0.00,29.94,,6.21,,BKN,,,,1700.00,,,,,,,,,,,69.80,SBMT 040000Z 15005KT 110V230 9999 BKN017 21/17 Q1014,
SBMT,2024-01-04 01:00,69.80,62.60,77.90,220.00,8.00,0.00,29.94,,6.21,,BKN,,,,1900.00,,,,,,,,,,,69.80,SBMT 040100Z 22008KT 200V260 9999 BKN019 21/17 Q1014,
SBMT,2024-01-04 02:00,69.80,64.40,82.98,210.00,7.00,0.00,29.97,,6.21,,FEW,BKN,,,1300.00,1500.00,,,,,,,,,,69.80,SBMT 040200Z 21007KT 150V240 9999 FEW013 BKN015 21/18 Q1015,
SBMT,2024-01-04 09:00,68.00,64.40,88.26,180.00,7.00,0.00,32.63,,4.35,,SCT,SCT,BKN,,1100.00,1300.00,1700.00,,,,,,,,,68.00,SBMT 040900Z 18007KT 140V220 7000 SCT011 SCT013 BKN017 20/18 Q1105,
SBMT,2024-01-04 10:00,69.80,66.20,88.34,200.00,4.00,0.00,29.94,,4.35,,SCT,BKN,BKN,,1100.00,1300.00,1700.00,,,,,,,,,69.80,SBMT 041000Z 20004KT 160V260 7000 SCT011 BKN013 BKN017 21/19 Q1014,
SBMT,2024-01-04 11:00,71.60,66.20,83.09,,2.00,0.00,29.94,,4.97,,BKN,BKN,,,1300.00,1700.00,,,,,,,,,,71.60,SBMT 041100Z VRB02KT 8000 BKN013 BKN017 22/19 Q1014,
SBMT,2024-01-04 12:00,71.60,66.20,83.09,190.00,3.00,0.00,29.97,,4.97,,BKN,BKN,,,1300.00,1700.00,,,,,,,,,,71.60,SBMT 041200Z 19003KT 130V240 8000 BKN013 BKN017 22/19 Q1015,
SBMT,2024-01-04 13:00,73.40,69.80,88.51,150.00,4.00,0.00,29.97,,5.59,,BKN,BKN,,,1300.00,1900.00,,,,,,,,,,73.40,SBMT 041300Z 15004KT 090V230 9000 BKN013 BKN019 23/21 Q1015,
SBMT,2024-01-04 14:00,75.20,68.00,78.34,180.00,7.00,0.00,29.94,,6.21,,BKN,BKN,,,1500.00,1900.00,,,,,,,,,,75.20,SBMT 041400Z 18007KT 130V220 9999 BKN015 BKN019 24/20 Q1014,
SBMT,2024-01-04 15:00,75.20,71.60,88.59,220.00,7.00,0.00,29.94,,5.59,,BKN,BKN,,,1500.00,1700.00,,,-DZ,,,,,,,75.20,SBMT 041500Z 22007KT 170V270 9000 -DZ BKN015 BKN017 24/22 Q1014,
SBMT,2024-01-04 16:00,73.40,69.80,88.51,170.00,5.00,0.00,29.94,,5.59,,SCT,BKN,,,1300.00,2000.00,,,-DZ,,,,,,,73.40,SBMT 041600Z 17005KT 130V230 9000 -DZ SCT013 BKN020 23/21 Q1014,
SBMT,2024-01-04 17:00,75.20,68.00,78.34,190.00,8.00,0.00,29.94,,6.21,,SCT,BKN,,,2000.00,4000.00,,,,,,,,,,75.20,SBMT 041700Z 19008KT 9999 SCT020 BKN040 24/20 Q1014,
SBMT,2024-01-04 18:00,73.40,68.00,83.21,150.00,6.00,0.00,29.94,,6.21,,FEW,SCT,BKN,,1500.00,2000.00,4000.00,,,,,,,,,73.40,SBMT 041800Z 15006KT 9999 FEW015 SCT020 BKN040 23/20 Q1014,
SBMT,2024-01-04 19:00,75.20,68.00,78.34,150.00,9.00,0.00,29.91,,6.21,,FEW,SCT,BKN,,1500.00,2000.00,4000.00,,,,,,,,,75.20,SBMT 041900Z 15009KT 9999 FEW015 SCT020 BKN040 24/20 Q1013,
SBMT,2024-01-04 20:00,71.60,66.20,83.09,170.00,9.00,0.00,29.91,,6.21,,FEW,SCT,BKN,,1500.00,2000.00,4000.00,,,,,,,,,71.60,SBMT 042000Z 17009KT 9999 FEW015 SCT020 BKN040 22/19 Q1013,
SBMT,2024-01-04 21:00,71.60,66.20,83.09,170.00,8.00,0.00,29.94,,2.49,,FEW,SCT,BKN,,1300.00,1500.00,2000.00,,-DZ,,,,,,,71.60,COR SBMT 042100Z 17008KT 120V210 4000 -DZ FEW013 SCT015 BKN020 22/19 Q1014,
SBMT,2024-01-04 22:00,68.00,66.20,93.97,160.00,6.00,0.00,29.97,,1.86,,FEW,BKN,BKN,,900.00,1300.00,1500.00,,-RA,,,,,,,68.00,SBMT 042200Z 16006KT 3000 -RA FEW009 BKN013 BKN015 20/19 Q1015,
SBMT,2024-01-04 23:00,68.00,66.20,93.97,160.00,5.00,0.00,29.97,,2.49,,FEW,SCT,BKN,,900.00,1300.00,1500.00,,-RA,,,,,,,68.00,SBMT 042300Z 16005KT 120V230 4000 -RA FEW009 SCT013 BKN015 20/19 Q1015,
SBMT,2024-01-05 00:00,68.00,66.20,93.97,110.00,3.00,0.00,30.00,,2.49,,SCT,SCT,BKN,,900.00,1300.00,1500.00,,RA BR,,,,,,,68.00,SBMT 050000Z 11003KT 4000 RA BR SCT009 SCT013 BKN015 20/19 Q1016,
SBMT,2024-01-05 01:00,68.00,66.20,93.97,160.00,5.00,0.00,30.00,,3.11,,SCT,SCT,BKN,,900.00,1300.00,1500.00,,-RA BR,,,,,,,68.00,SBMT 050100Z 16005KT 5000 -RA BR SCT009 SCT013 BKN015 20/19 Q1016 RERA,
SBMT,2024-01-05 02:00,68.00,66.20,93.97,150.00,4.00,0.00,30.00,,4.35,,SCT,BKN,BKN,,900.00,1300.00,1500.00,,-RA,,,,,,,68.00,SBMT 050200Z 15004KT 7000 -RA SCT009 BKN013 BKN015 20/19 Q1016,
SBMT,2024-01-05 09:00,66.20,64.40,93.92,110.00,3.00,0.00,29.97,,6.21,,SCT,BKN,,,1100.00,1300.00,,,,,,,,,,66.20,SBMT 050900Z 11003KT 9999 SCT011 BKN013 19/18 Q1015,
SBMT,2024-01-05 10:00,68.00,64.40,88.26,110.00,5.00,0.00,29.97,,6.21,,SCT,BKN,,,1300.00,1500.00,,,,,,,,,,68.00,SBMT 051000Z 11005KT 9999 SCT013 BKN015 20/18 Q1015,
SBMT,2024-01-05 11:00,71.60,64.40,78.04,120.00,4.00,0.00,29.97,,6.21,,BKN,,,,1500.00,,,,,,,,,,,71.60,SBMT 051100Z 12004KT 9999 BKN015 22/18 Q1015,
SBMT,2024-01-05 12:00,71.60,62.60,73.27,150.00,4.00,0.00,30.00,,6.21,,BKN,,,,2300.00,,,,,,,,,,,71.60,SBMT 051200Z 15004KT 9999 BKN023 22/17 Q1016,
SBMT,2024-01-05 13:00,73.40,64.40,73.44,90.00,3.00,0.00,30.00,,6.21,,BKN,,,,3000.00,,,,,,,,,,,73.40,SBMT 051300Z 09003KT 9999 BKN030 23/18 Q1016,
SBMT,2024-01-05 14:00,77.00,64.40,65.12,130.00,4.00,0.00,29.97,,6.21,,BKN,,,,3000.00,,,,,,,,,,,77.00,SBMT 051400Z 13004KT 9999 BKN030 25/18 Q1015,
SBMT,2024-01-05 15:00,69.80,62.60,77.90,160.00,4.00,0.00,29.97,,6.21,,BKN,,,,3300.00,,,,,,,,,,,69.80,SBMT 051500Z 16004KT 9999 BKN033 21/17 Q1015,
SBMT,2024-01-05 16:00,80.60,62.60,54.30,220.00,3.00,0.00,29.94,,6.21,,BKN,,,,4300.00,,,,,,,,,,,81.84,SBMT 051600Z 22003KT 9999 BKN043 27/17 Q1014,
SBMT,2024-01-05 17:00,82.40,62.60,51.21,210.00,5.00,0.00,29.94,,6.21,,BKN,,,,4500.00,,,,,,,,,,,83.41,SBMT 051700Z 21005KT 150V260 9999 BKN045 28/17 Q1014,
SBMT,2024-01-05 18:00,78.80,66.20,65.33,130.00,12.00,0.00,29.91,,6.21,,SCT,BKN,,,3000.00,4500.00,,,,,,,,,,78.80,SBMT 051800Z 13012KT 100V180 9999 SCT030 BKN045 26/19 Q1013,
SBMT,2024-01-05 19:00,77.00,64.40,65.12,160.00,10.00,0.00,29.91,,6.21,,SCT,SCT,,,2500.00,4500.00,,,,,,,,,,77.00,SBMT 051900Z 16010KT 120V200 9999 SCT025 SCT045 25/18 Q1013,
SBMT,2024-01-05 20:00,75.20,64.40,69.14,160.00,9.00,0.00,29.94,,6.21,,SCT,SCT,,,2500.00,4500.00,,,,,,,,,,75.20,SBMT 052000Z 16009KT 100V200 9999 SCT025 SCT045 24/18 Q1014,
SBMT,2024-01-05 21:00,71.60,62.60,73.27,140.00,7.00,0.00,29.94,,6.21,,BKN,BKN,,,2000.00,3000.00,,,,,,,,,,71.60,SBMT 052100Z 14007KT 080V190 9999 BKN020 BKN030 22/17 Q1014,
SBMT,2024-01-05 22:00,71.60,64.40,78.04,130.00,8.00,0.00,29.97,,6.21,,SCT,BKN,BKN,,1700.00,2000.00,3000.00,,,,,,,,,71.60,SBMT 052200Z 13008KT 100V180 9999 SCT017 BKN020 BKN030 22/18 Q1015,
SBMT,2024-01-05 23:00,69.80,62.60,77.90,120.00,8.00,0.00,29.97,,6.21,,SCT,BKN,,,1700.00,2000.00,,,,,,,,,,69.80,SBMT 052300Z 12008KT 080V170 9999 SCT017 BKN020 21/17 Q1015,
SBMT,2024-01-06 00:00,69.80,62.60,77.90,120.00,6.00,0.00,30.00,,6.21,,SCT,BKN,,,1700.00,2000.00,,,,,,,,,,69.80,SBMT 060000Z 12006KT 090V170 9999 SCT017 BKN020 21/17 Q1016,
SBMT,2024-01-06 01:00,69.80,62.60,77.90,100.00,10.00,0.00,30.00,,6.21,,SCT,BKN,,,1700.00,2000.00,,,,,,,,,,69.80,SBMT 060100Z 10010KT 9999 SCT017 BKN020 21/17 Q1016,
SBMT,2024-01-06 02:00,68.00,62.60,82.86,80.00,9.00,0.00,30.00,,6.21,,SCT,BKN,,,1700.00,2000.00,,,,,,,,,,68.00,SBMT 060200Z 08009KT 9999 SCT017 BKN020 20/17 Q1016,
SBMT,2024-01-06 09:00,68.00,60.80,77.75,100.00,7.00,0.00,29.97,,6.21,,BKN,,,,1500.00,,,,,,,,,,,68.00,SBMT 060900Z 10007KT 9999 BKN015 20/16 Q1015,
SBMT,2024-01-06 10:00,68.00,60.80,77.75,100.00,7.00,0.00,30.00,,6.21,,BKN,,,,1500.00,,,,,,,,,,,68.00,SBMT 061000Z 10007KT 9999 BKN015 20/16 Q1016,
SBMT,2024-01-06 11:00,69.80,60.80,73.09,90.00,6.00,0.00,30.00,,6.21,,BKN,,,,2500.00,,,,,,,,,,,69.80,SBMT 061100Z 09006KT 9999 BKN025 21/16 Q1016,
SBMT,2024-01-06 12:00,73.40,60.80,64.69,80.00,6.00,0.00,30.00,,6.21,,BKN,,,,2500.00,,,,,,,,,,,73.40,SBMT 061200Z 08006KT 9999 BKN025 23/16 Q1016,
SBMT,2024-01-06 13:00,75.20,60.80,60.90,120.00,8.00,0.00,30.00,,6.21,,SCT,,,,2500.00,,,,,,,,,,,75.20,SBMT 061300Z 12008KT 9999 SCT025 24/16 Q1016,
SBMT,2024-01-06 14:00,77.00,60.80,57.36,100.00,5.00,0.00,30.00,,6.21,,SCT,,,,3000.00,,,,,,,,,,,77.00,SBMT 061400Z 10005KT 9999 SCT030 25/16 Q1016,
SBMT,2024-01-06 15:00,80.60,60.80,50.95,100.00,6.00,0.00,30.00,,6.21,,SCT,,,,4000.00,,,,,,,,,,,81.46,SBMT 061500Z 10006KT 9999 SCT040 27/16 Q1016,
SBMT,2024-01-06 16:00,80.60,59.00,47.79,80.00,7.00,0.00,29.97,,6.21,,SCT,,,,4000.00,,,,,,,,,,,81.11,SBMT 061600Z 08007KT 9999 SCT040 27/15 Q1015,
SBMT,2024-01-06 17:00,82.40,66.20,58.08,160.00,9.00,0.00,29.97,,6.21,,SCT,,,,4000.00,,,,,,,,,,,84.63,SBMT 061700Z 16009KT 9999 SCT040 28/19 Q1015,
SBMT,2024-01-06 18:00,80.60,64.40,57.84,150.00,8.00,0.00,29.94,,6.21,,,,,,,,,,,,,,,,,82.27,SBMT 061800Z 15008KT CAVOK 27/18 Q1014,
SBMT,2024-01-06 19:00,78.80,64.40,61.36,160.00,10.00,0.00,29.94,,6.21,,,,,,,,,,,,,,,,,78.80,SBMT 061900Z 16010KT CAVOK 26/18 Q1014,
SBMT,2024-01-06 20:00,77.00,64.40,65.12,170.00,9.00,0.00,29.94,,6.21,,,,,,,,,,,,,,,,,77.00,SBMT 062000Z 17009KT CAVOK 25/18 Q1014,
SBMT,2024-01-06 21:00,73.40,64.40,73.44,160.00,9.00,0.00,29.97,,6.21,,,,,,,,,,,,,,,,,73.40,SBMT 062100Z 16009KT CAVOK 23/18 Q1015,
SBMT,2024-01-06 22:00,71.60,64.40,78.04,150.00,8.00,0.00,29.97,,6.21,,BKN,,,,2000.00,,,,,,,,,,,71.60,SBMT 062200Z 15008KT 9999 BKN020 22/18 Q1015,
SBMT,2024-01-06 23:00,71.60,62.60,73.27,120.00,9.00,0.00,30.00,,6.21,,BKN,,,,2000.00,,,,,,,,,,,71.60,SBMT 062300Z 12009KT 9999 BKN020 22/17 Q1016,
SBMT,2024-01-07 00:00,69.80,62.60,77.90,100.00,8.00,0.00,30.00,,6.21,,BKN,,,,2000.00,,,,,,,,,,,69.80,SBMT 070000Z 10008KT 9999 BKN020 21/17 Q1016,
SBMT,2024-01-07 01:00,69.80,62.60,77.90,90.00,8.00,0.00,30.03,,6.21,,BKN,,,,2000.00,,,,,,,,,,,69.80,SBMT 070100Z 09008KT 9999 BKN020 21/17 Q1017,
SBMT,2024-01-07 02:00,69.80,62.60,77.90,120.00,9.00,0.00,30.03,,6.21,,SCT,BKN,,,1500.00,1700.00,,,,,,,,,,69.80,SBMT 070200Z 12009KT 9999 SCT015 BKN017 21/17 Q1017,
SBMT,2024-01-07 09:00,68.00,60.80,77.75,90.00,7.00,0.00,29.97,,6.21,,BKN,,,,1200.00,,,,,,,,,,,68.00,COR SBMT 070900Z 09007KT 9999 BKN012 20/16 Q1015,
SBMT,2024-01-07 10:00,69.80,62.60,77.90,60.00,6.00,0.00,30.00,,6.21,,FEW,,,,1300.00,,,,,,,,,,,69.80,SBMT 071000Z 06006KT 9999 FEW013 21/17 Q1016,
SBMT,2024-01-07 11:00,73.40,62.60,68.94,100.00,5.00,0.00,30.00,,6.21,,,,,,,,,,,,,,,,,73.40,SBMT 071100Z 10005KT CAVOK 23/17 Q1016,
SBMT,2024-01-07 12:00,77.00,62.60,61.13,110.00,5.00,0.00,30.00,,6.21,,,,,,,,,,,,,,,,,77.00,SBMT 071200Z 11005KT CAVOK 25/17 Q1016,
SBMT,2024-01-07 13:00,78.80,62.60,57.60,110.00,5.00,0.00,30.00,,6.21,,,,,,,,,,,,,,,,,78.80,SBMT 071300Z 11005KT CAVOK 26/17 Q1016,
SBMT,2024-01-07 14:00,84.20,62.60,48.32,240.00,3.00,0.00,30.00,,6.21,,,,,,,,,,,,,,,,,85.03,SBMT 071400Z 24003KT CAVOK 29/17 Q1016,
SBMT,2024-01-07 15:00,86.00,60.80,42.80,200.00,3.00,0.00,29.97,,6.21,,FEW,,,,4000.00,,,,,,,,,,,86.05,SBMT 071500Z 20003KT 9999 FEW040 30/16 Q1015,
SBMT,2024-01-07 16:00,87.80,59.00,37.90,250.00,5.00,0.00,29.94,,6.21,,SCT,,,,4000.00,,,,,,,,,,,87.12,SBMT 071600Z 25005KT 9999 SCT040 31/15 Q1014,
SBMT,2024-01-07 17:00,89.60,59.00,35.81,250.00,4.00,0.00,29.91,,6.21,,,,,,,,,,,,,,,,,88.86,SBMT 071700Z 25004KT CAVOK 32/15 Q1013,
SBMT,2024-01-07 18:00,87.80,66.20,48.84,180.00,8.00,0.00,29.91,,6.21,,,,,,,,,,,,,,,,,90.31,SBMT 071800Z 18008KT 110V230 CAVOK 31/19 Q1013,
SBMT,2024-01-07 19:00,82.40,66.20,58.08,150.00,9.00,0.00,29.91,,6.21,,,,,,,,,,,,,,,,,84.63,SBMT 071900Z 15009KT 110V190 CAVOK 28/19 Q1013,
SBMT,2024-01-07 20:00,78.80,64.40,61.36,150.00,9.00,0.00,29.91,,6.21,,,,,,,,,,,,,,,,,78.80,SBMT 072000Z 15009KT 120V180 CAVOK 26/18 Q1013,
SBMT,2024-01-07 21:00,78.80,64.40,61.36,100.00,8.00,0.00,29.91,,6.21,,,,,,,,,,,,,,,,,78.80,SBMT 072100Z 10008KT 070V150 CAVOK 26/18 Q1013,
SBMT,2024-01-07 22:00,77.00,62.60,61.13,100.00,8.00,0.00,29.94,,6.21,,,,,,,,,,,,,,,,,77.00,SBMT 072200Z 10008KT CAVOK 25/17 Q1014,
SBMT,2024-01-07 23:00,77.00,64.40,65.12,140.00,5.00,0.00,29.97,,6.21,,,,,,,,,,,,,,,,,77.00,SBMT 072300Z 14005KT 100V170 CAVOK 25/18 Q1015,
SBMT,2024-01-08 00:00,75.20,66.20,73.61,100.00,5.00,0.00,30.00,,6.21,,,,,,,,,,,,,,,,,75.20,SBMT 080000Z 10005KT 070V150 CAVOK 24/19 Q1016,
SBMT,2024-01-08 01:00,75.20,64.40,69.14,90.00,3.00,0.00,30.00,,6.21,,,,,,,,,,,,,,,,,75.20,SBMT 080100Z 09003KT 040V140 CAVOK 24/18 Q1016,
SBMT,2024-01-08 02:00,75.20,66.20,73.61,80.00,5.00,0.00,30.00,,6.21,,,,,,,,,,,,,,,,,75.20,SBMT 080200Z 08005KT CAVOK 24/19 Q1016,
SBMT,2024-01-08 09:00,69.80,64.40,82.98,130.00,4.00,0.00,29.94,,6.21,,,,,,,,,,,,,,,,,69.80,SBMT 080900Z 13004KT CAVOK 21/18 Q1014,
SBMT,2024-01-08 10:00,75.20,64.40,69.14,110.00,3.00,0.00,29.97,,6.21,,,,,,,,,,,,,,,,,75.20,SBMT 081000Z 11003KT 060V140 CAVOK 24/18 Q1015,
SBMT,2024-01-08 11:00,78.80,66.20,65.33,130.00,3.00,0.00,29.97,,6.21,,,,,,,,,,,,,,,,,78.80,SBMT 081100Z 13003KT 070V200 CAVOK 26/19 Q1015,
SBMT,2024-01-08 12:00,84.20,64.40,51.47,,2.00,0.00,29.97,,6.21,,,,,,,,,,,,,,,,,85.71,SBMT 081200Z VRB02KT CAVOK 29/18 Q1015,
SBMT,2024-01-08 13:00,86.00,62.60,45.61,310.00,10.00,0.00,29.97,,6.21,,,,,,,,,,,,,,,,,86.72,SBMT 081300Z 31010KT 270V350 CAVOK 30/17 Q1015,
SBMT,2024-01-08 14:00,87.80,64.40,45.88,300.00,9.00,0.00,29.97,,6.21,,,,,,,,,,,,,,,,,89.33,SBMT 081400Z 30009KT 250V010 CAVOK 31/18 Q1015,
SBMT,2024-01-08 15:00,89.60,62.60,40.69,,5.00,0.00,29.94,,6.21,,,,,,,,,,,,,,,,,90.32,SBMT 081500Z VRB05KT CAVOK 32/17 Q1014,
SBMT,2024-01-08 16:00,86.00,64.40,48.58,230.00,7.00,0.00,29.94,,6.21,,BKN,FEW,,,5000.00,6000.00,,,,,,,,,,87.49,SBMT 081600Z 23007KT 170V290 9999 BKN050 FEW060TCU 30/18 Q1014,
SBMT,2024-01-08 17:00,91.40,62.60,38.45,350.00,9.00,0.00,29.91,,6.21,,SCT,FEW,,,4000.00,5000.00,,,,,,,,,,92.23,SBMT 081700Z 35009KT 9999 SCT040 FEW050TCU 33/17 Q1013,
SBMT,2024-01-08 18:00,91.40,62.60,38.45,300.00,8.00,0.00,29.88,,6.21,19.00,SCT,FEW,,,4000.00,5000.00,,,,,,,,,,92.23,SBMT 081800Z 30008G19KT 9999 SCT040 FEW050TCU 33/17 Q1012,
SBMT,2024-01-08 19:00,75.20,64.40,69.14,120.00,19.00,0.00,29.97,,1.55,31.00,BKN,FEW,,,3000.00,4000.00,,,-TSRA,,,,,,,75.20,SBMT 081900Z 12019G31KT 2500 -TSRA BKN030 FEW040CB 24/18 Q1015,
SBMT,2024-01-08 19:06,66.20,62.60,88.18,170.00,14.00,0.00,29.97,,0.31,,BKN,FEW,,,2500.00,4000.00,,,-TSRA,,,,,,,66.20,SBMT 081906Z 17014KT 0500 -TSRA BKN025 FEW040CB 19/17 Q1015,
SBMT,2024-01-08 20:00,69.80,64.40,82.98,40.00,4.00,0.00,29.91,,3.11,,BKN,FEW,,,3000.00,4000.00,,,-RA BR,,,,,,,69.80,SBMT 082000Z 04004KT 5000 -RA BR BKN030 FEW040TCU 21/18 Q1013 RETS,
SBMT,2024-01-08 21:00,71.60,64.40,78.04,310.00,6.00,0.00,29.94,,6.21,,BKN,FEW,,,2500.00,4000.00,,,,,,,,,,71.60,SBMT 082100Z 31006KT 9999 BKN025 FEW040TCU 22/18 Q1014,
SBMT,2024-01-08 22:00,69.80,64.40,82.98,260.00,6.00,0.00,29.97,,3.73,,BKN,FEW,,,3000.00,4000.00,,,-RA,,,,,,,69.80,SBMT 082200Z 26006KT 6000 -RA BKN030 FEW040TCU 21/18 Q1015,
SBMT,2024-01-08 23:00,71.60,66.20,83.09,290.00,7.00,0.00,30.00,,6.21,,SCT,,,,3000.00,,,,,,,,,,,71.60,SBMT 082300Z 29007KT 9999 SCT030 22/19 Q1016,
SBMT,2024-01-09 00:00,71.60,64.40,78.04,0.00,0.00,0.00,30.00,,4.97,,SCT,,,,3000.00,,,,,,,,,,,71.60,SBMT 090000Z 00000KT 8000 SCT030 22/18 Q1016,
SBMT,2024-01-09 01:00,71.60,62.60,73.27,70.00,5.00,0.00,30.00,,6.21,,SCT,,,,3000.00,,,,,,,,,,,71.60,SBMT 090100Z 07005KT 9999 SCT030 22/17 Q1016,
SBMT,2024-01-09 02:00,71.60,62.60,73.27,120.00,8.00,0.00,29.97,,6.21,,,,,,,,,,,,,,,,,71.60,SBMT 090200Z 12008KT CAVOK 22/17 Q1015,
SBMT,2024-01-09 09:00,69.80,62.60,77.90,160.00,3.00,0.00,30.06,,6.21,,,,,,,,,,,,,,,,,69.80,SBMT 090900Z 16003KT 070V240 CAVOK 21/17 Q1018,
SBMT,2024-01-09 10:00,71.60,64.40,78.04,200.00,4.00,0.00,30.09,,6.21,,,,,,,,,,,,,,,,,71.60,SBMT 091000Z 20004KT 140V270 CAVOK 22/18 Q1019,
SBMT,2024-01-09 11:00,75.20,66.20,73.61,220.00,4.00,0.00,30.09,,6.21,,,,,,,,,,,,,,,,,75.20,SBMT 091100Z 22004KT 160V290 CAVOK 24/19 Q1019,
SBMT,2024-01-09 12:00,77.00,68.00,73.78,,2.00,0.00,30.09,,6.21,,,,,,,,,,,,,,,,,77.00,SBMT 091200Z VRB02KT CAVOK 25/20 Q1019,
SBMT,2024-01-09 13:00,80.60,68.00,65.54,300.00,5.00,0.00,30.06,,6.21,,,,,,,,,,,,,,,,,83.29,SBMT 091300Z 30005KT 240V330 CAVOK 27/20 Q1018,
SBMT,2024-01-09 14:00,82.40,66.20,58.08,10.00,6.00,0.00,30.03,,6.21,,,,,,,,,,,,,,,,,84.63,SBMT 091400Z 01006KT 300V080 CAVOK 28/19 Q1017,
SBMT,2024-01-09 15:00,86.00,66.20,51.72,290.00,7.00,0.00,30.00,,6.21,,,,,,,,,,,,,,,,,88.39,SBMT 091500Z 29007KT 250V350 CAVOK 30/19 Q1016,
SBMT,2024-01-09 16:00,87.80,66.20,48.84,280.00,8.00,0.00,29.97,,6.21,,,,,,,,,,,,,,,,,90.31,SBMT 091600Z 28008KT 250V350 CAVOK 31/19 Q1015,
SBMT,2024-01-09 17:00,87.80,62.60,43.07,320.00,6.00,0.00,29.97,,6.21,,,,,,,,,,,,,,,,,88.48,SBMT 091700Z 32006KT 230V020 CAVOK 31/17 Q1015,
SBMT,2024-01-09 18:00,89.60,62.60,40.69,350.00,6.00,0.00,29.94,,6.21,,,,,,,,,,,,,,,,,90.32,SBMT 091800Z 35006KT 300V010 CAVOK 32/17 Q1014,
SBMT,2024-01-09 19:00,89.60,59.00,35.81,320.00,7.00,0.00,29.88,,6.21,,SCT,FEW,,,5000.00,6000.00,,,,,,,,,,88.86,SBMT 091900Z 32007KT 300V010 9999 SCT050 FEW060TCU 32/15 Q1012,
SBMT,2024-01-09 20:00,64.40,62.60,93.88,180.00,21.00,0.00,29.94,,0.31,40.00,BKN,FEW,,,4000.00,5000.00,,,+TSRA,,,,,,,64.40,SBMT 092000Z 18021G40KT 0500 +TSRA BKN040 FEW050CB 18/17 Q1014,
SBMT,2024-01-09 21:00,69.80,64.40,82.98,180.00,7.00,0.00,29.97,,2.49,,BKN,FEW,,,4600.00,6000.00,,,-TSRA,,,,,,,69.80,SBMT 092100Z 18007KT 140V240 4000 -TSRA BKN046 FEW060CB 21/18 Q1015 RERA,
SBMT,2024-01-09 22:00,71.60,64.40,78.04,30.00,4.00,0.00,29.94,,6.21,,BKN,FEW,SCT,,5000.00,6000.00,10000.00,,,,,,,,,71.60,SBMT 092200Z 03004KT 320V130 9999 BKN050 FEW060TCU SCT100 22/18 Q1014 RETS,
SBMT,2024-01-09 23:00,71.60,66.20,83.09,260.00,4.00,0.00,30.00,,6.21,,,,,,,,,,,,,,,,,71.60,SBMT 092300Z 26004KT CAVOK 22/19 Q1016,
SBMT,2024-01-10 00:00,71.60,66.20,83.09,,2.00,0.00,30.00,,6.21,,,,,,,,,,,,,,,,,71.60,SBMT 100000Z VRB02KT CAVOK 22/19 Q1016,
SBMT,2024-01-10 01:00,71.60,66.20,83.09,250.00,3.00,0.00,30.03,,6.21,,,,,,,,,,,,,,,,,71.60,SBMT 100100Z 25003KT 220V360 CAVOK 22/19 Q1017,
SBMT,2024-01-10 02:00,71.60,68.00,88.43,,2.00,0.00,30.03,,6.21,,,,,,,,,,,,,,,,,71.60,SBMT 100200Z VRB02KT CAVOK 22/20 Q1017,
SBMT,2024-01-10 09:00,69.80,66.20,88.34,60.00,2.00,0.00,30.00,,6.21,,,,,,,,,,,,,,,,,69.80,SBMT 100900Z 06002KT CAVOK 21/19 Q1016,
SBMT,2024-01-10 10:00,75.20,68.00,78.34,80.00,3.00,0.00,30.00,,6.21,,,,,,,,,,,,,,,,,75.20,SBMT 101000Z 08003KT CAVOK 24/20 Q1016,
SBMT,2024-01-10 11:00,78.80,68.00,69.52,70.00,2.00,0.00,30.00,,6.21,,,,,,,,,,,,,,,,,78.80,SBMT 101100Z 07002KT CAVOK 26/20 Q1016,
SBMT,2024-01-10 12:00,80.60,68.00,65.54,30.00,4.00,0.00,30.03,,6.21,,,,,,,,,,,,,,,,,83.29,SBMT 101200Z 03004KT CAVOK 27/20 Q1017,
SBMT,2024-01-10 13:00,82.40,66.20,58.08,350.00,5.00,0.00,30.00,,6.21,,,,,,,,,,,,,,,,,84.63,SBMT 101300Z 35005KT CAVOK 28/19 Q1016,
SBMT,2024-01-10 14:00,84.20,66.20,54.80,360.00,5.00,0.00,30.00,,6.21,,,,,,,,,,,,,,,,,86.50,SBMT 101400Z 36005KT CAVOK 29/19 Q1016,
SBMT,2024-01-10 15:00,86.00,66.20,51.72,310.00,10.00,0.00,29.97,,6.21,,,,,,,,,,,,,,,,,88.39,SBMT 101500Z 31010KT CAVOK 30/19 Q1015,
SBMT,2024-01-10 16:00,87.80,62.60,43.07,350.00,7.00,0.00,29.97,,6.21,,,,,,,,,,,,,,,,,88.48,SBMT 101600Z 35007KT CAVOK 31/17 Q1015,
SBMT,2024-01-10 17:00,78.80,51.80,39.02,330.00,6.00,0.00,29.94,,6.21,,,,,,,,,,,,,,,,,78.80,SBMT 101700Z 33006KT CAVOK 26/11 Q1014,
SBMT,2024-01-10 18:00,87.80,64.40,45.88,290.00,5.00,0.00,29.94,,6.21,,SCT,,,,3500.00,,,,,,,,,,,89.33,SBMT 101800Z 29005KT 240V340 9999 SCT035 31/18 Q1014,
SBMT,2024-01-10 19:00,91.40,64.40,40.96,,4.00,0.00,29.88,,6.21,,SCT,SCT,,,2000.00,3500.00,,,VCSH,,,,,,,93.19,SBMT 101900Z VRB04KT 9999 VCSH SCT020 SCT035 33/18 Q1012,
SBMT,2024-01-10 20:00,82.40,71.60,69.90,130.00,12.00,0.00,29.91,,6.21,,SCT,SCT,,,2000.00,3500.00,,,VCSH,,,,,,,87.18,SBMT 102000Z 13012KT 9999 VCSH SCT020 SCT035 28/22 Q1013,
SBMT,2024-01-10 21:00,78.80,69.80,73.95,200.00,12.00,0.00,29.94,,6.21,,SCT,SCT,,,2000.00,3500.00,,,,,,,,,,78.80,SBMT 102100Z 20012KT 160V230 9999 SCT020 SCT035 26/21 Q1014,
SBMT,2024-01-10 22:00,73.40,71.60,94.10,260.00,5.00,0.00,30.00,,1.86,,SCT,BKN,FEW,,1300.00,1800.00,3500.00,,-TSRA,,,,,,,73.40,SBMT 102200Z 26005KT 210V290 3000 -TSRA SCT013 BKN018 FEW035CB 23/22 Q1016,
SBMT,2024-01-10 23:00,73.40,69.80,88.51,0.00,0.00,0.00,30.00,,4.35,,SCT,BKN,FEW,,1500.00,2500.00,3500.00,,,,,,,,,73.40,SBMT 102300Z 00000KT 7000 SCT015 BKN025 FEW035TCU 23/21 Q1016 RETS,
SBMT,2024-01-11 00:00,75.20,69.80,83.32,,4.00,0.00,30.03,,1.24,,BKN,BKN,,,1100.00,1700.00,,,RA BR,,,,,,,75.20,COR SBMT 110000Z VRB04KT 2000 RA BR BKN011 BKN017 24/21 Q1017,
SBMT,2024-01-11 01:00,68.00,68.00,100.00,120.00,3.00,0.00,30.06,,1.24,,BKN,BKN,FEW,,1100.00,1700.00,3500.00,,-TSRA BR,,,,,,,68.00,SBMT 110100Z 12003KT 090V150 2000 -TSRA BR BKN011 BKN017 FEW035CB 20/20 Q1018 RERA,
SBMT,2024-01-11 02:00,69.80,69.80,100.00,,2.00,0.00,30.06,,4.35,,BKN,FEW,,,1700.00,3500.00,,,TS,,,,,,,69.80,SBMT 110200Z VRB02KT 7000 TS BKN017 FEW035CB 21/21 Q1018 RERA,
SBMT,2024-01-11 09:00,71.60,68.00,88.43,30.00,2.00,0.00,29.97,,6.21,,,,,,,,,,,,,,,,,71.60,SBMT 110900Z 03002KT CAVOK 22/20 Q1015,
SBMT,2024-01-11 10:00,75.20,66.20,73.61,300.00,5.00,0.00,30.00,,6.21,,,,,,,,,,,,,,,,,75.20,SBMT 111000Z 30005KT 260V340 CAVOK 24/19 Q1016,
SBMT,2024-01-11 11:00,75.20,68.00,78.34,310.00,5.00,0.00,30.00,,6.21,,FEW,,,,2000.00,,,,,,,,,,,75.20,SBMT 111100Z 31005KT 9999 FEW020 24/20 Q1016,
SBMT,2024-01-11 12:00,77.00,68.00,73.78,310.00,6.00,0.00,30.00,,6.21,,BKN,,,,2200.00,,,,,,,,,,,77.00,SBMT 111200Z 31006KT 9999 BKN022 25/20 Q1016,
SBMT,2024-01-11 13:00,78.80,66.20,65.33,330.00,10.00,0.00,30.00,,6.21,,SCT,,,,3000.00,,,,,,,,,,,78.80,SBMT 111300Z 33010KT 9999 SCT030 26/19 Q1016,
SBMT,2024-01-11 14:00,82.40,66.20,58.08,320.00,11.00,0.00,29.97,,6.21,,SCT,,,,3600.00,,,,,,,,,,,84.63,SBMT 111400Z 32011KT 9999 SCT036 28/19 Q1015,
SBMT,2024-01-11 15:00,84.20,68.00,58.32,340.00,7.00,0.00,29.97,,6.21,,BKN,,,,4500.00,,,,,,,,,,,87.40,SBMT 111500Z 34007KT 9999 BKN045 29/20 Q1015,
SBMT,2024-01-11 16:00,84.20,66.20,54.80,300.00,14.00,0.00,29.94,,6.21,24.00,BKN,,,,4500.00,,,,,,,,,,,86.50,SBMT 111600Z 30014G24KT 9999 BKN045 29/19 Q1014,
SBMT,2024-01-11 17:00,86.00,66.20,51.72,320.00,10.00,0.00,29.91,,6.21,,BKN,,,,4900.00,,,,,,,,,,,88.39,SBMT 111700Z 32010KT 9999 BKN049 30/19 Q1013,
SBMT,2024-01-11 18:00,86.00,66.20,51.72,320.00,10.00,0.00,29.88,,6.21,,BKN,,,,4900.00,,,,,,,,,,,88.39,SBMT 111800Z 32010KT 9999 BKN049 30/19 Q1012,
SBMT,2024-01-11 19:00,86.00,66.20,51.72,330.00,6.00,0.00,29.85,,6.21,,BKN,,,,4900.00,,,,,,,,,,,88.39,COR SBMT 111900Z 33006KT 9999 BKN049 30/19 Q1011,
SBMT,2024-01-11 20:00,84.20,68.00,58.32,340.00,6.00,0.00,29.85,,6.21,,FEW,FEW,BKN,,3000.00,4500.00,4900.00,,,,,,,,,87.40,SBMT 112000Z 34006KT 9999 FEW030 FEW045TCU BKN049 29/20 Q1011,
SBMT,2024-01-11 21:00,82.40,66.20,58.08,300.00,12.00,0.00,29.88,,6.21,22.00,SCT,FEW,BKN,,4200.00,4500.00,4900.00,,,,,,,,,84.63,SBMT 112100Z 30012G22KT 9999 SCT042 FEW045TCU BKN049 28/19 Q1012,
SBMT,2024-01-11 22:00,77.00,68.00,73.78,360.00,4.00,0.00,29.91,,6.21,,SCT,FEW,BKN,,4000.00,4500.00,6000.00,,,,,,,,,77.00,SBMT 112200Z 36004KT 9999 SCT040 FEW045TCU BKN060 25/20 Q1013,
SBMT,2024-01-11 23:00,77.00,66.20,69.33,330.00,4.00,0.00,29.94,,6.21,,,,,,,,,,,,,,,,,77.00,SBMT 112300Z 33004KT CAVOK 25/19 Q1014,
SBMT,2024-01-12 00:00,77.00,68.00,73.78,300.00,3.00,0.00,29.94,,6.21,,,,,,,,,,,,,,,,,77.00,SBMT 120000Z 30003KT CAVOK 25/20 Q1014,
SBMT,2024-01-12 01:00,77.00,68.00,73.78,290.00,8.00,0.00,29.97,,6.21,,BKN,,,,2600.00,,,,,,,,,,,77.00,SBMT 120100Z 29008KT 9999 BKN026 25/20 Q1015,
SBMT,2024-01-12 02:00,73.40,68.00,83.21,280.00,4.00,0.00,29.94,,6.21,,,,,,,,,,,,,,,,,73.40,SBMT 120200Z 28004KT CAVOK 23/20 Q1014,
SBMT,2024-01-12 09:00,71.60,69.80,94.06,310.00,2.00,0.00,29.88,,6.21,,BKN,,,,1700.00,,,,,,,,,,,71.60,SBMT 120900Z 31002KT 9999 BKN017 22/21 Q1012,
SBMT,2024-01-12 10:00,73.40,66.20,78.19,300.00,4.00,0.00,29.88,,6.21,,SCT,,,,1500.00,,,,,,,,,,,73.40,SBMT 121000Z 30004KT 9999 SCT015 23/19 Q1012,
SBMT,2024-01-12 11:00,73.40,66.20,78.19,290.00,10.00,0.00,29.91,,6.21,,SCT,BKN,,,1500.00,8000.00,,,,,,,,,,73.40,SBMT 121100Z 29010KT 9999 SCT015 BKN080 23/19 Q1013,
SBMT,2024-01-12 12:00,73.40,66.20,78.19,270.00,10.00,0.00,29.97,,6.21,,BKN,,,,1500.00,,,,,,,,,,,73.40,SBMT 121200Z 27010KT 9999 BKN015 23/19 Q1015,
SBMT,2024-01-12 13:00,75.20,66.20,73.61,260.00,6.00,0.00,29.97,,6.21,,BKN,,,,1700.00,,,,,,,,,,,75.20,SBMT 121300Z 26006KT 9999 BKN017 24/19 Q1015,
SBMT,2024-01-12 14:00,77.00,66.20,69.33,260.00,9.00,0.00,29.97,,6.21,,BKN,,,,2500.00,,,,,,,,,,,77.00,SBMT 121400Z 26009KT 9999 BKN025 25/19 Q1015,
SBMT,2024-01-12 15:00,78.80,66.20,65.33,240.00,8.00,0.00,29.94,,6.21,,SCT,,,,2500.00,,,,,,,,,,,78.80,SBMT 121500Z 24008KT 9999 SCT025 26/19 Q1014,
SBMT,2024-01-12 16:00,80.60,66.20,61.58,260.00,7.00,0.00,29.91,,6.21,,SCT,BKN,,,3000.00,8000.00,,,,,,,,,,82.75,SBMT 121600Z 26007KT 9999 SCT030 BKN080 27/19 Q1013,
SBMT,2024-01-12 17:00,84.20,69.80,62.03,270.00,8.00,0.00,29.91,,6.21,,BKN,FEW,,,3600.00,5000.00,,,VCSH,,,,,,,88.43,SBMT 121700Z 27008KT 9999 VCSH BKN036 FEW050TCU 29/21 Q1013,
SBMT,2024-01-12 18:00,80.60,69.80,69.71,220.00,13.00,0.00,29.88,,6.21,24.00,SCT,FEW,,,3500.00,5000.00,,,VCSH,,,,,,,83.90,SBMT 121800Z 22013G24KT 9999 4500S VCSH SCT035 FEW050TCU 27/21 Q1012,
SBMT,2024-01-12 19:00,75.20,71.60,88.59,10.00,3.00,0.00,29.91,,6.21,,FEW,FEW,SCT,,1900.00,5000.00,7000.00,,,,,,,,,75.20,SBMT 121900Z 01003KT 330V050 9999 FEW019 FEW050TCU SCT070 24/22 Q1013,
SBMT,2024-01-12 20:00,75.20,71.60,88.59,220.00,5.00,0.00,29.91,,6.21,,SCT,FEW,BKN,,2000.00,4000.00,8000.00,,VCSH VCTS,,,,,,,75.20,SBMT 122000Z 22005KT 150V300 9999 VCSH VCTS SCT020 FEW040CB BKN080 24/22 Q1013,
SBMT,2024-01-12 21:00,75.20,71.60,88.59,,3.00,0.00,29.94,,6.21,,SCT,BKN,FEW,BKN,1400.00,2600.00,4000.00,8000.00,VCTS,,,,,,,75.20,SBMT 122100Z VRB03KT 9999 VCTS SCT014 BKN026 FEW040CB BKN080 24/22 Q1014,
SBMT,2024-01-12 22:00,69.80,68.00,94.01,,2.00,0.00,29.97,,3.11,,BKN,BKN,OVC,,1000.00,3000.00,7000.00,,-RA,,,,,,,69.80,SBMT 122200Z VRB02KT 5000 -RA BKN010 BKN030 OVC070 21/20 Q1015 RERA,
SBMT,2024-01-12 23:00,69.80,69.80,100.00,170.00,3.00,0.00,30.00,,2.49,,BKN,OVC,,,800.00,8000.00,,,-RA,,,,,,,69.80,SBMT 122300Z 17003KT 4000 -RA BKN008 OVC080 21/21 Q1016 RERA,
SBMT,2024-01-13 00:00,69.80,69.80,100.00,260.00,2.00,0.00,30.03,,2.49,,SCT,BKN,OVC,,600.00,900.00,10000.00,,RA,,,,,,,69.80,SBMT 130000Z 26002KT 4000 RA SCT006 BKN009 OVC100 21/21 Q1017,
SBMT,2024-01-13 01:00,69.80,69.80,100.00,270.00,2.00,0.00,30.03,,3.11,,BKN,OVC,,,800.00,7000.00,,,-RA,,,,,,,69.80,SBMT 130100Z 27002KT 5000 -RA BKN008 OVC070 21/21 Q1017 RERA,
SBMT,2024-01-13 02:00,69.80,69.80,100.00,240.00,3.00,0.00,30.03,,3.11,,BKN,OVC,,,900.00,3000.00,,,-RA,,,,,,,69.80,SBMT 130200Z 24003KT 5000 -RA BKN009 OVC030 21/21 Q1017,
SBMT,2024-01-13 09:00,69.80,64.40,82.98,170.00,8.00,0.00,30.03,,3.11,,BKN,,,,1200.00,,,,BR,,,,,,,69.80,SBMT 130900Z 17008KT 5000 BR BKN012 21/18 Q1017,
SBMT,2024-01-13 10:00,69.80,64.40,82.98,170.00,4.00,0.00,30.03,,3.73,,BKN,SCT,,,1200.00,2000.00,,,,,,,,,,69.80,SBMT 131000Z 17004KT 6000 BKN012 SCT020 21/18 Q1017,
SBMT,2024-01-13 11:00,69.80,64.40,82.98,140.00,5.00,0.00,30.03,,4.35,,BKN,,,,1200.00,,,,,,,,,,,69.80,SBMT 131100Z 14005KT 7000 BKN012 21/18 Q1017,
SBMT,2024-01-13 12:00,71.60,64.40,78.04,160.00,6.00,0.00,30.06,,2.49,,BKN,,,,1200.00,,,,BR,,,,,,,71.60,SBMT 131200Z 16006KT 4000 BR BKN012 22/18 Q1018,
SBMT,2024-01-13 13:00,71.60,64.40,78.04,160.00,9.00,0.00,30.06,,2.49,,SCT,BKN,,,900.00,1200.00,,,BR,,,,,,,71.60,SBMT 131300Z 16009KT 4000 BR SCT009 BKN012 22/18 Q1018,
SBMT,2024-01-13 14:00,71.60,62.60,73.27,150.00,8.00,0.00,30.09,,3.73,,BKN,,,,1700.00,,,,,,,,,,,71.60,SBMT 131400Z 15008KT 6000 BKN017 22/17 Q1019,
SBMT,2024-01-13 15:00,73.40,62.60,68.94,140.00,10.00,0.00,30.06,,6.21,,BKN,,,,2000.00,,,,,,,,,,,73.40,SBMT 131500Z 14010KT 9999 BKN020 23/17 Q1018,
SBMT,2024-01-13 16:00,71.60,62.60,73.27,180.00,9.00,0.00,30.06,,6.21,,BKN,,,,1700.00,,,,,,,,,,,71.60,SBMT 131600Z 18009KT 9999 BKN017 22/17 Q1018,
SBMT,2024-01-13 17:00,71.60,62.60,73.27,170.00,8.00,0.00,30.03,,6.21,,BKN,,,,1900.00,,,,,,,,,,,71.60,SBMT 131700Z 17008KT 110V200 9999 BKN019 22/17 Q1017,
SBMT,2024-01-13 18:00,69.80,60.80,73.09,160.00,9.00,0.00,30.03,,6.21,,BKN,,,,1700.00,,,,,,,,,,,69.80,SBMT 131800Z 16009KT 120V200 9999 BKN017 21/16 Q1017,
SBMT,2024-01-13 19:00,69.80,60.80,73.09,150.00,7.00,0.00,30.03,,6.21,,BKN,,,,1700.00,,,,,,,,,,,69.80,SBMT 131900Z 15007KT 110V180 9999 BKN017 21/16 Q1017,
SBMT,2024-01-13 20:00,68.00,60.80,77.75,150.00,8.00,0.00,30.03,,6.21,,BKN,,,,1300.00,,,,,,,,,,,68.00,SBMT 132000Z 15008KT 110V190 9999 BKN013 20/16 Q1017,
SBMT,2024-01-13 21:00,66.20,60.80,82.74,150.00,8.00,0.00,30.06,,6.21,,BKN,,,,1300.00,,,,,,,,,,,66.20,SBMT 132100Z 15008KT 110V180 9999 BKN013 19/16 Q1018,
SBMT,2024-01-13 22:00,66.20,60.80,82.74,120.00,9.00,0.00,30.06,,6.21,,BKN,,,,1300.00,,,,,,,,,,,66.20,SBMT 132200Z 12009KT 090V150 9999 BKN013 19/16 Q1018,
SBMT,2024-01-13 23:00,66.20,60.80,82.74,120.00,8.00,0.00,30.09,,6.21,,BKN,,,,1100.00,,,,,,,,,,,66.20,SBMT 132300Z 12008KT 9999 BKN011 19/16 Q1019,
SBMT,2024-01-14 00:00,66.20,60.80,82.74,130.00,6.00,0.00,30.09,,6.21,,BKN,,,,1100.00,,,,,,,,,,,66.20,SBMT 140000Z 13006KT 100V170 9999 BKN011 19/16 Q1019,
SBMT,2024-01-14 01:00,66.20,60.80,82.74,120.00,6.00,0.00,30.12,,6.21,,BKN,,,,1100.00,,,,,,,,,,,66.20,SBMT 140100Z 12006KT 9999 BKN011 19/16 Q1020,
SBMT,2024-01-14 02:00,66.20,60.80,82.74,120.00,7.00,0.00,30.12,,6.21,,BKN,,,,1100.00,,,,,,,,,,,66.20,SBMT 140200Z 12007KT 090V160 9999 BKN011 19/16 Q1020,
SBMT,2024-01-14 09:00,66.20,57.20,72.74,100.00,4.00,0.00,30.06,,6.21,,BKN,,,,1700.00,,,,,,,,,,,66.20,SBMT 140900Z 10004KT 9999 BKN017 19/14 Q1018,
SBMT,2024-01-14 10:00,66.20,59.00,77.60,120.00,5.00,0.00,30.09,,6.21,,BKN,,,,1300.00,,,,,,,,,,,66.20,SBMT 141000Z 12005KT 9999 BKN013 19/15 Q1019,
SBMT,2024-01-14 11:00,69.80,60.80,73.09,100.00,6.00,0.00,30.09,,6.21,,FEW,,,,2000.00,,,,,,,,,,,69.80,SBMT 141100Z 10006KT 060V120 9999 FEW020 21/16 Q1019,
SBMT,2024-01-14 12:00,73.40,60.80,64.69,70.00,4.00,0.00,30.09,,6.21,,,,,,,,,,,,,,,,,73.40,SBMT 141200Z 07004KT 010V130 CAVOK 23/16 Q1019,
SBMT,2024-01-14 13:00,75.20,62.60,64.91,70.00,6.00,0.00,30.09,,6.21,,,,,,,,,,,,,,,,,75.20,SBMT 141300Z 07006KT 030V110 CAVOK 24/17 Q1019,
SBMT,2024-01-14 14:00,80.60,66.20,61.58,,4.00,0.00,30.06,,6.21,,,,,,,,,,,,,,,,,82.75,SBMT 141400Z VRB04KT CAVOK 27/19 Q1018,
SBMT,2024-01-14 15:00,80.60,64.40,57.84,280.00,5.00,0.00,30.03,,6.21,,FEW,,,,3600.00,,,,,,,,,,,82.27,SBMT 141500Z 28005KT 250V310 9999 FEW036 27/18 Q1017,
SBMT,2024-01-14 16:00,82.40,62.60,51.21,320.00,6.00,0.00,30.03,,6.21,,,,,,,,,,,,,,,,,83.41,SBMT 141600Z 32006KT CAVOK 28/17 Q1017,
SBMT,2024-01-14 17:00,86.00,64.40,48.58,,5.00,0.00,30.00,,6.21,,BKN,,,,4500.00,,,,,,,,,,,87.49,SBMT 141700Z VRB05KT 9999 BKN045 30/18 Q1016,
SBMT,2024-01-14 18:00,86.00,64.40,48.58,300.00,6.00,0.00,29.97,,6.21,,BKN,,,,4500.00,,,,,,,,,,,87.49,SBMT 141800Z 30006KT 240V340 9999 BKN045 30/18 Q1015,
SBMT,2024-01-14 19:00,87.80,66.20,48.84,280.00,7.00,0.00,29.94,,6.21,,BKN,,,,4500.00,,,,,,,,,,,90.31,SBMT 141900Z 28007KT 250V310 9999 BKN045 31/19 Q1014,
SBMT,2024-01-14 20:00,89.60,64.40,43.34,240.00,5.00,0.00,29.94,,6.21,,BKN,,,,4500.00,,,,,,,,,,,91.23,SBMT 142000Z 24005KT 180V290 9999 BKN045 32/18 Q1014,
SBMT,2024-01-14 21:00,80.60,68.00,65.54,150.00,7.00,0.00,29.94,,6.21,,SCT,,,,4500.00,,,,,,,,,,,83.29,COR SBMT 142100Z 15007KT 120V180 9999 SCT045 27/20 Q1014,
SBMT,2024-01-14 22:00,77.00,68.00,73.78,160.00,7.00,0.00,29.97,,6.21,,SCT,,,,4500.00,,,,,,,,,,,77.00,SBMT 142200Z 16007KT 120V180 9999 SCT045 25/20 Q1015,
SBMT,2024-01-14 23:00,75.20,68.00,78.34,160.00,5.00,0.00,30.00,,6.21,,SCT,,,,4500.00,,,,,,,,,,,75.20,SBMT 142300Z 16005KT 100V220 9999 SCT045 24/20 Q1016,
SBMT,2024-01-15 00:00,73.40,68.00,83.21,170.00,3.00,0.00,30.00,,6.21,,,,,,,,,,,,,,,,,73.40,SBMT 150000Z 17003KT CAVOK 23/20 Q1016,
SBMT,2024-01-15 01:00,73.40,68.00,83.21,160.00,3.00,0.00,30.03,,6.21,,,,,,,,,,,,,,,,,73.40,SBMT 150100Z 16003KT 110V200 CAVOK 23/20 Q1017,
SBMT,2024-01-15 02:00,73.40,68.00,83.21,0.00,0.00,0.00,30.06,,6.21,,,,,,,,,,,,,,,,,73.40,SBMT 150200Z 00000KT CAVOK 23/20 Q1018,
SBMT,2024-01-15 09:00,73.40,69.80,88.51,30.00,3.00,0.00,30.03,,6.21,,,,,,,,,,,,,,,,,73.40,SBMT 150900Z 03003KT CAVOK 23/21 Q1017,
SBMT,2024-01-15 10:00,75.20,68.00,78.34,350.00,5.00,0.00,30.03,,6.21,,,,,,,,,,,,,,,,,75.20,SBMT 151000Z 35005KT CAVOK 24/20 Q1017,
SBMT,2024-01-15 11:00,75.20,69.80,83.32,320.00,9.00,0.00,30.06,,6.21,,SCT,,,,1700.00,,,,,,,,,,,75.20,SBMT 151100Z 32009KT 9999 SCT017 24/21 Q1018,
SBMT,2024-01-15 12:00,78.80,69.80,73.95,340.00,7.00,0.00,30.06,,6.21,,SCT,,,,2000.00,,,,,,,,,,,78.80,SBMT 151200Z 34007KT 9999 SCT020 26/21 Q1018,
SBMT,2024-01-15 13:00,78.80,69.80,73.95,290.00,10.00,0.00,30.06,,6.21,,BKN,,,,2300.00,,,,,,,,,,,78.80,SBMT 151300Z 29010KT 9999 BKN023 26/21 Q1018,
SBMT,2024-01-15 14:00,82.40,68.00,61.81,330.00,7.00,0.00,30.03,,6.21,,BKN,,,,3000.00,,,,,,,,,,,85.38,SBMT 151400Z 33007KT 9999 BKN030 28/20 Q1017,
SBMT,2024-01-15 15:00,84.20,69.80,62.03,320.00,10.00,0.00,30.03,,6.21,,BKN,,,,3600.00,,,,,,,,,,,88.43,SBMT 151500Z 32010KT 9999 BKN036 29/21 Q1017,
SBMT,2024-01-15 16:00,84.20,68.00,58.32,290.00,10.00,0.00,30.03,,6.21,,BKN,BKN,,,4000.00,5000.00,,,,,,,,,,87.40,SBMT 151600Z 29010KT 9999 BKN040 BKN050 29/20 Q1017,
SBMT,2024-01-15 17:00,86.00,66.20,51.72,230.00,9.00,0.00,30.00,,6.21,,BKN,BKN,,,4000.00,5000.00,,,,,,,,,,88.39,SBMT 151700Z 23009KT 9999 BKN040 BKN050 30/19 Q1016,
SBMT,2024-01-15 18:00,86.00,66.20,51.72,320.00,9.00,0.00,29.97,,6.21,20.00,BKN,FEW,,,4000.00,5000.00,,,,,,,,,,88.39,SBMT 151800Z 32009G20KT 260V030 9999 BKN040 FEW050TCU 30/19 Q1015,
SBMT,2024-01-15 19:00,86.00,68.00,55.04,320.00,8.00,0.00,29.97,,6.21,,BKN,FEW,,,4000.00,5000.00,,,,,,,,,,89.41,SBMT 151900Z 32008KT 270V040 9999 BKN040 FEW050TCU 30/20 Q1015,
SBMT,2024-01-15 20:00,86.00,66.20,51.72,300.00,9.00,0.00,29.94,,6.21,,BKN,FEW,,,4000.00,5000.00,,,,,,,,,,88.39,SBMT 152000Z 30009KT 270V350 9999 BKN040 FEW050TCU 30/19 Q1014,
SBMT,2024-01-15 21:00,84.20,66.20,54.80,330.00,7.00,0.00,29.97,,6.21,,BKN,FEW,,,4000.00,5000.00,,,,,,,,,,86.50,SBMT 152100Z 33007KT 300V360 9999 BKN040 FEW050TCU 29/19 Q1015,
SBMT,2024-01-15 22:00,82.40,66.20,58.08,320.00,7.00,0.00,30.00,,6.21,,SCT,FEW,,,4000.00,5000.00,,,,,,,,,,84.63,SBMT 152200Z 32007KT 280V010 9999 SCT040 FEW050TCU 28/19 Q1016,
SBMT,2024-01-15 23:00,80.60,66.20,61.58,310.00,6.00,0.00,30.00,,6.21,,FEW,,,,4000.00,,,,,,,,,,,82.75,SBMT 152300Z 31006KT 270V360 9999 FEW040 27/19 Q1016,
SBMT,2024-01-16 00:00,80.60,68.00,65.54,310.00,7.00,0.00,30.00,,6.21,,,,,,,,,,,,,,,,,83.29,SBMT 160000Z 31007KT 280V350 CAVOK 27/20 Q1016,
SBMT,2024-01-16 01:00,78.80,68.00,69.52,330.00,6.00,0.00,30.03,,6.21,,,,,,,,,,,,,,,,,78.80,SBMT 160100Z 33006KT 290V360 CAVOK 26/20 Q1017,
SBMT,2024-01-16 02:00,78.80,68.00,69.52,360.00,3.00,0.00,30.03,,6.21,,,,,,,,,,,,,,,,,78.80,SBMT 160200Z 36003KT 310V050 CAVOK 26/20 Q1017,
SBMT,2024-01-16 09:00,73.40,68.00,83.21,310.00,2.00,0.00,30.03,,6.21,,,,,,,,,,,,,,,,,73.40,SBMT 160900Z 31002KT CAVOK 23/20 Q1017,
SBMT,2024-01-16 10:00,77.00,69.80,78.48,330.00,7.00,0.00,30.06,,6.21,,,,,,,,,,,,,,,,,77.00,SBMT 161000Z 33007KT CAVOK 25/21 Q1018,
SBMT,2024-01-16 11:00,78.80,68.00,69.52,340.00,6.00,0.00,30.06,,6.21,,,,,,,,,,,,,,,,,78.80,SBMT 161100Z 34006KT CAVOK 26/20 Q1018,
SBMT,2024-01-16 12:00,80.60,68.00,65.54,330.00,8.00,0.00,30.06,,6.21,,,,,,,,,,,,,,,,,83.29,SBMT 161200Z 33008KT CAVOK 27/20 Q1018,
SBMT,2024-01-16 13:00,82.40,68.00,61.81,360.00,8.00,0.00,30.06,,6.21,,FEW,,,,3000.00,,,,,,,,,,,85.38,SBMT 161300Z 36008KT 9999 FEW030 28/20 Q1018,
SBMT,2024-01-16 14:00,84.20,66.20,54.80,350.00,9.00,0.00,30.03,,6.21,,SCT,,,,3900.00,,,,,,,,,,,86.50,SBMT 161400Z 35009KT 9999 SCT039 29/19 Q1017,
SBMT,2024-01-16 15:00,87.80,68.00,51.98,320.00,9.00,0.00,30.00,,6.21,,BKN,,,,4500.00,,,,,,,,,,,91.43,SBMT 161500Z 32009KT 9999 BKN045 31/20 Q1016,
SBMT,2024-01-16 16:00,86.00,66.20,51.72,330.00,8.00,0.00,30.00,,6.21,,BKN,,,,4500.00,,,,,,,,,,,88.39,SBMT 161600Z 33008KT 9999 BKN045 30/19 Q1016,
SBMT,2024-01-16 17:00,87.80,66.20,48.84,360.00,11.00,0.00,29.97,,6.21,,SCT,,,,4900.00,,,,,,,,,,,90.31,SBMT 161700Z 36011KT 9999 SCT049 31/19 Q1015,
SBMT,2024-01-16 18:00,89.60,66.20,46.14,310.00,10.00,0.00,29.94,,6.21,,SCT,,,,4900.00,,,,,,,,,,,92.27,SBMT 161800Z 31010KT 9999 SCT049 32/19 Q1014,
SBMT,2024-01-16 19:00,87.80,66.20,48.84,330.00,8.00,0.00,29.94,,6.21,,SCT,,,,4900.00,,,,,,,,,,,90.31,SBMT 161900Z 33008KT 9999 SCT049 31/19 Q1014,
SBMT,2024-01-16 20:00,87.80,66.20,48.84,330.00,8.00,0.00,29.94,,6.21,,SCT,,,,4900.00,,,,,,,,,,,90.31,SBMT 162000Z 33008KT 9999 SCT049 31/19 Q1014,
SBMT,2024-01-16 21:00,87.80,66.20,48.84,320.00,8.00,0.00,29.94,,6.21,,SCT,FEW,,,4900.00,4900.00,,,,,,,,,,90.31,SBMT 162100Z 32008KT 9999 SCT049 FEW049TCU 31/19 Q1014,
SBMT,2024-01-16 22:00,86.00,66.20,51.72,330.00,5.00,0.00,29.97,,6.21,,,,,,,,,,,,,,,,,88.39,SBMT 162200Z 33005KT CAVOK 30/19 Q1015,
SBMT,2024-01-16 23:00,84.20,66.20,54.80,350.00,3.00,0.00,30.00,,6.21,,,,,,,,,,,,,,,,,86.50,SBMT 162300Z 35003KT CAVOK 29/19 Q1016,
SBMT,2024-01-17 00:00,84.20,66.20,54.80,360.00,4.00,0.00,30.00,,6.21,,,,,,,,,,,,,,,,,86.50,SBMT 170000Z 36004KT CAVOK 29/19 Q1016,
SBMT,2024-01-17 01:00,82.40,66.20,58.08,350.00,4.00,0.00,30.00,,6.21,,,,,,,,,,,,,,,,,84.63,SBMT 170100Z 35004KT CAVOK 28/19 Q1016,
SBMT,2024-01-17 02:00,82.40,68.00,61.81,340.00,3.00,0.00,30.00,,6.21,,,,,,,,,,,,,,,,,85.38,SBMT 170200Z 34003KT CAVOK 28/20 Q1016,
SBMT,2024-01-17 09:00,77.00,68.00,73.78,350.00,4.00,0.00,30.03,,6.21,,,,,,,,,,,,,,,,,77.00,SBMT 170900Z 35004KT CAVOK 25/20 Q1017,
SBMT,2024-01-17 10:00,78.80,68.00,69.52,360.00,5.00,0.00,30.03,,6.21,,,,,,,,,,,,,,,,,78.80,SBMT 171000Z 36005KT CAVOK 26/20 Q1017,
SBMT,2024-01-17 11:00,80.60,66.20,61.58,330.00,4.00,0.00,30.03,,6.21,,,,,,,,,,,,,,,,,82.75,SBMT 171100Z 33004KT CAVOK 27/19 Q1017,
SBMT,2024-01-17 12:00,84.20,66.20,54.80,310.00,6.00,0.00,30.06,,6.21,,,,,,,,,,,,,,,,,86.50,SBMT 171200Z 31006KT CAVOK 29/19 Q1018,
SBMT,2024-01-17 13:00,84.20,68.00,58.32,290.00,7.00,0.00,30.06,,6.21,,,,,,,,,,,,,,,,,87.40,SBMT 171300Z 29007KT CAVOK 29/20 Q1018,
SBMT,2024-01-17 14:00,84.20,66.20,54.80,240.00,6.00,0.00,30.06,,6.21,,FEW,,,,3000.00,,,,,,,,,,,86.50,SBMT 171400Z 24006KT 9999 FEW030 29/19 Q1018,
SBMT,2024-01-17 15:00,87.80,64.40,45.88,290.00,10.00,0.00,30.03,,6.21,,SCT,,,,4000.00,,,,,,,,,,,89.33,SBMT 171500Z 29010KT 9999 SCT040 31/18 Q1017,
SBMT,2024-01-17 16:00,89.60,64.40,43.34,280.00,12.00,0.00,30.03,,6.21,,SCT,,,,4000.00,,,,,,,,,,,91.23,SBMT 171600Z 28012KT 9999 SCT040 32/18 Q1017,
SBMT,2024-01-17 17:00,91.40,68.00,46.41,300.00,8.00,0.00,30.00,,6.21,,BKN,,,,4900.00,,,,,,,,,,,95.55,SBMT 171700Z 30008KT 9999 BKN049 33/20 Q1016,
SBMT,2024-01-17 18:00,89.60,66.20,46.14,340.00,7.00,0.00,29.97,,6.21,,FEW,SCT,,,5000.00,10000.00,,,,,,,,,,92.27,SBMT 171800Z 34007KT 9999 FEW050TCU SCT100 32/19 Q1015,
SBMT,2024-01-17 19:00,82.40,69.80,65.74,140.00,11.00,0.00,29.97,,6.21,,FEW,FEW,,,3600.00,4000.00,,,VCSH VCTS,,,,,,,86.22,SBMT 171900Z 14011KT 9999 VCSH VCTS FEW036 FEW040CB 28/21 Q1015,
SBMT,2024-01-17 20:00,75.20,69.80,83.32,160.00,11.00,0.00,30.00,,3.73,,SCT,FEW,BKN,,4000.00,5000.00,10000.00,,-RA VCTS,,,,,,,75.20,SBMT 172000Z 16011KT 6000 -RA VCTS SCT040 FEW050CB BKN100 24/21 Q1016,
SBMT,2024-01-17 21:00,75.20,71.60,88.59,150.00,7.00,0.00,30.00,,6.21,,SCT,BKN,,,1200.00,10000.00,,,,,,,,,,75.20,SBMT 172100Z 15007KT 9999 SCT012 BKN100 24/22 Q1016,
SBMT,2024-01-17 22:00,75.20,71.60,88.59,100.00,7.00,0.00,30.03,,6.21,,FEW,,,,1200.00,,,,,,,,,,,75.20,SBMT 172200Z 10007KT 9999 FEW012 24/22 Q1017,
SBMT,2024-01-17 23:00,75.20,71.60,88.59,120.00,6.00,0.00,30.06,,6.21,,BKN,,,,1500.00,,,,,,,,,,,75.20,SBMT 172300Z 12006KT 9999 BKN015 24/22 Q1018,
SBMT,2024-01-18 00:00,75.20,69.80,83.32,80.00,5.00,0.00,30.06,,6.21,,SCT,,,,1700.00,,,,,,,,,,,75.20,SBMT 180000Z 08005KT 9999 SCT017 24/21 Q1018,
SBMT,2024-01-18 01:00,73.40,69.80,88.51,80.00,6.00,0.00,30.03,,6.21,,,,,,,,,,,,,,,,,73.40,SBMT 180100Z 08006KT CAVOK 23/21 Q1017,
SBMT,2024-01-18 02:00,75.20,69.80,83.32,80.00,6.00,0.00,30.03,,6.21,,FEW,,,,1500.00,,,,,,,,,,,75.20,SBMT 180200Z 08006KT 9999 FEW015 24/21 Q1017,
SBMT,2024-01-18 09:00,73.40,68.00,83.21,100.00,5.00,0.00,30.00,,4.97,,BKN,,,,1200.00,,,,,,,,,,,73.40,SBMT 180900Z 10005KT 8000 BKN012 23/20 Q1016,
SBMT,2024-01-18 10:00,73.40,68.00,83.21,60.00,6.00,0.00,30.03,,4.97,,SCT,,,,1200.00,,,,,,,,,,,73.40,SBMT 181000Z 06006KT 8000 SCT012 23/20 Q1017,
SBMT,2024-01-18 11:00,77.00,68.00,73.78,80.00,5.00,0.00,30.03,,6.21,,,,,,,,,,,,,,,,,77.00,SBMT 181100Z 08005KT CAVOK 25/20 Q1017,
SBMT,2024-01-18 12:00,80.60,69.80,69.71,90.00,2.00,0.00,30.03,,6.21,,,,,,,,,,,,,,,,,83.90,SBMT 181200Z 09002KT CAVOK 27/21 Q1017,
SBMT,2024-01-18 13:00,84.20,66.20,54.80,350.00,5.00,0.00,30.03,,6.21,,FEW,,,,3000.00,,,,,,,,,,,86.50,SBMT 181300Z 35005KT 9999 FEW030 29/19 Q1017,
SBMT,2024-01-18 14:00,86.00,66.20,51.72,340.00,6.00,0.00,30.00,,6.21,,SCT,,,,4000.00,,,,,,,,,,,88.39,SBMT 181400Z 34006KT 9999 SCT040 30/19 Q1016,
SBMT,2024-01-18 15:00,87.80,68.00,51.98,290.00,5.00,0.00,30.00,,6.21,,SCT,,,,4000.00,,,,,,,,,,,91.43,SBMT 181500Z 29005KT 9999 SCT040 31/20 Q1016,
SBMT,2024-01-18 16:00,87.80,66.20,48.84,360.00,9.00,0.00,29.97,,6.21,,BKN,,,,4000.00,,,,,,,,,,,90.31,SBMT 181600Z 36009KT 9999 BKN040 31/19 Q1015,
SBMT,2024-01-18 17:00,91.40,64.40,40.96,280.00,8.00,0.00,29.94,,6.21,,,,,,,,,,,,,,,,,93.19,SBMT 181700Z 28008KT 220V340 CAVOK 33/18 Q1014,
SBMT,2024-01-18 18:00,91.40,64.40,40.96,240.00,9.00,0.00,29.91,,6.21,,BKN,FEW,,,5000.00,6000.00,,,,,,,,,,93.19,SBMT 181800Z 24009KT 210V280 9999 BKN050 FEW060TCU 33/18 Q1013,
SBMT,2024-01-18 19:00,86.00,71.60,62.25,150.00,11.00,0.00,29.91,,6.21,,BKN,FEW,,,5000.00,6000.00,,,,,,,,,,91.92,SBMT 181900Z 15011KT 110V180 9999 BKN050 FEW060TCU 30/22 Q1013,
SBMT,2024-01-18 20:00,75.20,69.80,83.32,130.00,5.00,0.00,29.94,,3.73,,BKN,FEW,,,4000.00,4300.00,,,-TSRA,,,,,,,75.20,SBMT 182000Z 13005KT 090V200 6000 -TSRA BKN040 FEW043CB 24/21 Q1014,
SBMT,2024-01-18 21:00,77.00,68.00,73.78,110.00,6.00,0.00,29.97,,6.21,,,,,,,,,,,,,,,,,77.00,SBMT 182100Z 11006KT 080V150 CAVOK 25/20 Q1015 RETS,
SBMT,2024-01-18 22:00,77.00,68.00,73.78,90.00,6.00,0.00,30.00,,6.21,,BKN,,,,1700.00,,,,,,,,,,,77.00,SBMT 182200Z 09006KT 060V120 9999 BKN017 25/20 Q1016,
SBMT,2024-01-18 23:00,75.20,69.80,83.32,110.00,6.00,0.00,30.00,,6.21,,BKN,,,,1300.00,,,,,,,,,,,75.20,SBMT 182300Z 11006KT 070V130 9999 BKN013 24/21 Q1016,
SBMT,2024-01-19 00:00,75.20,69.80,83.32,140.00,4.00,0.00,30.00,,6.21,,BKN,,,,1100.00,,,,,,,,,,,75.20,SBMT 190000Z 14004KT 110V170 9999 BKN011 24/21 Q1016,
SBMT,2024-01-19 00:08,75.20,69.80,83.32,110.00,4.00,0.00,30.03,,6.21,,BKN,,,,1300.00,,,,,,,,,,,75.20,SBMT 190008Z 11004KT 080V140 9999 BKN013 24/21 Q1017,
SBMT,2024-01-19 01:00,75.20,69.80,83.32,80.00,3.00,0.00,30.00,,6.21,,BKN,,,,1300.00,,,,,,,,,,,75.20,SBMT 190100Z 08003KT 020V150 9999 BKN013 24/21 Q1016,
SBMT,2024-01-19 02:00,75.20,68.00,78.34,50.00,4.00,0.00,30.03,,6.21,,BKN,,,,1300.00,,,,,,,,,,,75.20,SBMT 190200Z 05004KT 020V080 9999 BKN013 24/20 Q1017,
SBMT,2024-01-19 09:00,68.00,66.20,93.97,0.00,0.00,0.00,29.97,,6.21,,,,,,,,,,,,,,,,,68.00,SBMT 190900Z 00000KT CAVOK 20/19 Q1015,
SBMT,2024-01-19 10:00,71.60,66.20,83.09,250.00,4.00,0.00,29.97,,6.21,,,,,,,,,,,,,,,,,71.60,SBMT 191000Z 25004KT 210V280 CAVOK 22/19 Q1015,
SBMT,2024-01-19 11:00,75.20,66.20,73.61,260.00,6.00,0.00,30.00,,6.21,,SCT,BKN,,,4000.00,8000.00,,,,,,,,,,75.20,SBMT 191100Z 26006KT 9999 SCT040 BKN080 24/19 Q1016,
SBMT,2024-01-19 12:00,75.20,66.20,73.61,280.00,9.00,0.00,30.00,,6.21,,SCT,BKN,,,4000.00,8000.00,,,,,,,,,,75.20,SBMT 191200Z 28009KT 250V320 9999 SCT040 BKN080 24/19 Q1016,
SBMT,2024-01-19 13:00,78.80,66.20,65.33,290.00,6.00,0.00,30.00,,6.21,,FEW,SCT,BKN,,2000.00,4000.00,8000.00,,,,,,,,,78.80,SBMT 191300Z 29006KT 260V350 9999 FEW020 SCT040 BKN080 26/19 Q1016,
SBMT,2024-01-19 14:00,78.80,66.20,65.33,280.00,12.00,0.00,29.97,,6.21,,FEW,BKN,,,2000.00,8000.00,,,,,,,,,,78.80,SBMT 191400Z 28012KT 250V320 9999 FEW020 BKN080 26/19 Q1015,
SBMT,2024-01-19 15:00,78.80,66.20,65.33,290.00,11.00,0.00,29.97,,6.21,,,,,,,,,,,,,,,,,78.80,SBMT 191500Z 29011KT 260V320 CAVOK 26/19 Q1015,
SBMT,2024-01-19 16:00,82.40,68.00,61.81,280.00,10.00,0.00,29.94,,6.21,,,,,,,,,,,,,,,,,85.38,SBMT 191600Z 28010KT 240V310 CAVOK 28/20 Q1014,
SBMT,2024-01-19 17:00,84.20,66.20,54.80,270.00,12.00,0.00,29.91,,6.21,,,,,,,,,,,,,,,,,86.50,SBMT 191700Z 27012KT 220V300 CAVOK 29/19 Q1013,
SBMT,2024-01-19 18:00,84.20,66.20,54.80,270.00,12.00,0.00,29.88,,6.21,,,,,,,,,,,,,,,,,86.50,SBMT 191800Z 27012KT CAVOK 29/19 Q1012,
SBMT,2024-01-19 19:00,86.00,69.80,58.55,280.00,10.00,0.00,29.85,,6.21,,,,,,,,,,,,,,,,,90.58,SBMT 191900Z 28010KT 260V320 CAVOK 30/21 Q1011,
SBMT,2024-01-19 20:00,84.20,68.00,58.32,300.00,7.00,0.00,29.83,,6.21,,BKN,,,,4600.00,,,,,,,,,,,87.40,SBMT 192000Z 30007KT 250V330 9999 BKN046 29/20 Q1010,
SBMT,2024-01-19 21:00,84.20,68.00,58.32,300.00,11.00,0.00,29.85,,6.21,,BKN,FEW,,,4600.00,5000.00,,,,,,,,,,87.40,SBMT 192100Z 30011KT 260V330 9999 BKN046 FEW050TCU 29/20 Q1011,
SBMT,2024-01-19 22:00,77.00,66.20,69.33,70.00,11.00,0.00,29.88,,6.21,,BKN,FEW,,,3600.00,4000.00,,,,,,,,,,77.00,SBMT 192200Z 07011KT 9999 BKN036 FEW040TCU 25/19 Q1012,
SBMT,2024-01-19 22:03,75.20,66.20,73.61,100.00,7.00,0.00,29.91,,6.21,,BKN,FEW,,,3600.00,4000.00,,,TS,,,,,,,75.20,SBMT 192203Z 10007KT 040V140 9999 TS BKN036 FEW040CB 24/19 Q1013,
SBMT,2024-01-19 23:00,75.20,66.20,73.61,10.00,7.00,0.00,29.91,,6.21,,BKN,FEW,,,3000.00,4000.00,,,TS,,,,,,,75.20,SBMT 192300Z 01007KT 330V050 9999 TS BKN030 FEW040CB 24/19 Q1013,
SBMT,2024-01-20 00:00,71.60,68.00,88.43,60.00,5.00,0.00,29.94,,6.21,,BKN,,,,2600.00,,,,-RA,,,,,,,71.60,SBMT 200000Z 06005KT 020V110 9999 -RA BKN026 22/20 Q1014 RETS,
SBMT,2024-01-20 01:00,73.40,68.00,83.21,60.00,5.00,0.00,29.97,,6.21,,BKN,,,,2600.00,,,,,,,,,,,73.40,SBMT 200100Z 06005KT 9999 BKN026 23/20 Q1015,
SBMT,2024-01-20 02:00,73.40,66.20,78.19,330.00,9.00,0.00,29.94,,6.21,,FEW,,,,2600.00,,,,,,,,,,,73.40,SBMT 200200Z 33009KT 270V040 9999 FEW026 23/19 Q1014,
SBMT,2024-01-20 09:00,71.60,68.00,88.43,290.00,6.00,0.00,29.88,,6.21,,BKN,,,,1300.00,,,,,,,,,,,71.60,SBMT 200900Z 29006KT 9999 BKN013 22/20 Q1012,
SBMT,2024-01-20 10:00,71.60,68.00,88.43,280.00,7.00,0.00,29.91,,6.21,,,,,,,,,,,,,,,,,71.60,SBMT 201000Z 28007KT CAVOK 22/20 Q1013,
SBMT,2024-01-20 11:00,73.40,66.20,78.19,290.00,7.00,0.00,29.91,,6.21,,,,,,,,,,,,,,,,,73.40,SBMT 201100Z 29007KT CAVOK 23/19 Q1013,
SBMT,2024-01-20 12:00,75.20,68.00,78.34,280.00,8.00,0.00,29.91,,6.21,,,,,,,,,,,,,,,,,75.20,SBMT 201200Z 28008KT CAVOK 24/20 Q1013,
SBMT,2024-01-20 13:00,77.00,68.00,73.78,320.00,9.00,0.00,29.91,,6.21,,,,,,,,,,,,,,,,,77.00,SBMT 201300Z 32009KT CAVOK 25/20 Q1013,
SBMT,2024-01-20 14:00,78.80,69.80,73.95,320.00,8.00,0.00,29.91,,6.21,,BKN,,,,2300.00,,,,,,,,,,,78.80,SBMT 201400Z 32008KT 9999 BKN023 26/21 Q1013,
SBMT,2024-01-20 15:00,80.60,69.80,69.71,310.00,9.00,0.00,29.88,,6.21,,BKN,,,,2600.00,,,,,,,,,,,83.90,SBMT 201500Z 31009KT 9999 BKN026 27/21 Q1012,
SBMT,2024-01-20 16:00,80.60,69.80,69.71,300.00,10.00,0.00,29.88,,6.21,,BKN,,,,2600.00,,,,,,,,,,,83.90,SBMT 201600Z 30010KT 9999 BKN026 27/21 Q1012,
SBMT,2024-01-20 17:00,78.80,69.80,73.95,320.00,9.00,0.00,29.85,,6.21,,BKN,BKN,,,2300.00,3000.00,,,,,,,,,,78.80,SBMT 201700Z 32009KT 270V010 9999 BKN023 BKN030 26/21 Q1011,
SBMT,2024-01-20 18:00,78.80,69.80,73.95,330.00,7.00,0.00,29.85,,6.21,,BKN,BKN,,,2300.00,3000.00,,,,,,,,,,78.80,SBMT 201800Z 33007KT 300V360 9999 BKN023 BKN030 26/21 Q1011,
SBMT,2024-01-20 19:00,78.80,69.80,73.95,320.00,7.00,0.00,29.83,,6.21,,BKN,BKN,,,2300.00,3000.00,,,,,,,,,,78.80,SBMT 201900Z 32007KT 260V010 9999 BKN023 BKN030 26/21 Q1010,
SBMT,2024-01-20 20:00,78.80,69.80,73.95,310.00,6.00,0.00,29.83,,6.21,,FEW,SCT,,,2300.00,3000.00,,,,,,,,,,78.80,SBMT 202000Z 31006KT 280V350 9999 FEW023 SCT030 26/21 Q1010,
SBMT,2024-01-20 21:00,78.80,69.80,73.95,300.00,7.00,0.00,29.85,,6.21,,SCT,FEW,,,2500.00,3500.00,,,,,,,,,,78.80,SBMT 202100Z 30007KT 260V330 9999 SCT025 FEW035TCU 26/21 Q1011,
SBMT,2024-01-20 22:00,69.80,68.00,94.01,230.00,10.00,0.00,29.91,,1.68,,BKN,FEW,,,900.00,3500.00,,,-TSRA BR,,,,,,,69.80,SBMT 202200Z 23010KT 190V270 2700 -TSRA BR BKN009 FEW035CB 21/20 Q1013 RERA,
SBMT,2024-01-20 23:00,69.80,68.00,94.01,270.00,4.00,0.00,29.91,,4.35,,SCT,FEW,BKN,,2000.00,3500.00,6000.00,,-TSRA,,,,,,,69.80,SBMT 202300Z 27004KT 7000 -TSRA SCT020 FEW035CB BKN060 21/20 Q1013,
SBMT,2024-01-21 00:00,69.80,68.00,94.01,260.00,6.00,0.00,29.94,,2.49,,SCT,FEW,BKN,,2000.00,3500.00,6000.00,,-TSRA,,,,,,,69.80,SBMT 210000Z 26006KT 4000 -TSRA SCT020 FEW035CB BKN060 21/20 Q1014,
SBMT,2024-01-21 01:00,69.80,68.00,94.01,350.00,3.00,0.00,29.91,,4.35,,SCT,FEW,BKN,,2000.00,3500.00,6000.00,,-RA,,,,,,,69.80,SBMT 210100Z 35003KT 310V040 7000 -RA SCT020 FEW035TCU BKN060 21/20 Q1013 RETS,
SBMT,2024-01-21 02:00,69.80,68.00,94.01,,2.00,0.00,29.91,,4.35,,SCT,BKN,,,2000.00,6000.00,,,,,,,,,,69.80,SBMT 210200Z VRB02KT 7000 SCT020 BKN060 21/20 Q1013,
SBMT,2024-01-21 09:00,68.00,66.20,93.97,290.00,4.00,0.00,29.94,,6.21,,BKN,,,,1000.00,,,,,,,,,,,68.00,SBMT 210900Z 29004KT 9999 BKN010 20/19 Q1014,
SBMT,2024-01-21 10:00,69.80,66.20,88.34,280.00,6.00,0.00,29.94,,6.21,,FEW,SCT,,,1200.00,4500.00,,,,,,,,,,69.80,SBMT 211000Z 28006KT 9999 FEW012 SCT045 21/19 Q1014,
SBMT,2024-01-21 11:00,71.60,66.20,83.09,290.00,8.00,0.00,29.97,,6.21,,FEW,SCT,,,1300.00,5000.00,,,,,,,,,,71.60,SBMT 211100Z 29008KT 9999 FEW013 SCT050 22/19 Q1015,
SBMT,2024-01-21 12:00,73.40,66.20,78.19,280.00,9.00,0.00,29.97,,6.21,,FEW,BKN,,,1800.00,4400.00,,,,,,,,,,73.40,SBMT 211200Z 28009KT 9999 FEW018 BKN044 23/19 Q1015,
SBMT,2024-01-21 13:00,73.40,66.20,78.19,280.00,9.00,0.00,29.97,,6.21,,BKN,BKN,,,2200.00,4500.00,,,,,,,,,,73.40,SBMT 211300Z 28009KT 9999 BKN022 BKN045 23/19 Q1015,
SBMT,2024-01-21 14:00,77.00,68.00,73.78,270.00,8.00,0.00,29.97,,6.21,,FEW,OVC,,,2300.00,5000.00,,,,,,,,,,77.00,SBMT 211400Z 27008KT 9999 FEW023 OVC050 25/20 Q1015,
SBMT,2024-01-21 15:00,77.00,66.20,69.33,240.00,7.00,0.00,29.97,,6.21,,FEW,BKN,,,2800.00,5000.00,,,,,,,,,,77.00,SBMT 211500Z 24007KT 9999 FEW028 BKN050 25/19 Q1015,
SBMT,2024-01-21 16:00,80.60,66.20,61.58,260.00,7.00,0.00,29.94,,6.21,,BKN,,,,4500.00,,,,,,,,,,,82.75,SBMT 211600Z 26007KT 9999 BKN045 27/19 Q1014,
SBMT,2024-01-21 17:00,73.40,66.20,78.19,180.00,11.00,0.00,29.94,,3.11,,BKN,,,,4000.00,,,,-RA,,,,,,,73.40,SBMT 211700Z 18011KT 140V210 5000 -RA BKN040 23/19 Q1014,
SBMT,2024-01-21 18:00,71.60,66.20,83.09,240.00,7.00,0.00,29.97,,6.21,,BKN,,,,4300.00,,,,-RA,,,,,,,71.60,SBMT 211800Z 24007KT 210V280 9999 -RA BKN043 22/19 Q1015,
SBMT,2024-01-21 19:00,69.80,66.20,88.34,270.00,4.00,0.00,29.94,,1.86,,BKN,,,,1300.00,,,,-RA,,,,,,,69.80,SBMT 211900Z 27004KT 200V360 3000 -RA BKN013 21/19 Q1014,
SBMT,2024-01-21 19:05,69.80,66.20,88.34,280.00,3.00,0.00,29.94,,1.86,,BKN,,,,1000.00,,,,-RA,,,,,,,69.80,SBMT 211905Z 28003KT 250V360 3000 -RA BKN010 21/19 Q1014,
SBMT,2024-01-21 20:00,69.80,66.20,88.34,,3.00,0.00,29.97,,6.21,,SCT,BKN,,,1300.00,1500.00,,,-RA,,,,,,,69.80,SBMT 212000Z VRB03KT 9999 -RA SCT013 BKN015 21/19 Q1015,
SBMT,2024-01-21 21:00,71.60,64.40,78.04,170.00,7.00,0.00,29.97,,3.73,,BKN,SCT,,,1500.00,1700.00,,,-RA,,,,,,,71.60,SBMT 212100Z 17007KT 130V210 6000 -RA BKN015 SCT017 22/18 Q1015,
SBMT,2024-01-21 22:00,69.80,64.40,82.98,,4.00,0.00,30.00,,3.73,,BKN,,,,1300.00,,,,-RA,,,,,,,69.80,SBMT 212200Z VRB04KT 6000 -RA BKN013 21/18 Q1016,
SBMT,2024-01-21 23:00,68.00,64.40,88.26,140.00,8.00,0.00,30.00,,3.73,,BKN,,,,1100.00,,,,-RA,,,,,,,68.00,SBMT 212300Z 14008KT 090V180 6000 -RA BKN011 20/18 Q1016,
SBMT,2024-01-22 00:00,68.00,64.40,88.26,150.00,5.00,0.00,30.03,,6.21,,BKN,,,,1100.00,,,,,,,,,,,68.00,SBMT 220000Z 15005KT 090V190 9999 BKN011 20/18 Q1017,
SBMT,2024-01-22 01:00,68.00,62.60,82.86,150.00,5.00,0.00,30.06,,6.21,,BKN,,,,1300.00,,,,,,,,,,,68.00,SBMT 220100Z 15005KT 110V190 9999 BKN013 20/17 Q1018,
SBMT,2024-01-22 02:00,68.00,64.40,88.26,150.00,4.00,0.00,30.06,,6.21,,BKN,,,,1000.00,,,,,,,,,,,68.00,SBMT 220200Z 15004KT 110V190 9999 BKN010 20/18 Q1018,
SBMT,2024-01-22 09:00,66.20,62.60,88.18,90.00,5.00,0.00,30.06,,3.73,,BKN,,,,1200.00,,,,,,,,,,,66.20,SBMT 220900Z 09005KT 6000 BKN012 19/17 Q1018,
SBMT,2024-01-22 10:00,68.00,62.60,82.86,130.00,6.00,0.00,30.06,,3.73,,BKN,SCT,,,1200.00,2000.00,,,,,,,,,,68.00,SBMT 221000Z 13006KT 6000 BKN012 SCT020 20/17 Q1018,
SBMT,2024-01-22 11:00,69.80,62.60,77.90,140.00,6.00,0.00,30.06,,4.97,,BKN,,,,1500.00,,,,,,,,,,,69.80,SBMT 221100Z 14006KT 8000 BKN015 21/17 Q1018,
SBMT,2024-01-22 12:00,69.80,62.60,77.90,150.00,8.00,0.00,30.09,,4.97,,SCT,BKN,,,1500.00,2500.00,,,,,,,,,,69.80,SBMT 221200Z 15008KT 8000 SCT015 BKN025 21/17 Q1019,
SBMT,2024-01-22 13:00,73.40,60.80,64.69,140.00,8.00,0.00,30.09,,6.21,,SCT,,,,2500.00,,,,,,,,,,,73.40,SBMT 221300Z 14008KT 9999 SCT025 23/16 Q1019,
SBMT,2024-01-22 14:00,75.20,60.80,60.90,120.00,8.00,0.00,30.06,,6.21,,BKN,,,,3000.00,,,,,,,,,,,75.20,SBMT 221400Z 12008KT 9999 BKN030 24/16 Q1018,
SBMT,2024-01-22 15:00,73.40,60.80,64.69,140.00,10.00,0.00,30.03,,6.21,,BKN,,,,3000.00,,,,,,,,,,,73.40,SBMT 221500Z 14010KT 9999 BKN030 23/16 Q1017,
SBMT,2024-01-22 16:00,75.20,62.60,64.91,140.00,10.00,0.00,30.03,,6.21,,BKN,,,,2500.00,,,,,,,,,,,75.20,SBMT 221600Z 14010KT 9999 BKN025 24/17 Q1017,
SBMT,2024-01-22 17:00,73.40,64.40,73.44,160.00,9.00,0.00,30.03,,6.21,,BKN,BKN,,,2500.00,3500.00,,,,,,,,,,73.40,SBMT 221700Z 16009KT 9999 BKN025 BKN035 23/18 Q1017,
SBMT,2024-01-22 18:00,75.20,62.60,64.91,130.00,10.00,0.00,30.00,,6.21,,BKN,,,,2500.00,,,,,,,,,,,75.20,SBMT 221800Z 13010KT 9999 BKN025 24/17 Q1016,
SBMT,2024-01-22 19:00,73.40,62.60,68.94,130.00,11.00,0.00,30.00,,6.21,,BKN,,,,2600.00,,,,,,,,,,,73.40,SBMT 221900Z 13011KT 9999 BKN026 23/17 Q1016,
SBMT,2024-01-22 20:00,71.60,62.60,73.27,130.00,12.00,0.00,30.00,,6.21,,FEW,BKN,,,1700.00,2300.00,,,,,,,,,,71.60,SBMT 222000Z 13012KT 9999 FEW017 BKN023 22/17 Q1016,
SBMT,2024-01-22 21:00,71.60,62.60,73.27,150.00,8.00,0.00,30.03,,6.21,,OVC,,,,2100.00,,,,,,,,,,,71.60,SBMT 222100Z 15008KT 9999 OVC021 22/17 Q1017,
SBMT,2024-01-22 22:00,69.80,60.80,73.09,130.00,10.00,0.00,30.06,,6.21,21.00,BKN,BKN,,,1900.00,2500.00,,,-RA,,,,,,,69.80,SBMT 222200Z 13010G21KT 9999 4000E -RA BKN019 BKN025 21/16 Q1018,
SBMT,2024-01-22 23:00,68.00,60.80,77.75,130.00,10.00,0.00,30.06,,6.21,,SCT,BKN,,,1900.00,4000.00,,,,,,,,,,68.00,SBMT 222300Z 13010KT 9999 SCT019 BKN040 20/16 Q1018,
SBMT,2024-01-23 00:00,68.00,62.60,82.86,130.00,9.00,0.00,30.06,,6.21,,BKN,,,,1600.00,,,,,,,,,,,68.00,SBMT 230000Z 13009KT 9999 BKN016 20/17 Q1018,
SBMT,2024-01-23 01:00,68.00,62.60,82.86,110.00,10.00,0.00,30.09,,6.21,,BKN,,,,1600.00,,,,,,,,,,,68.00,SBMT 230100Z 11010KT 9999 BKN016 20/17 Q1019,
SBMT,2024-01-23 02:00,66.20,60.80,82.74,110.00,11.00,0.00,30.09,,6.21,,OVC,,,,1600.00,,,,,,,,,,,66.20,SBMT 230200Z 11011KT 9999 OVC016 19/16 Q1019,
SBMT,2024-01-23 09:00,66.20,60.80,82.74,100.00,8.00,0.00,30.00,,6.21,,FEW,BKN,,,1500.00,4000.00,,,,,,,,,,66.20,SBMT 230900Z 10008KT 9999 FEW015 BKN040 19/16 Q1016,
SBMT,2024-01-23 10:00,66.20,62.60,88.18,100.00,6.00,0.00,30.03,,6.21,,FEW,BKN,,,1500.00,4000.00,,,,,,,,,,66.20,SBMT 231000Z 10006KT 9999 FEW015 BKN040 19/17 Q1017,
SBMT,2024-01-23 10:04,64.40,60.80,88.09,110.00,5.00,0.00,30.03,,1.86,,FEW,BKN,,,1500.00,4000.00,,,RA BR,,,,,,,64.40,SBMT 231004Z 11005KT 3000 RA BR FEW015 BKN040 18/16 Q1017,
SBMT,2024-01-23 11:00,64.40,62.60,93.88,110.00,6.00,0.00,30.03,,3.11,,BKN,BKN,BKN,,900.00,1300.00,4000.00,,-RA BR,,,,,,,64.40,SBMT 231100Z 11006KT 080V140 5000 -RA BR BKN009 BKN013 BKN040 18/17 Q1017 RERA,
SBMT,2024-01-23 12:00,64.40,62.60,93.88,120.00,7.00,0.00,30.03,,2.49,,BKN,BKN,BKN,,900.00,1300.00,3000.00,,RA BR,,,,,,,64.40,SBMT 231200Z 12007KT 4000 RA BR BKN009 BKN013 BKN030 18/17 Q1017,
SBMT,2024-01-23 13:00,64.40,62.60,93.88,70.00,4.00,0.00,30.06,,1.86,,SCT,BKN,BKN,,900.00,1300.00,3000.00,,RA BR,,,,,,,64.40,SBMT 231300Z 07004KT 030V100 3000 RA BR SCT009 BKN013 BKN030 18/17 Q1018,
SBMT,2024-01-23 14:00,64.40,62.60,93.88,0.00,0.00,0.00,30.06,,1.55,,BKN,BKN,OVC,,900.00,1300.00,3000.00,,RA BR,,,,,,,64.40,SBMT 231400Z 00000KT 2500 RA BR BKN009 BKN013 OVC030 18/17 Q1018,
SBMT,2024-01-23 15:00,66.20,62.60,88.18,140.00,7.00,0.00,30.03,,3.11,,BKN,BKN,OVC,,800.00,1300.00,3000.00,,RA,,,,,,,66.20,SBMT 231500Z 14007KT 100V200 5000 RA BKN008 BKN013 OVC030 19/17 Q1017,
SBMT,2024-01-23 16:00,68.00,64.40,88.26,90.00,9.00,0.00,30.00,,3.73,,SCT,SCT,OVC,,800.00,1300.00,3000.00,,-RA,,,,,,,68.00,SBMT 231600Z 09009KT 050V120 6000 -RA SCT008 SCT013 OVC030 20/18 Q1016 RERA,
SBMT,2024-01-23 17:00,68.00,62.60,82.86,100.00,8.00,0.00,30.00,,3.73,,BKN,BKN,,,1500.00,3000.00,,,-RA,,,,,,,68.00,SBMT 231700Z 10008KT 6000 -RA BKN015 BKN030 20/17 Q1016,
SBMT,2024-01-23 18:00,64.40,60.80,88.09,160.00,9.00,0.00,30.00,,2.49,,BKN,,,,900.00,,,,-RA,,,,,,,64.40,SBMT 231800Z 16009KT 4000 -RA BKN009 18/16 Q1016,
SBMT,2024-01-23 19:00,64.40,60.80,88.09,140.00,9.00,0.00,29.97,,2.49,,BKN,,,,1000.00,,,,-RA,,,,,,,64.40,SBMT 231900Z 14009KT 4000 -RA BKN010 18/16 Q1015,
SBMT,2024-01-23 20:00,64.40,59.00,82.62,160.00,7.00,0.00,29.97,,3.11,,BKN,,,,1200.00,,,,-RA,,,,,,,64.40,SBMT 232000Z 16007KT 5000 -RA BKN012 18/15 Q1015,
SBMT,2024-01-23 21:00,62.60,59.00,88.00,140.00,7.00,0.00,30.00,,2.49,,BKN,,,,800.00,,,,-RA,,,,,,,62.60,SBMT 232100Z 14007KT 4000 -RA BKN008 17/15 Q1016,
SBMT,2024-01-23 22:00,62.60,57.20,82.50,130.00,8.00,0.00,30.00,,3.11,,BKN,,,,1200.00,,,,-RA,,,,,,,62.60,SBMT 232200Z 13008KT 5000 -RA BKN012 17/14 Q1016,
SBMT,2024-01-23 23:00,62.60,57.20,82.50,120.00,7.00,0.00,30.00,,3.73,,BKN,,,,1200.00,,,,,,,,,,,62.60,SBMT 232300Z 12007KT 6000 BKN012 17/14 Q1016 RERA,
SBMT,2024-01-24 00:00,62.60,57.20,82.50,120.00,7.00,0.00,30.00,,3.73,,BKN,,,,1200.00,,,,,,,,,,,62.60,SBMT 240000Z 12007KT 6000 BKN012 17/14 Q1016,
SBMT,2024-01-24 01:00,62.60,59.00,88.00,120.00,8.00,0.00,30.00,,3.73,,BKN,,,,1000.00,,,,,,,,,,,62.60,SBMT 240100Z 12008KT 6000 BKN010 17/15 Q1016,
SBMT,2024-01-24 02:00,62.60,57.20,82.50,100.00,6.00,0.00,30.00,,4.35,,BKN,,,,1300.00,,,,,,,,,,,62.60,SBMT 240200Z 10006KT 7000 BKN013 17/14 Q1016,
SBMT,2024-01-24 09:00,60.80,59.00,93.79,100.00,4.00,0.00,29.94,,4.35,,SCT,SCT,,,900.00,2000.00,,,,,,,,,,60.80,SBMT 240900Z 10004KT 070V130 7000 SCT009 SCT020 16/15 Q1014,
SBMT,2024-01-24 10:00,64.40,59.00,82.62,100.00,6.00,0.00,29.94,,6.21,,SCT,,,,900.00,,,,,,,,,,,64.40,SBMT 241000Z 10006KT 070V130 9999 SCT009 18/15 Q1014,
SBMT,2024-01-24 11:00,64.40,59.00,82.62,100.00,8.00,0.00,29.97,,6.21,,SCT,,,,1500.00,,,,,,,,,,,64.40,SBMT 241100Z 10008KT 070V130 9999 SCT015 18/15 Q1015,
SBMT,2024-01-24 12:00,66.20,59.00,77.60,100.00,9.00,0.00,29.97,,6.21,,BKN,,,,1700.00,,,,,,,,,,,66.20,SBMT 241200Z 10009KT 060V130 9999 BKN017 19/15 Q1015,
SBMT,2024-01-24 13:00,69.80,60.80,73.09,90.00,8.00,0.00,29.97,,6.21,,BKN,,,,2000.00,,,,,,,,,,,69.80,SBMT 241300Z 09008KT 9999 BKN020 21/16 Q1015,
SBMT,2024-01-24 14:00,71.60,62.60,73.27,120.00,10.00,0.00,29.94,,6.21,,BKN,,,,2000.00,,,,,,,,,,,71.60,SBMT 241400Z 12010KT 090V150 9999 BKN020 22/17 Q1014,
SBMT,2024-01-24 15:00,73.40,53.60,49.90,130.00,9.00,0.00,29.94,,6.21,,BKN,,,,2500.00,,,,,,,,,,,73.40,SBMT 241500Z 13009KT 080V180 9999 BKN025 23/12 Q1014,
SBMT,2024-01-24 16:00,73.40,62.60,68.94,140.00,9.00,0.00,29.94,,6.21,,BKN,,,,2500.00,,,,,,,,,,,73.40,SBMT 241600Z 14009KT 100V180 9999 BKN025 23/17 Q1014,
SBMT,2024-01-24 17:00,73.40,62.60,68.94,130.00,8.00,0.00,29.91,,6.21,,BKN,,,,2500.00,,,,,,,,,,,73.40,SBMT 241700Z 13008KT 100V180 9999 BKN025 23/17 Q1013,
SBMT,2024-01-24 18:00,71.60,62.60,73.27,150.00,10.00,0.00,29.91,,6.21,,BKN,,,,2500.00,,,,,,,,,,,71.60,SBMT 241800Z 15010KT 9999 BKN025 22/17 Q1013,
SBMT,2024-01-24 19:00,73.40,62.60,68.94,140.00,9.00,0.00,29.91,,6.21,,BKN,BKN,,,2500.00,8000.00,,,,,,,,,,73.40,SBMT 241900Z 14009KT 090V180 9999 BKN025 BKN080 23/17 Q1013,
SBMT,2024-01-24 20:00,69.80,62.60,77.90,160.00,6.00,0.00,29.91,,6.21,,BKN,BKN,,,2000.00,8000.00,,,,,,,,,,69.80,SBMT 242000Z 16006KT 120V210 9999 BKN020 BKN080 21/17 Q1013,
SBMT,2024-01-24 21:00,66.20,60.80,82.74,190.00,14.00,0.00,29.91,,6.21,,SCT,BKN,BKN,,800.00,1300.00,8000.00,,-DZ,,,,,,,66.20,SBMT 242100Z 19014KT 150V220 9999 -DZ SCT008 BKN013 BKN080 19/16 Q1013,
SBMT,2024-01-24 22:00,64.40,57.20,77.45,160.00,12.00,0.00,29.94,,6.21,,SCT,BKN,BKN,,1300.00,1500.00,8000.00,,,,,,,,,64.40,SBMT 242200Z 16012KT 9999 SCT013 BKN015 BKN080 18/14 Q1014,
SBMT,2024-01-24 23:00,62.60,57.20,82.50,160.00,11.00,0.00,29.97,,6.21,,FEW,BKN,BKN,,1300.00,1500.00,8000.00,,,,,,,,,62.60,SBMT 242300Z 16011KT 120V220 9999 FEW013 BKN015 BKN080 17/14 Q1015,
SBMT,2024-01-25 00:00,62.60,59.00,88.00,160.00,8.00,0.00,29.97,,6.21,,SCT,BKN,BKN,,1300.00,1500.00,8000.00,,,,,,,,,62.60,SBMT 250000Z 16008KT 110V210 9999 SCT013 BKN015 BKN080 17/15 Q1015,
SBMT,2024-01-25 01:00,62.60,59.00,88.00,170.00,5.00,0.00,30.00,,6.21,,BKN,BKN,BKN,,1200.00,1500.00,8000.00,,,,,,,,,62.60,SBMT 250100Z 17005KT 9999 BKN012 BKN015 BKN080 17/15 Q1016,
SBMT,2024-01-25 02:00,62.60,60.80,93.83,120.00,4.00,0.00,30.00,,6.21,,OVC,,,,1200.00,,,,-DZ,,,,,,,62.60,SBMT 250200Z 12004KT 9999 -DZ OVC012 17/16 Q1016,
SBMT,2024-01-25 09:00,64.40,59.00,82.62,150.00,5.00,0.00,29.91,,6.21,,BKN,,,,900.00,,,,,,,,,,,64.40,SBMT 250900Z 15005KT 100V200 9999 BKN009 18/15 Q1013,
SBMT,2024-01-25 10:00,64.40,59.00,82.62,170.00,6.00,0.00,29.94,,6.21,,BKN,,,,1100.00,,,,,,,,,,,64.40,SBMT 251000Z 17006KT 110V200 9999 BKN011 18/15 Q1014,
SBMT,2024-01-25 11:00,64.40,59.00,82.62,160.00,6.00,0.00,29.94,,6.21,,BKN,,,,1100.00,,,,,,,,,,,64.40,SBMT 251100Z 16006KT 130V200 9999 BKN011 18/15 Q1014,
SBMT,2024-01-25 12:00,66.20,59.00,77.60,150.00,6.00,0.00,29.94,,6.21,,BKN,,,,1300.00,,,,,,,,,,,66.20,SBMT 251200Z 15006KT 110V190 9999 BKN013 19/15 Q1014,
SBMT,2024-01-25 13:00,66.20,60.80,82.74,160.00,8.00,0.00,29.94,,3.73,,FEW,BKN,,,1100.00,1300.00,,,,,,,,,,66.20,SBMT 251300Z 16008KT 090V200 6000 FEW011 BKN013 19/16 Q1014,
SBMT,2024-01-25 14:00,69.80,60.80,73.09,180.00,7.00,0.00,29.97,,6.21,,SCT,BKN,,,1300.00,1500.00,,,,,,,,,,69.80,SBMT 251400Z 18007KT 120V220 9999 SCT013 BKN015 21/16 Q1015,
SBMT,2024-01-25 15:00,69.80,59.00,68.55,190.00,10.00,0.00,29.97,,6.21,,BKN,,,,1500.00,,,,,,,,,,,69.80,SBMT 251500Z 19010KT 160V230 9999 BKN015 21/15 Q1015,
SBMT,2024-01-25 16:00,68.00,59.00,72.92,170.00,9.00,0.00,29.97,,6.21,,BKN,,,,2000.00,,,,,,,,,,,68.00,SBMT 251600Z 17009KT 120V210 9999 BKN020 20/15 Q1015,
SBMT,2024-01-25 17:00,68.00,60.80,77.75,160.00,9.00,0.00,29.97,,6.21,,BKN,,,,2000.00,,,,,,,,,,,68.00,SBMT 251700Z 16009KT 090V200 9999 BKN020 20/16 Q1015,
SBMT,2024-01-25 18:00,66.20,60.80,82.74,170.00,11.00,0.00,29.97,,5.59,,FEW,BKN,BKN,,900.00,1100.00,2000.00,,,,,,,,,66.20,SBMT 251800Z 17011KT 130V200 9000 FEW009 BKN011 BKN020 19/16 Q1015,
SBMT,2024-01-25 19:00,66.20,60.80,82.74,170.00,11.00,0.00,29.97,,5.59,21.00,FEW,BKN,BKN,,1100.00,1700.00,2000.00,,,,,,,,,66.20,SBMT 251900Z 17011G21KT 130V220 9000 FEW011 BKN017 BKN020 19/16 Q1015,
SBMT,2024-01-25 20:00,66.20,59.00,77.60,150.00,10.00,0.00,29.97,,6.21,,BKN,BKN,,,1900.00,2500.00,,,,,,,,,,66.20,SBMT 252000Z 15010KT 120V180 9999 BKN019 BKN025 19/15 Q1015,
SBMT,2024-01-25 21:00,64.40,59.00,82.62,170.00,11.00,0.00,29.97,,2.49,,SCT,BKN,BKN,,1300.00,1500.00,2500.00,,-DZ BR,,,,,,,64.40,SBMT 252100Z 17011KT 130V200 4000 -DZ BR SCT013 BKN015 BKN025 18/15 Q1015,
SBMT,2024-01-25 22:00,62.60,59.00,88.00,180.00,8.00,0.00,30.00,,1.55,,SCT,BKN,,,900.00,1100.00,,,-DZ BR,,,,,,,62.60,SBMT 252200Z 18008KT 130V220 2500 -DZ BR SCT009 BKN011 17/15 Q1016,
SBMT,2024-01-25 23:00,60.80,55.40,82.37,140.00,8.00,0.00,30.03,,6.21,,SCT,SCT,,,2000.00,4000.00,,,,,,,,,,60.80,SBMT 252300Z 14008KT 110V180 9999 SCT020 SCT040 16/13 Q1017,
SBMT,2024-01-26 00:00,62.60,57.20,82.50,150.00,7.00,0.00,30.03,,6.21,17.00,SCT,SCT,,,1300.00,2000.00,,,,,,,,,,62.60,SBMT 260000Z 15007G17KT 110V200 9999 SCT013 SCT020 17/14 Q1017,
SBMT,2024-01-26 01:00,60.80,57.20,87.92,130.00,6.00,0.00,30.03,,6.21,,BKN,BKN,,,1300.00,1500.00,,,,,,,,,,60.80,SBMT 260100Z 13006KT 9999 BKN013 BKN015 16/14 Q1017,
SBMT,2024-01-26 02:00,62.60,59.00,88.00,120.00,9.00,0.00,30.03,,6.21,,BKN,BKN,,,1300.00,1500.00,,,,,,,,,,62.60,SBMT 260200Z 12009KT 090V150 9999 BKN013 BKN015 17/15 Q1017,
SBMT,2024-01-26 09:00,62.60,59.00,88.00,130.00,7.00,0.00,30.00,,6.21,,BKN,,,,1100.00,,,,,,,,,,,62.60,SBMT 260900Z 13007KT 9999 BKN011 17/15 Q1016,
SBMT,2024-01-26 10:00,62.60,59.00,88.00,120.00,7.00,0.00,30.00,,6.21,,SCT,BKN,,,1500.00,3000.00,,,,,,,,,,62.60,SBMT 261000Z 12007KT 9999 SCT015 BKN030 17/15 Q1016,
SBMT,2024-01-26 11:00,64.40,59.00,82.62,130.00,6.00,0.00,30.03,,6.21,,OVC,,,,1500.00,,,,,,,,,,,64.40,SBMT 261100Z 13006KT 9999 OVC015 18/15 Q1017,
SBMT,2024-01-26 12:00,66.20,60.80,82.74,140.00,9.00,0.00,30.03,,6.21,,SCT,BKN,,,1400.00,1800.00,,,,,,,,,,66.20,SBMT 261200Z 14009KT 9999 SCT014 BKN018 19/16 Q1017,
SBMT,2024-01-26 13:00,68.00,60.80,77.75,140.00,9.00,0.00,30.03,,6.21,,BKN,,,,1900.00,,,,,,,,,,,68.00,SBMT 261300Z 14009KT 9999 BKN019 20/16 Q1017,
SBMT,2024-01-26 14:00,69.80,60.80,73.09,130.00,8.00,0.00,30.03,,6.21,,BKN,,,,2200.00,,,,,,,,,,,69.80,SBMT 261400Z 13008KT 9999 BKN022 21/16 Q1017,
SBMT,2024-01-26 15:00,69.80,60.80,73.09,160.00,7.00,0.00,30.03,,6.21,,SCT,BKN,,,2300.00,3000.00,,,,,,,,,,69.80,SBMT 261500Z 16007KT 9999 SCT023 BKN030 21/16 Q1017,
SBMT,2024-01-26 16:00,71.60,62.60,73.27,140.00,9.00,0.00,30.00,,6.21,,BKN,,,,2400.00,,,,,,,,,,,71.60,SBMT 261600Z 14009KT 9999 BKN024 22/17 Q1016,
SBMT,2024-01-26 17:00,71.60,59.00,64.48,130.00,7.00,0.00,29.97,,6.21,,BKN,,,,2600.00,,,,,,,,,,,71.60,SBMT 261700Z 13007KT 100V170 9999 BKN026 22/15 Q1015,
SBMT,2024-01-26 18:00,71.60,57.20,60.44,150.00,9.00,0.00,29.97,,6.21,,BKN,,,,2600.00,,,,,,,,,,,71.60,SBMT 261800Z 15009KT 100V200 9999 BKN026 22/14 Q1015,
SBMT,2024-01-26 19:00,69.80,59.00,68.55,160.00,10.00,0.00,29.97,,6.21,,BKN,,,,2600.00,,,,,,,,,,,69.80,SBMT 261900Z 16010KT 130V190 9999 BKN026 21/15 Q1015,
SBMT,2024-01-26 20:00,69.80,59.00,68.55,160.00,11.00,0.00,29.97,,6.21,,BKN,,,,2600.00,,,,,,,,,,,69.80,SBMT 262000Z 16011KT 120V190 9999 BKN026 21/15 Q1015,
SBMT,2024-01-26 21:00,68.00,59.00,72.92,150.00,8.00,0.00,29.97,,6.21,,BKN,,,,2000.00,,,,,,,,,,,68.00,SBMT 262100Z 15008KT 100V180 9999 BKN020 20/15 Q1015,
SBMT,2024-01-26 22:00,66.20,59.00,77.60,160.00,9.00,0.00,29.97,,6.21,,SCT,BKN,,,1300.00,1500.00,,,,,,,,,,66.20,SBMT 262200Z 16009KT 120V200 9999 SCT013 BKN015 19/15 Q1015,
SBMT,2024-01-26 23:00,64.40,59.00,82.62,140.00,6.00,0.00,30.00,,6.21,,BKN,,,,1300.00,,,,,,,,,,,64.40,SBMT 262300Z 14006KT 110V170 9999 BKN013 18/15 Q1016,
SBMT,2024-01-27 00:00,64.40,59.00,82.62,130.00,7.00,0.00,30.00,,6.21,,BKN,,,,1300.00,,,,,,,,,,,64.40,SBMT 270000Z 13007KT 100V170 9999 BKN013 18/15 Q1016,
SBMT,2024-01-27 01:00,64.40,59.00,82.62,120.00,7.00,0.00,30.03,,6.21,,BKN,,,,1300.00,,,,,,,,,,,64.40,SBMT 270100Z 12007KT 090V160 9999 BKN013 18/15 Q1017,
SBMT,2024-01-27 02:00,64.40,59.00,82.62,150.00,7.00,0.00,30.03,,6.21,,BKN,,,,1100.00,,,,,,,,,,,64.40,SBMT 270200Z 15007KT 110V180 9999 BKN011 18/15 Q1017,
SBMT,2024-01-27 09:00,64.40,60.80,88.09,150.00,4.00,0.00,29.97,,2.49,,BKN,,,,900.00,,,,BR,,,,,,,64.40,SBMT 270900Z 15004KT 4000 BR BKN009 18/16 Q1015,
SBMT,2024-01-27 10:00,64.40,59.00,82.62,160.00,4.00,0.00,30.00,,3.11,,BKN,,,,900.00,,,,BR,,,,,,,64.40,SBMT 271000Z 16004KT 5000 BR BKN009 18/15 Q1016,
SBMT,2024-01-27 11:00,68.00,62.60,82.86,170.00,5.00,0.00,30.00,,3.73,,BKN,,,,1200.00,,,,,,,,,,,68.00,SBMT 271100Z 17005KT 6000 BKN012 20/17 Q1016,
SBMT,2024-01-27 12:00,69.80,60.80,73.09,170.00,5.00,0.00,30.03,,4.35,,BKN,,,,1700.00,,,,,,,,,,,69.80,SBMT 271200Z 17005KT 7000 BKN017 21/16 Q1017,
SBMT,2024-01-27 13:00,71.60,60.80,68.75,150.00,4.00,0.00,30.03,,6.21,,BKN,,,,2000.00,,,,,,,,,,,71.60,SBMT 271300Z 15004KT 9999 BKN020 22/16 Q1017,
SBMT,2024-01-27 14:00,71.60,60.80,68.75,110.00,5.00,0.00,30.03,,6.21,,BKN,,,,2500.00,,,,,,,,,,,71.60,SBMT 271400Z 11005KT 9999 BKN025 22/16 Q1017,
SBMT,2024-01-27 15:00,73.40,60.80,64.69,160.00,5.00,0.00,30.00,,6.21,,BKN,,,,2500.00,,,,,,,,,,,73.40,SBMT 271500Z 16005KT 9999 BKN025 23/16 Q1016,
SBMT,2024-01-27 16:00,78.80,60.80,54.05,100.00,4.00,0.00,30.00,,6.21,,SCT,,,,3000.00,,,,,,,,,,,78.80,SBMT 271600Z 10004KT 9999 SCT030 26/16 Q1016,
SBMT,2024-01-27 17:00,77.00,62.60,61.13,170.00,6.00,0.00,29.97,,6.21,,SCT,,,,3500.00,,,,,,,,,,,77.00,SBMT 271700Z 17006KT 9999 SCT035 25/17 Q1015,
SBMT,2024-01-27 18:00,78.80,62.60,57.60,180.00,6.00,0.00,29.94,,6.21,,BKN,,,,4000.00,,,,,,,,,,,78.80,SBMT 271800Z 18006KT 9999 BKN040 26/17 Q1014,
SBMT,2024-01-27 19:00,69.80,66.20,88.34,160.00,7.00,0.00,29.97,,6.21,,SCT,,,,3000.00,,,,,,,,,,,69.80,SBMT 271900Z 16007KT 9999 SCT030 21/19 Q1015,
SBMT,2024-01-27 20:00,69.80,64.40,82.98,120.00,6.00,0.00,29.94,,6.21,,SCT,,,,1400.00,,,,,,,,,,,69.80,SBMT 272000Z 12006KT 9999 SCT014 21/18 Q1014,
SBMT,2024-01-27 21:00,68.00,64.40,88.26,130.00,7.00,0.00,29.97,,6.21,,SCT,SCT,,,1400.00,10000.00,,,,,,,,,,68.00,SBMT 272100Z 13007KT 9999 SCT014 SCT100 20/18 Q1015,
SBMT,2024-01-27 22:00,68.00,64.40,88.26,120.00,7.00,0.00,30.00,,6.21,,OVC,,,,1200.00,,,,,,,,,,,68.00,SBMT 272200Z 12007KT 9999 OVC012 20/18 Q1016,
SBMT,2024-01-27 23:00,68.00,64.40,88.26,130.00,6.00,0.00,30.00,,6.21,,BKN,BKN,,,1300.00,1700.00,,,,,,,,,,68.00,SBMT 272300Z 13006KT 9999 BKN013 BKN017 20/18 Q1016,
SBMT,2024-01-28 00:00,68.00,62.60,82.86,110.00,4.00,0.00,30.03,,6.21,,BKN,BKN,,,1300.00,1800.00,,,,,,,,,,68.00,SBMT 280000Z 11004KT 9999 BKN013 BKN018 20/17 Q1017,
SBMT,2024-01-28 01:00,66.20,62.60,88.18,100.00,5.00,0.00,30.03,,6.21,,BKN,,,,1500.00,,,,,,,,,,,66.20,SBMT 280100Z 10005KT 9999 BKN015 19/17 Q1017,
SBMT,2024-01-28 02:00,68.00,62.60,82.86,90.00,7.00,0.00,30.03,,6.21,,BKN,,,,1600.00,,,,,,,,,,,68.00,SBMT 280200Z 09007KT 9999 BKN016 20/17 Q1017,
SBMT,2024-01-28 09:00,66.20,60.80,82.74,80.00,4.00,0.00,30.00,,2.49,,BKN,,,,900.00,,,,BR,,,,,,,66.20,SBMT 280900Z 08004KT 4000 BR BKN009 19/16 Q1016,
SBMT,2024-01-28 10:00,66.20,60.80,82.74,80.00,6.00,0.00,30.03,,2.49,,BKN,,,,1100.00,,,,BR,,,,,,,66.20,SBMT 281000Z 08006KT 4000 BR BKN011 19/16 Q1017,
SBMT,2024-01-28 11:00,68.00,60.80,77.75,90.00,6.00,0.00,30.03,,2.49,,BKN,,,,1200.00,,,,BR,,,,,,,68.00,SBMT 281100Z 09006KT 4000 BR BKN012 20/16 Q1017,
SBMT,2024-01-28 12:00,69.80,62.60,77.90,80.00,6.00,0.00,30.06,,3.73,,BKN,,,,1500.00,,,,,,,,,,,69.80,SBMT 281200Z 08006KT 6000 BKN015 21/17 Q1018,
SBMT,2024-01-28 13:00,69.80,62.60,77.90,140.00,3.00,0.00,30.03,,3.73,,BKN,,,,1700.00,,,,,,,,,,,69.80,SBMT 281300Z 14003KT 6000 BKN017 21/17 Q1017,
SBMT,2024-01-28 14:00,62.60,59.00,88.00,340.00,3.00,0.00,30.15,,2.49,,SCT,BKN,FEW,,1000.00,1700.00,3000.00,,-TSRA,,,,,,,62.60,SBMT 281400Z 34003KT 4000 -TSRA SCT010 BKN017 FEW030CB 17/15 Q1021,
SBMT,2024-01-28 15:00,64.40,60.80,88.09,60.00,5.00,0.00,30.09,,3.73,,BKN,,,,3000.00,,,,,,,,,,,64.40,SBMT 281500Z 06005KT 6000 BKN030 18/16 Q1019 RETS,
SBMT,2024-01-28 16:00,68.00,62.60,82.86,0.00,0.00,0.00,30.09,,4.97,,BKN,,,,3000.00,,,,,,,,,,,68.00,SBMT 281600Z 00000KT 8000 BKN030 20/17 Q1019,
SBMT,2024-01-28 17:00,69.80,62.60,77.90,350.00,4.00,0.00,30.03,,6.21,,BKN,BKN,,,3000.00,8000.00,,,,,,,,,,69.80,SBMT 281700Z 35004KT 9999 BKN030 BKN080 21/17 Q1017,
SBMT,2024-01-28 18:00,73.40,60.80,64.69,360.00,3.00,0.00,30.00,,6.21,,SCT,BKN,,,3000.00,8000.00,,,,,,,,,,73.40,SBMT 281800Z 36003KT 9999 SCT030 BKN080 23/16 Q1016,
SBMT,2024-01-28 19:00,75.20,60.80,60.90,110.00,3.00,0.00,29.97,,6.21,,,,,,,,,,,,,,,,,75.20,SBMT 281900Z 11003KT CAVOK 24/16 Q1015,
SBMT,2024-01-28 20:00,75.20,60.80,60.90,80.00,3.00,0.00,29.97,,6.21,,,,,,,,,,,,,,,,,75.20,SBMT 282000Z 08003KT CAVOK 24/16 Q1015,
SBMT,2024-01-28 21:00,75.20,62.60,64.91,140.00,3.00,0.00,29.97,,6.21,,,,,,,,,,,,,,,,,75.20,SBMT 282100Z 14003KT 100V210 CAVOK 24/17 Q1015,
SBMT,2024-01-28 22:00,75.20,60.80,60.90,130.00,5.00,0.00,29.97,,6.21,,,,,,,,,,,,,,,,,75.20,SBMT 282200Z 13005KT CAVOK 24/16 Q1015,
SBMT,2024-01-28 23:00,69.80,64.40,82.98,130.00,6.00,0.00,30.00,,6.21,,,,,,,,,,,,,,,,,69.80,SBMT 282300Z 13006KT CAVOK 21/18 Q1016,
SBMT,2024-01-29 00:00,68.00,62.60,82.86,130.00,4.00,0.00,30.03,,6.21,,FEW,,,,2500.00,,,,,,,,,,,68.00,SBMT 290000Z 13004KT 080V160 9999 FEW025 20/17 Q1017,
SBMT,2024-01-29 01:00,66.20,62.60,88.18,140.00,3.00,0.00,30.03,,6.21,,FEW,,,,2500.00,,,,,,,,,,,66.20,SBMT 290100Z 14003KT 9999 FEW025 19/17 Q1017,
SBMT,2024-01-29 02:00,66.20,64.40,93.92,150.00,3.00,0.00,30.06,,6.21,,FEW,,,,2500.00,,,,,,,,,,,66.20,SBMT 290200Z 15003KT 9999 FEW025 19/18 Q1018,
SBMT,2024-01-29 09:00,60.80,59.00,93.79,,2.00,0.00,30.00,,3.73,,SCT,,,,500.00,,,,,,,,,,,60.80,SBMT 290900Z VRB02KT 6000 SCT005 16/15 Q1016,
SBMT,2024-01-29 10:00,64.40,60.80,88.09,100.00,3.00,0.00,30.03,,6.21,,,,,,,,,,,,,,,,,64.40,SBMT 291000Z 10003KT 050V140 CAVOK 18/16 Q1017,
SBMT,2024-01-29 11:00,66.20,59.00,77.60,80.00,4.00,0.00,30.03,,6.21,,,,,,,,,,,,,,,,,66.20,SBMT 291100Z 08004KT 050V110 CAVOK 19/15 Q1017,
SBMT,2024-01-29 12:00,71.60,60.80,68.75,100.00,3.00,0.00,30.06,,6.21,,,,,,,,,,,,,,,,,71.60,SBMT 291200Z 10003KT 060V180 CAVOK 22/16 Q1018,
SBMT,2024-01-29 13:00,78.80,62.60,57.60,,2.00,0.00,30.03,,6.21,,,,,,,,,,,,,,,,,78.80,SBMT 291300Z VRB02KT CAVOK 26/17 Q1017,
SBMT,2024-01-29 14:00,80.60,59.00,47.79,280.00,10.00,0.00,30.03,,6.21,,,,,,,,,,,,,,,,,81.11,SBMT 291400Z 28010KT 250V330 CAVOK 27/15 Q1017,
SBMT,2024-01-29 15:00,82.40,62.60,51.21,290.00,8.00,0.00,30.03,,6.21,,,,,,,,,,,,,,,,,83.41,SBMT 291500Z 29008KT 230V010 CAVOK 28/17 Q1017,
SBMT,2024-01-29 16:00,78.80,60.80,54.05,280.00,12.00,0.00,30.03,,6.21,,BKN,FEW,SCT,,5000.00,6000.00,10000.00,,,,,,,,,78.80,SBMT 291600Z 28012KT 250V310 9999 BKN050 FEW060TCU SCT100 26/16 Q1017,
SBMT,2024-01-29 17:00,82.40,59.00,45.07,260.00,10.00,0.00,30.00,,6.21,,FEW,FEW,SCT,,4000.00,6000.00,10000.00,,,,,,,,,82.46,SBMT 291700Z 26010KT 230V290 9999 FEW040 FEW060TCU SCT100 28/15 Q1016,
SBMT,2024-01-29 18:00,80.60,59.00,47.79,180.00,10.00,0.00,29.97,,6.21,,FEW,BKN,,,4000.00,10000.00,,,,,,,,,,81.11,SBMT 291800Z 18010KT 9999 FEW040 BKN100 27/15 Q1015,
SBMT,2024-01-29 19:00,82.40,57.20,42.25,300.00,8.00,0.00,29.94,,6.21,,FEW,BKN,,,4000.00,10000.00,,,,,,,,,,82.08,SBMT 291900Z 30008KT 9999 FEW040 BKN100 28/14 Q1014,
SBMT,2024-01-29 20:00,82.40,60.80,48.05,270.00,9.00,0.00,29.94,,6.21,,FEW,BKN,,,4000.00,10000.00,,,,,,,,,,82.90,SBMT 292000Z 27009KT 9999 FEW040 BKN100 28/16 Q1014,
SBMT,2024-01-29 21:00,80.60,59.00,47.79,300.00,8.00,0.00,29.97,,6.21,,FEW,BKN,,,4000.00,10000.00,,,,,,,,,,81.11,SBMT 292100Z 30008KT 9999 FEW040 BKN100 27/15 Q1015,
SBMT,2024-01-29 22:00,75.20,62.60,64.91,360.00,5.00,0.00,29.94,,6.21,,FEW,BKN,,,4000.00,10000.00,,,,,,,,,,75.20,SBMT 292200Z 36005KT 9999 FEW040 BKN100 24/17 Q1014,
SBMT,2024-01-29 23:00,73.40,60.80,64.69,10.00,2.00,0.00,29.97,,6.21,,FEW,BKN,,,4000.00,10000.00,,,,,,,,,,73.40,SBMT 292300Z 01002KT 9999 FEW040 BKN100 23/16 Q1015,
SBMT,2024-01-30 00:00,73.40,60.80,64.69,0.00,0.00,0.00,29.97,,6.21,,,,,,,,,,,,,,,,,73.40,SBMT 300000Z 00000KT CAVOK 23/16 Q1015,
SBMT,2024-01-30 01:00,69.80,62.60,77.90,,2.00,0.00,30.00,,6.21,,,,,,,,,,,,,,,,,69.80,SBMT 300100Z VRB02KT CAVOK 21/17 Q1016,
SBMT,2024-01-30 02:00,69.80,62.60,77.90,0.00,0.00,0.00,30.00,,6.21,,,,,,,,,,,,,,,,,69.80,SBMT 300200Z 00000KT CAVOK 21/17 Q1016,
SBMT,2024-01-30 09:00,62.60,59.00,88.00,0.00,0.00,0.00,29.97,,6.21,,,,,,,,,,,,,,,,,62.60,SBMT 300900Z 00000KT CAVOK 17/15 Q1015,
SBMT,2024-01-30 10:00,68.00,62.60,82.86,120.00,1.00,0.00,30.00,,6.21,,,,,,,,,,,,,,,,,68.00,SBMT 301000Z 12001KT CAVOK 20/17 Q1016,
SBMT,2024-01-30 11:00,75.20,60.80,60.90,160.00,1.00,0.00,30.00,,6.21,,,,,,,,,,,,,,,,,75.20,SBMT 301100Z 16001KT CAVOK 24/16 Q1016,
SBMT,2024-01-30 12:00,78.80,62.60,57.60,330.00,4.00,0.00,30.00,,6.21,,,,,,,,,,,,,,,,,78.80,SBMT 301200Z 33004KT CAVOK 26/17 Q1016,
SBMT,2024-01-30 13:00,82.40,57.20,42.25,280.00,6.00,0.00,30.00,,6.21,,,,,,,,,,,,,,,,,82.08,SBMT 301300Z 28006KT CAVOK 28/14 Q1016,
SBMT,2024-01-30 14:00,82.40,57.20,42.25,290.00,6.00,0.00,30.00,,6.21,,,,,,,,,,,,,,,,,82.08,SBMT 301400Z 29006KT CAVOK 28/14 Q1016,
SBMT,2024-01-30 15:00,86.00,59.00,40.14,260.00,8.00,0.00,30.00,,6.21,,SCT,,,,3000.00,,,,,,,,,,,85.47,SBMT 301500Z 26008KT 9999 SCT030 30/15 Q1016,
SBMT,2024-01-30 16:00,86.00,55.40,35.25,270.00,9.00,0.00,29.97,,6.21,,SCT,,,,4000.00,,,,,,,,,,,84.54,SBMT 301600Z 27009KT 9999 SCT040 30/13 Q1015,
SBMT,2024-01-30 17:00,86.00,55.40,35.25,320.00,10.00,0.00,29.97,,6.21,,SCT,,,,4500.00,,,,,,,,,,,84.54,SBMT 301700Z 32010KT 9999 SCT045 30/13 Q1015,
SBMT,2024-01-30 18:00,87.80,55.40,33.29,250.00,9.00,0.00,29.94,,6.21,,,,,,,,,,,,,,,,,86.11,SBMT 301800Z 25009KT CAVOK 31/13 Q1014,
SBMT,2024-01-30 19:00,87.80,57.20,35.53,280.00,9.00,0.00,29.94,,6.21,,FEW,,,,4900.00,,,,,,,,,,,86.58,SBMT 301900Z 28009KT 9999 FEW049 31/14 Q1014,
SBMT,2024-01-30 20:00,82.40,64.40,54.55,140.00,8.00,0.00,29.94,,6.21,,SCT,,,,4900.00,,,,,,,,,,,83.98,SBMT 302000Z 14008KT 110V190 9999 SCT049 28/18 Q1014,
SBMT,2024-01-30 21:00,80.60,64.40,57.84,130.00,7.00,0.00,29.91,,6.21,,,,,,,,,,,,,,,,,82.27,SBMT 302100Z 13007KT CAVOK 27/18 Q1013,
SBMT,2024-01-30 22:00,78.80,64.40,61.36,110.00,5.00,0.00,29.94,,6.21,,FEW,,,,4900.00,,,,,,,,,,,78.80,SBMT 302200Z 11005KT 9999 FEW049 26/18 Q1014,
SBMT,2024-01-30 23:00,77.00,64.40,65.12,120.00,7.00,0.00,29.97,,6.21,,,,,,,,,,,,,,,,,77.00,SBMT 302300Z 12007KT CAVOK 25/18 Q1015,
SBMT,2024-01-31 00:00,77.00,62.60,61.13,90.00,6.00,0.00,29.97,,6.21,,,,,,,,,,,,,,,,,77.00,SBMT 310000Z 09006KT CAVOK 25/17 Q1015,
SBMT,2024-01-31 01:00,75.20,62.60,64.91,90.00,5.00,0.00,30.00,,6.21,,,,,,,,,,,,,,,,,75.20,SBMT 310100Z 09005KT CAVOK 24/17 Q1016,
SBMT,2024-01-31 02:00,73.40,62.60,68.94,90.00,5.00,0.00,30.00,,6.21,,,,,,,,,,,,,,,,,73.40,SBMT 310200Z 09005KT CAVOK 23/17 Q1016,
SBMT,2024-01-31 09:00,69.80,64.40,82.98,90.00,5.00,0.00,30.00,,6.21,,,,,,,,,,,,,,,,,69.80,SBMT 310900Z 09005KT CAVOK 21/18 Q1016,
SBMT,2024-01-31 10:00,69.80,66.20,88.34,90.00,4.00,0.00,30.00,,6.21,,,,,,,,,,,,,,,,,69.80,SBMT 311000Z 09004KT CAVOK 21/19 Q1016,
SBMT,2024-01-31 11:00,73.40,66.20,78.19,120.00,4.00,0.00,30.03,,6.21,,,,,,,,,,,,,,,,,73.40,SBMT 311100Z 12004KT CAVOK 23/19 Q1017,
SBMT,2024-01-31 12:00,77.00,66.20,69.33,90.00,3.00,0.00,30.03,,6.21,,,,,,,,,,,,,,,,,77.00,SBMT 311200Z 09003KT CAVOK 25/19 Q1017,
SBMT,2024-01-31 13:00,80.60,64.40,57.84,,2.00,0.00,30.03,,6.21,,,,,,,,,,,,,,,,,82.27,SBMT 311300Z VRB02KT CAVOK 27/18 Q1017,
SBMT,2024-01-31 14:00,80.60,64.40,57.84,,2.00,0.00,30.03,,6.21,,,,,,,,,,,,,,,,,82.27,SBMT 311400Z VRB02KT CAVOK 27/18 Q1017,
SBMT,2024-01-31 15:00,80.60,66.20,61.58,360.00,4.00,0.00,30.03,,6.21,,,,,,,,,,,,,,,,,82.75,SBMT 311500Z 36004KT CAVOK 27/19 Q1017,
SBMT,2024-01-31 16:00,82.40,66.20,58.08,290.00,2.00,0.00,30.00,,6.21,,FEW,,,,4000.00,,,,,,,,,,,84.63,SBMT 311600Z 29002KT 9999 FEW040 28/19 Q1016,
SBMT,2024-01-31 17:00,82.40,66.20,58.08,50.00,4.00,0.00,29.97,,6.21,,SCT,,,,4000.00,,,,,,,,,,,84.63,SBMT 311700Z 05004KT 020V100 9999 SCT040 28/19 Q1015,
SBMT,2024-01-31 18:00,82.40,62.60,51.21,30.00,4.00,0.00,29.97,,6.21,,SCT,FEW,,,4000.00,4500.00,,,,,,,,,,83.41,SBMT 311800Z 03004KT 330V070 9999 SCT040 FEW045TCU 28/17 Q1015,
SBMT,2024-01-31 19:00,64.40,59.00,82.62,270.00,5.00,0.00,30.06,,3.11,,BKN,FEW,,,4000.00,4500.00,,,-TSRA,,,,,,,64.40,SBMT 311900Z 27005KT 210V340 5000 -TSRA BKN040 FEW045CB 18/15 Q1018 RERA,
SBMT,2024-01-31 20:00,66.20,62.60,88.18,,2.00,0.00,30.00,,3.11,,BKN,FEW,,,4000.00,4500.00,,,-TSRA,,,,,,,66.20,SBMT 312000Z VRB02KT 5000 -TSRA BKN040 FEW045CB 19/17 Q1016,
SBMT,2024-01-31 21:00,66.20,60.80,82.74,320.00,7.00,0.00,30.09,,3.11,,FEW,BKN,,,1500.00,4000.00,,,-RA,,,,,,,66.20,SBMT 312100Z 32007KT 290V360 5000 -RA FEW015 BKN040 19/16 Q1019 RETS,
SBMT,2024-01-31 22:00,66.20,60.80,82.74,340.00,5.00,0.00,30.09,,3.73,,FEW,BKN,,,1500.00,4000.00,,,-RA,,,,,,,66.20,SBMT 312200Z 34005KT 300V010 6000 -RA FEW015 BKN040 19/16 Q1019,
SBMT,2024-01-31 23:00,66.20,59.00,77.60,80.00,5.00,0.00,30.09,,3.73,,FEW,BKN,,,1500.00,4000.00,,,-RA,,,,,,,66.20,SBMT 312300Z 08005KT 6000 -RA FEW015 BKN040 19/15 Q1019,
SBMT,2024-02-01 00:00,66.20,59.00,77.60,60.00,9.00,0.00,30.06,,3.11,,FEW,BKN,,,1500.00,4000.00,,,-RA,,,,,,,66.20,SBMT 010000Z 06009KT 5000 -RA FEW015 BKN040 19/15 Q1018,
SBMT,2024-02-01 01:00,66.20,59.00,77.60,110.00,5.00,0.00,30.09,,6.21,,SCT,BKN,,,2000.00,8000.00,,,,,,,,,,66.20,SBMT 010100Z 11005KT 9999 SCT020 BKN080 19/15 Q1019,
SBMT,2024-02-01 02:00,66.20,59.00,77.60,100.00,4.00,0.00,30.06,,6.21,,,,,,,,,,,,,,,,,66.20,SBMT 010200Z 10004KT CAVOK 19/15 Q1018,
SBMT,2024-02-01 09:00,62.60,59.00,88.00,,2.00,0.00,30.06,,6.21,,,,,,,,,,,,,,,,,62.60,SBMT 010900Z VRB02KT CAVOK 17/15 Q1018,
SBMT,2024-02-01 10:00,66.20,59.00,77.60,80.00,1.00,0.00,30.09,,6.21,,,,,,,,,,,,,,,,,66.20,SBMT 011000Z 08001KT CAVOK 19/15 Q1019,
SBMT,2024-02-01 11:00,68.00,59.00,72.92,,2.00,0.00,30.12,,6.21,,,,,,,,,,,,,,,,,68.00,SBMT 011100Z VRB02KT CAVOK 20/15 Q1020,
SBMT,2024-02-01 12:00,71.60,59.00,64.48,,2.00,0.00,30.12,,6.21,,,,,,,,,,,,,,,,,71.60,SBMT 011200Z VRB02KT CAVOK 22/15 Q1020,
SBMT,2024-02-01 13:00,73.40,60.80,64.69,,2.00,0.00,30.12,,6.21,,,,,,,,,,,,,,,,,73.40,SBMT 011300Z VRB02KT CAVOK 23/16 Q1020,
SBMT,2024-02-01 14:00,77.00,59.00,53.80,160.00,4.00,0.00,30.12,,6.21,,FEW,,,,3300.00,,,,,,,,,,,77.00,SBMT 011400Z 16004KT 080V200 9999 FEW033 25/15 Q1020,
SBMT,2024-02-01 15:00,77.00,57.20,50.43,40.00,5.00,0.00,30.12,,6.21,,SCT,,,,3300.00,,,,,,,,,,,77.00,SBMT 011500Z 04005KT 330V090 9999 SCT033 25/14 Q1020,
SBMT,2024-02-01 16:00,80.60,60.80,50.95,,2.00,0.00,30.09,,6.21,,SCT,,,,4000.00,,,,,,,,,,,81.46,SBMT 011600Z VRB02KT 9999 SCT040 27/16 Q1019,
SBMT,2024-02-01 17:00,80.60,62.60,54.30,120.00,5.00,0.00,30.09,,6.21,,FEW,SCT,,,4500.00,5000.00,,,,,,,,,,81.84,SBMT 011700Z 12005KT 060V180 9999 FEW045TCU SCT050 27/17 Q1019,
SBMT,2024-02-01 18:00,69.80,62.60,77.90,170.00,8.00,0.00,30.09,,6.21,,FEW,SCT,,,4500.00,6000.00,,,VCTS,,,,,,,69.80,SBMT 011800Z 17008KT 9999 VCTS FEW045CB SCT060 21/17 Q1019,
SBMT,2024-02-01 19:00,71.60,68.00,88.43,170.00,5.00,0.00,30.09,,6.21,,FEW,SCT,,,3500.00,8000.00,,,,,,,,,,71.60,COR SBMT 011900Z 17005KT 9999 FEW035TCU SCT080 22/20 Q1019,
SBMT,2024-02-01 20:00,71.60,66.20,83.09,130.00,7.00,0.00,30.09,,6.21,,FEW,,,,1600.00,,,,,,,,,,,71.60,SBMT 012000Z 13007KT 9999 FEW016 22/19 Q1019,
SBMT,2024-02-01 21:00,71.60,66.20,83.09,120.00,5.00,0.00,30.09,,6.21,,,,,,,,,,,,,,,,,71.60,SBMT 012100Z 12005KT CAVOK 22/19 Q1019,
SBMT,2024-02-01 22:00,69.80,64.40,82.98,110.00,6.00,0.00,30.09,,6.21,,,,,,,,,,,,,,,,,69.80,SBMT 012200Z 11006KT CAVOK 21/18 Q1019,
SBMT,2024-02-01 23:00,69.80,64.40,82.98,110.00,9.00,0.00,30.12,,6.21,,SCT,,,,2200.00,,,,,,,,,,,69.80,SBMT 012300Z 11009KT 9999 SCT022 21/18 Q1020,
SBMT,2024-02-02 00:00,69.80,62.60,77.90,120.00,9.00,0.00,30.15,,6.21,,BKN,,,,2100.00,,,,,,,,,,,69.80,SBMT 020000Z 12009KT 9999 BKN021 21/17 Q1021,
SBMT,2024-02-02 01:00,68.00,62.60,82.86,100.00,8.00,0.00,30.15,,6.21,,FEW,,,,3300.00,,,,,,,,,,,68.00,SBMT 020100Z 10008KT 9999 FEW033 20/17 Q1021,
SBMT,2024-02-02 02:00,69.80,64.40,82.98,110.00,9.00,0.00,30.15,,6.21,,BKN,,,,2600.00,,,,,,,,,,,69.80,SBMT 020200Z 11009KT 9999 BKN026 21/18 Q1021,
SBMT,2024-02-02 09:00,64.40,60.80,88.09,80.00,4.00,0.00,30.12,,6.21,,,,,,,,,,,,,,,,,64.40,SBMT 020900Z 08004KT CAVOK 18/16 Q1020,
SBMT,2024-02-02 10:00,68.00,60.80,77.75,110.00,6.00,0.00,30.15,,6.21,,FEW,,,,4000.00,,,,,,,,,,,68.00,SBMT 021000Z 11006KT 9999 FEW040 20/16 Q1021,
SBMT,2024-02-02 11:00,69.80,62.60,77.90,120.00,7.00,0.00,30.15,,6.21,,SCT,,,,4000.00,,,,,,,,,,,69.80,SBMT 021100Z 12007KT 9999 SCT040 21/17 Q1021,
SBMT,2024-02-02 12:00,71.60,62.60,73.27,110.00,8.00,0.00,30.18,,6.21,,BKN,,,,2000.00,,,,,,,,,,,71.60,SBMT 021200Z 11008KT 9999 BKN020 22/17 Q1022,
SBMT,2024-02-02 13:00,73.40,60.80,64.69,110.00,8.00,0.00,30.18,,6.21,,BKN,,,,2000.00,,,,,,,,,,,73.40,SBMT 021300Z 11008KT 9999 BKN020 23/16 Q1022,
SBMT,2024-02-02 14:00,73.40,62.60,68.94,90.00,7.00,0.00,30.18,,6.21,,BKN,SCT,,,2000.00,4000.00,,,,,,,,,,73.40,SBMT 021400Z 09007KT 9999 BKN020 SCT040 23/17 Q1022,
SBMT,2024-02-02 15:00,75.20,62.60,64.91,110.00,5.00,0.00,30.18,,6.21,,BKN,SCT,,,2000.00,4000.00,,,,,,,,,,75.20,SBMT 021500Z 11005KT 9999 BKN020 SCT040 24/17 Q1022,
SBMT,2024-02-02 16:00,75.20,62.60,64.91,90.00,7.00,0.00,30.15,,6.21,,BKN,SCT,,,2500.00,4000.00,,,,,,,,,,75.20,SBMT 021600Z 09007KT 9999 BKN025 SCT040 24/17 Q1021,
SBMT,2024-02-02 17:00,66.20,62.60,88.18,,5.00,0.00,30.15,,3.73,,SCT,BKN,,,2500.00,4000.00,,,-RA,,,,,,,66.20,SBMT 021700Z VRB05KT 6000 -RA SCT025 BKN040 19/17 Q1021 RERA,
SBMT,2024-02-02 18:00,68.00,62.60,82.86,170.00,3.00,0.00,30.15,,6.21,,FEW,SCT,BKN,///,1500.00,2500.00,4000.00,,TS,,,,,,,68.00,SBMT 021800Z 17003KT 120V210 9999 TS FEW015 SCT025 BKN040 //////CB 20/17 Q1021,
SBMT,2024-02-02 19:00,69.80,64.40,82.98,140.00,3.00,0.00,30.15,,6.21,,SCT,BKN,BKN,,2500.00,4000.00,8000.00,,,,,,,,,69.80,SBMT 021900Z 14003KT 9999 SCT025 BKN040 BKN080 21/18 Q1021 RETS,
SBMT,2024-02-02 20:00,69.80,64.40,82.98,160.00,2.00,0.00,30.12,,6.21,,SCT,BKN,BKN,,2500.00,4000.00,8000.00,,,,,,,,,69.80,SBMT 022000Z 16002KT 9999 SCT025 BKN040 BKN080 21/18 Q1020,
SBMT,2024-02-02 21:00,68.00,64.40,88.26,100.00,4.00,0.00,30.12,,6.21,,FEW,SCT,BKN,,2500.00,4000.00,8000.00,,,,,,,,,68.00,SBMT 022100Z 10004KT 9999 FEW025 SCT040 BKN080 20/18 Q1020,
SBMT,2024-02-02 22:00,68.00,64.40,88.26,90.00,6.00,0.00,30.12,,6.21,,FEW,SCT,BKN,,2500.00,4000.00,8000.00,,,,,,,,,68.00,SBMT 022200Z 09006KT 060V120 9999 FEW025 SCT040 BKN080 20/18 Q1020,
SBMT,2024-02-02 23:00,68.00,64.40,88.26,90.00,6.00,0.00,30.12,,6.21,,FEW,BKN,,,4000.00,8000.00,,,,,,,,,,68.00,SBMT 022300Z 09006KT 9999 FEW040 BKN080 20/18 Q1020,
SBMT,2024-02-03 00:00,68.00,64.40,88.26,90.00,8.00,0.00,30.15,,6.21,,SCT,BKN,,,1500.00,8000.00,,,,,,,,,,68.00,SBMT 030000Z 09008KT 9999 SCT015 BKN080 20/18 Q1021,
SBMT,2024-02-03 01:00,68.00,64.40,88.26,100.00,6.00,0.00,30.15,,6.21,,SCT,SCT,BKN,,1500.00,4000.00,8000.00,,,,,,,,,68.00,SBMT 030100Z 10006KT 9999 SCT015 SCT040 BKN080 20/18 Q1021,
SBMT,2024-02-03 02:00,68.00,64.40,88.26,100.00,5.00,0.00,30.15,,6.21,,SCT,SCT,BKN,,1500.00,4000.00,8000.00,,,,,,,,,68.00,SBMT 030200Z 10005KT 9999 SCT015 SCT040 BKN080 20/18 Q1021,
SBMT,2024-02-03 09:00,66.20,64.40,93.92,90.00,5.00,0.00,30.12,,6.21,,BKN,,,,900.00,,,,,,,,,,,66.20,SBMT 030900Z 09005KT 9999 BKN009 19/18 Q1020,
SBMT,2024-02-03 10:00,68.00,64.40,88.26,90.00,6.00,0.00,30.15,,6.21,,BKN,,,,900.00,,,,,,,,,,,68.00,SBMT 031000Z 09006KT 9999 BKN009 20/18 Q1021,
SBMT,2024-02-03 11:00,69.80,66.20,88.34,100.00,6.00,0.00,30.15,,6.21,,BKN,,,,1100.00,,,,,,,,,,,69.80,SBMT 031100Z 10006KT 9999 BKN011 21/19 Q1021,
SBMT,2024-02-03 12:00,71.60,66.20,83.09,70.00,6.00,0.00,30.15,,6.21,,SCT,,,,1300.00,,,,,,,,,,,71.60,SBMT 031200Z 07006KT 9999 SCT013 22/19 Q1021,
SBMT,2024-02-03 13:00,71.60,66.20,83.09,60.00,5.00,0.00,30.18,,6.21,,,,,,,,,,,,,,,,,71.60,SBMT 031300Z 06005KT CAVOK 22/19 Q1022,
SBMT,2024-02-03 14:00,75.20,68.00,78.34,90.00,5.00,0.00,30.15,,6.21,,,,,,,,,,,,,,,,,75.20,SBMT 031400Z 09005KT CAVOK 24/20 Q1021,
SBMT,2024-02-03 15:00,78.80,66.20,65.33,30.00,3.00,0.00,30.15,,6.21,,,,,,,,,,,,,,,,,78.80,SBMT 031500Z 03003KT 300V090 CAVOK 26/19 Q1021,
SBMT,2024-02-03 16:00,77.00,66.20,69.33,60.00,4.00,0.00,30.15,,6.21,,,,,,,,,,,,,,,,,77.00,SBMT 031600Z 06004KT CAVOK 25/19 Q1021,
SBMT,2024-02-03 17:00,77.00,66.20,69.33,100.00,3.00,0.00,30.12,,6.21,,FEW,BKN,,,2500.00,8000.00,,,,,,,,,,77.00,SBMT 031700Z 10003KT 9999 FEW025 BKN080 25/19 Q1020,
SBMT,2024-02-03 18:00,78.80,66.20,65.33,130.00,12.00,0.00,30.09,,6.21,,FEW,BKN,,,2500.00,8000.00,,,,,,,,,,78.80,SBMT 031800Z 13012KT 9999 FEW025 BKN080 26/19 Q1019,
SBMT,2024-02-03 19:00,78.80,64.40,61.36,130.00,3.00,0.00,30.09,,6.21,,FEW,BKN,,,2500.00,8000.00,,,,,,,,,,78.80,SBMT 031900Z 13003KT 9999 FEW025 BKN080 26/18 Q1019,
SBMT,2024-02-03 20:00,78.80,68.00,69.52,250.00,2.00,0.00,30.06,,6.21,,,,,,,,,,,,,,,,,78.80,SBMT 032000Z 25002KT CAVOK 26/20 Q1018,
SBMT,2024-02-03 21:00,78.80,66.20,65.33,140.00,4.00,0.00,30.06,,3.11,,NSC,,,,,,,,HZ,,,,,,,78.80,COR SBMT 032100Z 14004KT 5000 HZ NSC 26/19 Q1018,
SBMT,2024-02-03 22:00,73.40,68.00,83.21,150.00,7.00,0.00,30.12,,1.86,,FEW,BKN,,,2000.00,8000.00,,,BR,,,,,,,73.40,SBMT 032200Z 15007KT 110V170 3000 BR FEW020 BKN080 23/20 Q1020,
SBMT,2024-02-03 23:00,73.40,68.00,83.21,140.00,3.00,0.00,30.12,,1.86,,FEW,BKN,,,2000.00,8000.00,,,BR,,,,,,,73.40,SBMT 032300Z 14003KT 3000 BR FEW020 BKN080 23/20 Q1020,
SBMT,2024-02-04 00:00,71.60,68.00,88.43,140.00,3.00,0.00,30.12,,1.86,,FEW,BKN,,,2000.00,8000.00,,,BR,,,,,,,71.60,SBMT 040000Z 14003KT 100V170 3000 BR FEW020 BKN080 22/20 Q1020,
SBMT,2024-02-04 01:00,73.40,68.00,83.21,120.00,4.00,0.00,30.12,,3.73,,FEW,SCT,BKN,,1300.00,1500.00,8000.00,,,,,,,,,73.40,SBMT 040100Z 12004KT 090V150 6000 2000NW FEW013 SCT015 BKN080 23/20 Q1020,
SBMT,2024-02-04 02:00,71.60,66.20,83.09,160.00,1.00,0.00,30.15,,3.73,,FEW,SCT,BKN,,1300.00,1500.00,8000.00,,,,,,,,,71.60,SBMT 040200Z 16001KT 6000 2000NW FEW013 SCT015 BKN080 22/19 Q1021,
SBMT,2024-02-04 09:00,68.00,64.40,88.26,90.00,4.00,0.00,30.09,,6.21,,,,,,,,,,,,,,,,,68.00,SBMT 040900Z 09004KT CAVOK 20/18 Q1019,
SBMT,2024-02-04 10:00,68.00,64.40,88.26,10.00,2.00,0.00,30.09,,6.21,,,,,,,,,,,,,,,,,68.00,SBMT 041000Z 01002KT CAVOK 20/18 Q1019,
SBMT,2024-02-04 11:00,69.80,64.40,82.98,90.00,5.00,0.00,30.12,,6.21,,,,,,,,,,,,,,,,,69.80,SBMT 041100Z 09005KT CAVOK 21/18 Q1020,
SBMT,2024-02-04 12:00,75.20,66.20,73.61,330.00,1.00,0.00,30.12,,6.21,,,,,,,,,,,,,,,,,75.20,SBMT 041200Z 33001KT CAVOK 24/19 Q1020,
SBMT,2024-02-04 13:00,80.60,66.20,61.58,200.00,2.00,0.00,30.12,,6.21,,,,,,,,,,,,,,,,,82.75,SBMT 041300Z 20002KT CAVOK 27/19 Q1020,
SBMT,2024-02-04 14:00,82.40,64.40,54.55,350.00,6.00,0.00,30.12,,6.21,,SCT,,,,4000.00,,,,,,,,,,,83.98,SBMT 041400Z 35006KT 9999 SCT040 28/18 Q1020,
SBMT,2024-02-04 15:00,84.20,66.20,54.80,300.00,4.00,0.00,30.12,,6.21,,,,,,,,,,,,,,,,,86.50,SBMT 041500Z 30004KT CAVOK 29/19 Q1020,
SBMT,2024-02-04 16:00,84.20,62.60,48.32,270.00,7.00,0.00,30.09,,6.21,,SCT,,,,4900.00,,,,,,,,,,,85.03,SBMT 041600Z 27007KT 9999 SCT049 29/17 Q1019,
SBMT,2024-02-04 17:00,69.80,62.60,77.90,340.00,16.00,0.00,30.09,,5.59,31.00,SCT,BKN,FEW,,2500.00,3500.00,4000.00,,-RA,,,,,,,69.80,SBMT 041700Z 34016G31KT 300V020 9000 2000NE -RA SCT025 BKN035 FEW040TCU 21/17 Q1019,
SBMT,2024-02-04 18:00,71.60,64.40,78.04,60.00,3.00,0.00,30.09,,5.59,,SCT,BKN,FEW,,2500.00,4000.00,4500.00,,VCSH,,,,,,,71.60,SBMT 041800Z 06003KT 340V100 9000 VCSH SCT025 BKN040 FEW045TCU 22/18 Q1019,
SBMT,2024-02-04 19:00,73.40,64.40,73.44,110.00,4.00,0.00,30.09,,6.21,,SCT,BKN,FEW,,2500.00,4000.00,4500.00,,,,,,,,,73.40,SBMT 041900Z 11004KT 060V170 9999 SCT025 BKN040 FEW045TCU 23/18 Q1019,
SBMT,2024-02-04 20:00,73.40,64.40,73.44,80.00,7.00,0.00,30.09,,6.21,,SCT,FEW,,,4000.00,4500.00,,,,,,,,,,73.40,SBMT 042000Z 08007KT 9999 SCT040 FEW045TCU 23/18 Q1019,
SBMT,2024-02-04 21:00,68.00,60.80,77.75,80.00,10.00,0.00,30.12,,6.21,,SCT,FEW,,,4000.00,4500.00,,,,,,,,,,68.00,SBMT 042100Z 08010KT 9999 SCT040 FEW045TCU 20/16 Q1020,
SBMT,2024-02-04 22:00,66.20,60.80,82.74,90.00,5.00,0.00,30.09,,6.21,,,,,,,,,,,,,,,,,66.20,SBMT 042200Z 09005KT CAVOK 19/16 Q1019,
SBMT,2024-02-04 23:00,66.20,60.80,82.74,,2.00,0.00,30.09,,6.21,,,,,,,,,,,,,,,,,66.20,SBMT 042300Z VRB02KT CAVOK 19/16 Q1019,
SBMT,2024-02-05 00:00,68.00,60.80,77.75,90.00,5.00,0.00,30.12,,6.21,,,,,,,,,,,,,,,,,68.00,SBMT 050000Z 09005KT CAVOK 20/16 Q1020,
SBMT,2024-02-05 01:00,66.20,60.80,82.74,130.00,4.00,0.00,30.09,,6.21,,,,,,,,,,,,,,,,,66.20,SBMT 050100Z 13004KT CAVOK 19/16 Q1019,
SBMT,2024-02-05 02:00,66.20,59.00,77.60,70.00,3.00,0.00,30.09,,6.21,,,,,,,,,,,,,,,,,66.20,SBMT 050200Z 07003KT CAVOK 19/15 Q1019,
SBMT,2024-02-05 09:00,60.80,60.80,100.00,0.00,0.00,0.00,30.09,,6.21,,,,,,,,,,,,,,,,,60.80,SBMT 050900Z 00000KT CAVOK 16/16 Q1019,
SBMT,2024-02-05 10:00,66.20,62.60,88.18,70.00,5.00,0.00,30.12,,6.21,,,,,,,,,,,,,,,,,66.20,SBMT 051000Z 07005KT CAVOK 19/17 Q1020,
SBMT,2024-02-05 11:00,69.80,62.60,77.90,80.00,3.00,0.00,30.12,,6.21,,,,,,,,,,,,,,,,,69.80,SBMT 051100Z 08003KT CAVOK 21/17 Q1020,
SBMT,2024-02-05 12:00,75.20,62.60,64.91,,2.00,0.00,30.12,,6.21,,,,,,,,,,,,,,,,,75.20,SBMT 051200Z VRB02KT CAVOK 24/17 Q1020,
SBMT,2024-02-05 13:00,78.80,64.40,61.36,280.00,3.00,0.00,30.12,,6.21,,,,,,,,,,,,,,,,,78.80,SBMT 051300Z 28003KT 200V360 CAVOK 26/18 Q1020,
SBMT,2024-02-05 14:00,82.40,60.80,48.05,,2.00,0.00,30.09,,6.21,,,,,,,,,,,,,,,,,82.90,SBMT 051400Z VRB02KT CAVOK 28/16 Q1019,
SBMT,2024-02-05 15:00,84.20,62.60,48.32,280.00,4.00,0.00,30.09,,6.21,,,,,,,,,,,,,,,,,85.03,SBMT 051500Z 28004KT CAVOK 29/17 Q1019,
SBMT,2024-02-05 16:00,86.00,60.80,42.80,270.00,3.00,0.00,30.06,,6.21,,,,,,,,,,,,,,,,,86.05,SBMT 051600Z 27003KT 200V340 CAVOK 30/16 Q1018,
SBMT,2024-02-05 17:00,86.00,59.00,40.14,210.00,7.00,0.00,30.03,,6.21,,,,,,,,,,,,,,,,,85.47,SBMT 051700Z 21007KT CAVOK 30/15 Q1017,
SBMT,2024-02-05 18:00,84.20,60.80,45.34,140.00,7.00,0.00,30.03,,6.21,,BKN,,,,4900.00,,,,,,,,,,,84.43,SBMT 051800Z 14007KT 9999 BKN049 29/16 Q1017,
SBMT,2024-02-05 19:00,86.00,60.80,42.80,150.00,6.00,0.00,30.00,,6.21,,,,,,,,,,,,,,,,,86.05,SBMT 051900Z 15006KT CAVOK 30/16 Q1016,
SBMT,2024-02-05 20:00,84.20,60.80,45.34,150.00,7.00,0.00,29.97,,6.21,,,,,,,,,,,,,,,,,84.43,SBMT 052000Z 15007KT CAVOK 29/16 Q1015,
SBMT,2024-02-05 21:00,80.60,59.00,47.79,150.00,9.00,0.00,30.00,,6.21,,,,,,,,,,,,,,,,,81.11,SBMT 052100Z 15009KT CAVOK 27/15 Q1016,
SBMT,2024-02-05 22:00,77.00,60.80,57.36,130.00,9.00,0.00,30.03,,6.21,,,,,,,,,,,,,,,,,77.00,SBMT 052200Z 13009KT CAVOK 25/16 Q1017,
SBMT,2024-02-05 23:00,75.20,60.80,60.90,120.00,9.00,0.00,30.06,,6.21,,,,,,,,,,,,,,,,,75.20,SBMT 052300Z 12009KT CAVOK 24/16 Q1018,
SBMT,2024-02-06 00:00,73.40,60.80,64.69,110.00,4.00,0.00,30.09,,6.21,,,,,,,,,,,,,,,,,73.40,SBMT 060000Z 11004KT CAVOK 23/16 Q1019,
SBMT,2024-02-06 01:00,71.60,60.80,68.75,90.00,4.00,0.00,30.12,,6.21,,,,,,,,,,,,,,,,,71.60,SBMT 060100Z 09004KT CAVOK 22/16 Q1020,
SBMT,2024-02-06 02:00,71.60,60.80,68.75,90.00,4.00,0.00,30.12,,6.21,,,,,,,,,,,,,,,,,71.60,SBMT 060200Z 09004KT CAVOK 22/16 Q1020,
SBMT,2024-02-06 09:00,64.40,60.80,88.09,0.00,0.00,0.00,30.09,,6.21,,,,,,,,,,,,,,,,,64.40,SBMT 060900Z 00000KT CAVOK 18/16 Q1019,
SBMT,2024-02-06 10:00,69.80,64.40,82.98,0.00,0.00,0.00,30.09,,6.21,,,,,,,,,,,,,,,,,69.80,SBMT 061000Z 00000KT CAVOK 21/18 Q1019,
SBMT,2024-02-06 11:00,73.40,64.40,73.44,120.00,2.00,0.00,30.12,,6.21,,,,,,,,,,,,,,,,,73.40,SBMT 061100Z 12002KT CAVOK 23/18 Q1020,
SBMT,2024-02-06 12:00,78.80,64.40,61.36,150.00,2.00,0.00,30.15,,6.21,,,,,,,,,,,,,,,,,78.80,SBMT 061200Z 15002KT CAVOK 26/18 Q1021,
SBMT,2024-02-06 13:00,80.60,64.40,57.84,220.00,2.00,0.00,30.15,,6.21,,FEW,BKN,,,2500.00,8000.00,,,,,,,,,,82.27,SBMT 061300Z 22002KT 9999 FEW025 BKN080 27/18 Q1021,
SBMT,2024-02-06 14:00,82.40,62.60,51.21,0.00,0.00,0.00,30.15,,6.21,,BKN,,,,4000.00,,,,,,,,,,,83.41,SBMT 061400Z 00000KT 9999 BKN040 28/17 Q1021,
SBMT,2024-02-06 15:00,82.40,64.40,54.55,240.00,6.00,0.00,30.12,,6.21,,BKN,,,,4000.00,,,,,,,,,,,83.98,SBMT 061500Z 24006KT 200V280 9999 BKN040 28/18 Q1020,
SBMT,2024-02-06 16:00,84.20,66.20,54.80,170.00,4.00,0.00,30.09,,6.21,,BKN,,,,4000.00,,,,,,,,,,,86.50,SBMT 061600Z 17004KT 9999 BKN040 29/19 Q1019,
SBMT,2024-02-06 17:00,84.20,64.40,51.47,160.00,5.00,0.00,30.09,,6.21,,BKN,,,,4500.00,,,,,,,,,,,85.71,SBMT 061700Z 16005KT 9999 BKN045 29/18 Q1019,
SBMT,2024-02-06 18:00,84.20,66.20,54.80,150.00,7.00,0.00,30.06,,6.21,,SCT,,,,4900.00,,,,,,,,,,,86.50,SBMT 061800Z 15007KT 9999 SCT049 29/19 Q1018,
SBMT,2024-02-06 19:00,82.40,66.20,58.08,160.00,10.00,0.00,30.03,,6.21,,FEW,,,,3500.00,,,,,,,,,,,84.63,SBMT 061900Z 16010KT 9999 FEW035 28/19 Q1017,
SBMT,2024-02-06 20:00,78.80,66.20,65.33,150.00,9.00,0.00,30.03,,6.21,,FEW,,,,2900.00,,,,,,,,,,,78.80,SBMT 062000Z 15009KT 9999 FEW029 26/19 Q1017,
SBMT,2024-02-06 21:00,77.00,66.20,69.33,150.00,6.00,0.00,30.03,,6.21,,FEW,,,,2600.00,,,,,,,,,,,77.00,SBMT 062100Z 15006KT 9999 FEW026 25/19 Q1017,
SBMT,2024-02-06 22:00,75.20,66.20,73.61,130.00,7.00,0.00,30.06,,6.21,,SCT,,,,2300.00,,,,,,,,,,,75.20,SBMT 062200Z 13007KT 9999 SCT023 24/19 Q1018,
SBMT,2024-02-06 23:00,73.40,64.40,73.44,120.00,7.00,0.00,30.09,,6.21,,FEW,,,,2600.00,,,,,,,,,,,73.40,SBMT 062300Z 12007KT 9999 FEW026 23/18 Q1019,
SBMT,2024-02-07 00:00,71.60,64.40,78.04,100.00,7.00,0.00,30.12,,6.21,,FEW,,,,2000.00,,,,,,,,,,,71.60,SBMT 070000Z 10007KT 9999 FEW020 22/18 Q1020,
SBMT,2024-02-07 01:00,71.60,66.20,83.09,90.00,6.00,0.00,30.12,,6.21,,,,,,,,,,,,,,,,,71.60,SBMT 070100Z 09006KT CAVOK 22/19 Q1020,
SBMT,2024-02-07 02:00,71.60,64.40,78.04,80.00,6.00,0.00,30.12,,6.21,,,,,,,,,,,,,,,,,71.60,SBMT 070200Z 08006KT CAVOK 22/18 Q1020,
SBMT,2024-02-07 09:00,68.00,64.40,88.26,80.00,3.00,0.00,30.03,,6.21,,,,,,,,,,,,,,,,,68.00,SBMT 070900Z 08003KT CAVOK 20/18 Q1017,
SBMT,2024-02-07 10:00,69.80,64.40,82.98,80.00,4.00,0.00,30.06,,6.21,,,,,,,,,,,,,,,,,69.80,SBMT 071000Z 08004KT CAVOK 21/18 Q1018,
SBMT,2024-02-07 11:00,71.60,66.20,83.09,60.00,2.00,0.00,30.09,,6.21,,,,,,,,,,,,,,,,,71.60,SBMT 071100Z 06002KT CAVOK 22/19 Q1019,
SBMT,2024-02-07 12:00,77.00,66.20,69.33,80.00,3.00,0.00,30.09,,6.21,,,,,,,,,,,,,,,,,77.00,SBMT 071200Z 08003KT CAVOK 25/19 Q1019,
SBMT,2024-02-07 13:00,80.60,62.60,54.30,30.00,2.00,0.00,30.06,,6.21,,,,,,,,,,,,,,,,,81.84,SBMT 071300Z 03002KT CAVOK 27/17 Q1018,
SBMT,2024-02-07 14:00,84.20,64.40,51.47,340.00,5.00,0.00,30.06,,6.21,,FEW,,,,2500.00,,,,,,,,,,,85.71,SBMT 071400Z 34005KT 9999 FEW025 29/18 Q1018,
SBMT,2024-02-07 15:00,84.20,62.60,48.32,20.00,5.00,0.00,30.03,,6.21,,SCT,,,,2500.00,,,,,,,,,,,85.03,SBMT 071500Z 02005KT 9999 SCT025 29/17 Q1017,
SBMT,2024-02-07 16:00,86.00,62.60,45.61,340.00,6.00,0.00,30.03,,6.21,,SCT,,,,2500.00,,,,,,,,,,,86.72,SBMT 071600Z 34006KT 9999 SCT025 30/17 Q1017,
SBMT,2024-02-07 17:00,87.80,66.20,48.84,,4.00,0.00,30.00,,6.21,,SCT,,,,3000.00,,,,,,,,,,,90.31,SBMT 071700Z VRB04KT 9999 SCT030 31/19 Q1016,
SBMT,2024-02-07 18:00,86.00,68.00,55.04,150.00,5.00,0.00,29.97,,6.21,,BKN,FEW,,,4000.00,4500.00,,,,,,,,,,89.41,SBMT 071800Z 15005KT 100V270 9999 BKN040 FEW045TCU 30/20 Q1015,
SBMT,2024-02-07 19:00,80.60,69.80,69.71,150.00,12.00,0.00,29.94,,6.21,,SCT,FEW,,,4000.00,4500.00,,,VCSH,,,,,,,83.90,SBMT 071900Z 15012KT 9999 VCSH SCT040 FEW045TCU 27/21 Q1014,
SBMT,2024-02-07 20:00,77.00,68.00,73.78,140.00,9.00,0.00,29.97,,4.97,,BKN,,,,2000.00,,,,,,,,,,,77.00,SBMT 072000Z 14009KT 100V170 8000 BKN020 25/20 Q1015,
SBMT,2024-02-07 21:00,75.20,66.20,73.61,150.00,7.00,0.00,30.00,,4.97,,BKN,,,,1800.00,,,,,,,,,,,75.20,SBMT 072100Z 15007KT 100V210 8000 BKN018 24/19 Q1016,
SBMT,2024-02-07 22:00,73.40,66.20,78.19,120.00,5.00,0.00,30.00,,6.21,,FEW,,,,1800.00,,,,,,,,,,,73.40,SBMT 072200Z 12005KT 9999 FEW018 23/19 Q1016,
SBMT,2024-02-07 23:00,73.40,66.20,78.19,130.00,5.00,0.00,30.00,,6.21,,,,,,,,,,,,,,,,,73.40,SBMT 072300Z 13005KT CAVOK 23/19 Q1016,
SBMT,2024-02-08 00:00,73.40,66.20,78.19,140.00,5.00,0.00,30.03,,6.21,,,,,,,,,,,,,,,,,73.40,SBMT 080000Z 14005KT CAVOK 23/19 Q1017,
SBMT,2024-02-08 01:00,71.60,64.40,78.04,80.00,6.00,0.00,30.06,,6.21,,,,,,,,,,,,,,,,,71.60,SBMT 080100Z 08006KT CAVOK 22/18 Q1018,
SBMT,2024-02-08 02:00,71.60,66.20,83.09,90.00,6.00,0.00,30.06,,6.21,,,,,,,,,,,,,,,,,71.60,SBMT 080200Z 09006KT CAVOK 22/19 Q1018,
SBMT,2024-02-08 09:00,64.40,62.60,93.88,0.00,0.00,0.00,30.00,,6.21,,,,,,,,,,,,,,,,,64.40,SBMT 080900Z 00000KT CAVOK 18/17 Q1016,
SBMT,2024-02-08 10:00,71.60,66.20,83.09,100.00,3.00,0.00,30.03,,6.21,,,,,,,,,,,,,,,,,71.60,SBMT 081000Z 10003KT CAVOK 22/19 Q1017,
SBMT,2024-02-08 11:00,75.20,66.20,73.61,270.00,1.00,0.00,30.03,,6.21,,,,,,,,,,,,,,,,,75.20,SBMT 081100Z 27001KT CAVOK 24/19 Q1017,
SBMT,2024-02-08 12:00,77.00,68.00,73.78,290.00,2.00,0.00,30.03,,6.21,,,,,,,,,,,,,,,,,77.00,SBMT 081200Z 29002KT CAVOK 25/20 Q1017,
SBMT,2024-02-08 13:00,82.40,66.20,58.08,20.00,4.00,0.00,30.03,,6.21,,FEW,,,,3000.00,,,,,,,,,,,84.63,SBMT 081300Z 02004KT 9999 FEW030 28/19 Q1017,
SBMT,2024-02-08 14:00,84.20,62.60,48.32,310.00,4.00,0.00,30.03,,6.21,,SCT,,,,3000.00,,,,,,,,,,,85.03,SBMT 081400Z 31004KT 240V360 9999 SCT030 29/17 Q1017,
SBMT,2024-02-08 15:00,84.20,62.60,48.32,110.00,3.00,0.00,30.00,,6.21,,SCT,,,,3000.00,,,,,,,,,,,85.03,SBMT 081500Z 11003KT 9999 SCT030 29/17 Q1016,
SBMT,2024-02-08 16:00,86.00,62.60,45.61,0.00,0.00,0.00,30.00,,6.21,,BKN,,,,4000.00,,,,,,,,,,,86.72,SBMT 081600Z 00000KT 9999 BKN040 30/17 Q1016,
SBMT,2024-02-08 17:00,87.80,60.80,40.41,,5.00,0.00,29.97,,6.21,,BKN,,,,4000.00,,,,,,,,,,,87.75,SBMT 081700Z VRB05KT 9999 BKN040 31/16 Q1015,
SBMT,2024-02-08 18:00,86.00,66.20,51.72,,6.00,0.00,29.94,,6.21,,BKN,,,,4000.00,,,,,,,,,,,88.39,SBMT 081800Z VRB06KT 9999 BKN040 30/19 Q1014,
SBMT,2024-02-08 19:00,84.20,68.00,58.32,150.00,10.00,0.00,29.94,,6.21,,BKN,,,,4000.00,,,,,,,,,,,87.40,SBMT 081900Z 15010KT 110V190 9999 BKN040 29/20 Q1014,
SBMT,2024-02-08 20:00,80.60,69.80,69.71,140.00,9.00,0.00,29.94,,6.21,,,,,,,,,,,,,,,,,83.90,SBMT 082000Z 14009KT 100V200 CAVOK 27/21 Q1014,
SBMT,2024-02-08 21:00,77.00,68.00,73.78,120.00,10.00,0.00,29.97,,6.21,,SCT,,,,2000.00,,,,,,,,,,,77.00,SBMT 082100Z 12010KT 9999 SCT020 25/20 Q1015,
SBMT,2024-02-08 22:00,75.20,68.00,78.34,120.00,10.00,0.00,29.97,,6.21,,SCT,,,,2000.00,,,,,,,,,,,75.20,SBMT 082200Z 12010KT 090V150 9999 SCT020 24/20 Q1015,
SBMT,2024-02-08 23:00,75.20,66.20,73.61,120.00,7.00,0.00,30.00,,6.21,,BKN,,,,2000.00,,,,,,,,,,,75.20,SBMT 082300Z 12007KT 9999 BKN020 24/19 Q1016,
SBMT,2024-02-09 00:00,75.20,66.20,73.61,90.00,8.00,0.00,30.03,,6.21,,BKN,,,,2000.00,,,,,,,,,,,75.20,SBMT 090000Z 09008KT 9999 BKN020 24/19 Q1017,
SBMT,2024-02-09 01:00,73.40,66.20,78.19,110.00,8.00,0.00,30.03,,6.21,,BKN,,,,1900.00,,,,,,,,,,,73.40,SBMT 090100Z 11008KT 070V130 9999 BKN019 23/19 Q1017,
SBMT,2024-02-09 02:00,71.60,66.20,83.09,90.00,5.00,0.00,30.06,,6.21,,,,,,,,,,,,,,,,,71.60,SBMT 090200Z 09005KT CAVOK 22/19 Q1018,
SBMT,2024-02-09 09:00,68.00,64.40,88.26,80.00,6.00,0.00,30.03,,6.21,,FEW,,,,1100.00,,,,,,,,,,,68.00,SBMT 090900Z 08006KT 9999 FEW011 20/18 Q1017,
SBMT,2024-02-09 10:00,69.80,66.20,88.34,80.00,4.00,0.00,30.06,,6.21,,,,,,,,,,,,,,,,,69.80,SBMT 091000Z 08004KT 050V120 CAVOK 21/19 Q1018,
SBMT,2024-02-09 11:00,73.40,66.20,78.19,90.00,5.00,0.00,30.06,,6.21,,,,,,,,,,,,,,,,,73.40,SBMT 091100Z 09005KT CAVOK 23/19 Q1018,
SBMT,2024-02-09 12:00,77.00,66.20,69.33,80.00,5.00,0.00,30.06,,6.21,,,,,,,,,,,,,,,,,77.00,SBMT 091200Z 08005KT CAVOK 25/19 Q1018,
SBMT,2024-02-09 13:00,80.60,66.20,61.58,90.00,6.00,0.00,30.06,,6.21,,,,,,,,,,,,,,,,,82.75,SBMT 091300Z 09006KT CAVOK 27/19 Q1018,
SBMT,2024-02-09 14:00,84.20,66.20,54.80,90.00,5.00,0.00,30.06,,6.21,,FEW,,,,2400.00,,,,,,,,,,,86.50,SBMT 091400Z 09005KT 9999 FEW024 29/19 Q1018,
SBMT,2024-02-09 15:00,86.00,62.60,45.61,130.00,5.00,0.00,30.03,,6.21,,SCT,,,,3000.00,,,,,,,,,,,86.72,SBMT 091500Z 13005KT 090V180 9999 SCT030 30/17 Q1017,
SBMT,2024-02-09 16:00,89.60,59.00,35.81,,3.00,0.00,30.03,,6.21,,SCT,,,,4000.00,,,,,,,,,,,88.86,SBMT 091600Z VRB03KT 9999 SCT040 32/15 Q1017,
SBMT,2024-02-09 17:00,86.00,69.80,58.55,170.00,11.00,0.00,30.03,,6.21,,,,,,,,,,,,,,,,,90.58,SBMT 091700Z 17011KT 120V200 CAVOK 30/21 Q1017,
SBMT,2024-02-09 18:00,84.20,68.00,58.32,150.00,11.00,0.00,30.03,,6.21,,,,,,,,,,,,,,,,,87.40,SBMT 091800Z 15011KT CAVOK 29/20 Q1017,
SBMT,2024-02-09 19:00,82.40,69.80,65.74,150.00,10.00,0.00,30.03,,6.21,,,,,,,,,,,,,,,,,86.22,SBMT 091900Z 15010KT CAVOK 28/21 Q1017,
SBMT,2024-02-09 20:00,80.60,68.00,65.54,160.00,10.00,0.00,30.00,,6.21,,,,,,,,,,,,,,,,,83.29,SBMT 092000Z 16010KT 120V200 CAVOK 27/20 Q1016,
SBMT,2024-02-09 21:00,77.00,66.20,69.33,130.00,12.00,0.00,30.03,,6.21,,,,,,,,,,,,,,,,,77.00,SBMT 092100Z 13012KT 100V170 CAVOK 25/19 Q1017,
SBMT,2024-02-09 22:00,75.20,66.20,73.61,150.00,8.00,0.00,30.03,,6.21,,SCT,,,,2000.00,,,,,,,,,,,75.20,SBMT 092200Z 15008KT 100V180 9999 SCT020 24/19 Q1017,
SBMT,2024-02-09 23:00,75.20,66.20,73.61,120.00,10.00,0.00,30.06,,6.21,,BKN,,,,2500.00,,,,,,,,,,,75.20,SBMT 092300Z 12010KT 090V150 9999 BKN025 24/19 Q1018,
SBMT,2024-02-10 00:00,75.20,66.20,73.61,110.00,11.00,0.00,30.09,,6.21,,BKN,,,,2500.00,,,,,,,,,,,75.20,SBMT 100000Z 11011KT 9999 BKN025 24/19 Q1019,
SBMT,2024-02-10 01:00,78.80,66.20,65.33,110.00,10.00,0.00,30.09,,6.21,,BKN,,,,2000.00,,,,,,,,,,,78.80,SBMT 100100Z 11010KT 9999 BKN020 26/19 Q1019,
SBMT,2024-02-10 02:00,73.40,66.20,78.19,110.00,9.00,0.00,30.12,,6.21,,BKN,,,,2000.00,,,,,,,,,,,73.40,SBMT 100200Z 11009KT 9999 BKN020 23/19 Q1020,
SBMT,2024-02-10 09:00,69.80,66.20,88.34,100.00,6.00,0.00,30.09,,6.21,,FEW,,,,1300.00,,,,,,,,,,,69.80,SBMT 100900Z 10006KT 9999 FEW013 21/19 Q1019,
SBMT,2024-02-10 10:00,71.60,66.20,83.09,100.00,8.00,0.00,30.12,,6.21,,SCT,,,,1200.00,,,,,,,,,,,71.60,SBMT 101000Z 10008KT 9999 SCT012 22/19 Q1020,
SBMT,2024-02-10 11:00,73.40,66.20,78.19,60.00,8.00,0.00,30.12,,6.21,,SCT,,,,1500.00,,,,,,,,,,,73.40,SBMT 101100Z 06008KT 9999 SCT015 23/19 Q1020,
SBMT,2024-02-10 12:00,78.80,68.00,69.52,80.00,7.00,0.00,30.12,,6.21,,FEW,,,,2100.00,,,,,,,,,,,78.80,SBMT 101200Z 08007KT 9999 FEW021 26/20 Q1020,
SBMT,2024-02-10 13:00,78.80,66.20,65.33,90.00,12.00,0.00,30.15,,6.21,,FEW,,,,2500.00,,,,,,,,,,,78.80,SBMT 101300Z 09012KT 9999 FEW025 26/19 Q1021,
SBMT,2024-02-10 14:00,82.40,66.20,58.08,120.00,8.00,0.00,30.12,,6.21,,FEW,,,,3300.00,,,,,,,,,,,84.63,SBMT 101400Z 12008KT 9999 FEW033 28/19 Q1020,
SBMT,2024-02-10 15:00,82.40,66.20,58.08,100.00,6.00,0.00,30.12,,6.21,,FEW,,,,4000.00,,,,,,,,,,,84.63,SBMT 101500Z 10006KT 9999 FEW040 28/19 Q1020,
SBMT,2024-02-10 16:00,86.00,59.00,40.14,60.00,6.00,0.00,30.09,,6.21,,FEW,,,,4500.00,,,,,,,,,,,85.47,SBMT 101600Z 06006KT 9999 FEW045 30/15 Q1019,
SBMT,2024-02-10 17:00,86.00,60.80,42.80,90.00,9.00,0.00,30.06,,6.21,,,,,,,,,,,,,,,,,86.05,SBMT 101700Z 09009KT CAVOK 30/16 Q1018,
SBMT,2024-02-10 18:00,87.80,57.20,35.53,50.00,5.00,0.00,30.03,,6.21,,,,,,,,,,,,,,,,,86.58,SBMT 101800Z 05005KT CAVOK 31/14 Q1017,
SBMT,2024-02-10 19:00,84.20,68.00,58.32,160.00,9.00,0.00,30.03,,6.21,,FEW,,,,4200.00,,,,,,,,,,,87.40,SBMT 101900Z 16009KT 9999 FEW042 29/20 Q1017,
SBMT,2024-02-10 20:00,80.60,68.00,65.54,180.00,11.00,0.00,30.03,,6.21,,FEW,,,,3300.00,,,,,,,,,,,83.29,SBMT 102000Z 18011KT 9999 FEW033 27/20 Q1017,
SBMT,2024-02-10 21:00,78.80,68.00,69.52,150.00,10.00,0.00,30.06,,6.21,,,,,,,,,,,,,,,,,78.80,SBMT 102100Z 15010KT CAVOK 26/20 Q1018,
SBMT,2024-02-10 22:00,75.20,66.20,73.61,130.00,7.00,0.00,30.06,,6.21,,SCT,,,,2300.00,,,,,,,,,,,75.20,SBMT 102200Z 13007KT 9999 SCT023 24/19 Q1018,
SBMT,2024-02-10 23:00,73.40,66.20,78.19,130.00,7.00,0.00,30.09,,6.21,,,,,,,,,,,,,,,,,73.40,SBMT 102300Z 13007KT CAVOK 23/19 Q1019,
SBMT,2024-02-11 00:00,73.40,66.20,78.19,140.00,5.00,0.00,30.09,,6.21,,,,,,,,,,,,,,,,,73.40,SBMT 110000Z 14005KT CAVOK 23/19 Q1019,
SBMT,2024-02-11 01:00,71.60,64.40,78.04,130.00,5.00,0.00,30.12,,6.21,,,,,,,,,,,,,,,,,71.60,SBMT 110100Z 13005KT CAVOK 22/18 Q1020,
SBMT,2024-02-11 02:00,71.60,64.40,78.04,100.00,6.00,0.00,30.12,,6.21,,,,,,,,,,,,,,,,,71.60,SBMT 110200Z 10006KT CAVOK 22/18 Q1020,
SBMT,2024-02-11 09:00,68.00,64.40,88.26,90.00,5.00,0.00,30.09,,6.21,,,,,,,,,,,,,,,,,68.00,SBMT 110900Z 09005KT CAVOK 20/18 Q1019,
SBMT,2024-02-11 10:00,71.60,62.60,73.27,90.00,4.00,0.00,30.12,,6.21,,,,,,,,,,,,,,,,,71.60,SBMT 111000Z 09004KT CAVOK 22/17 Q1020,
SBMT,2024-02-11 11:00,73.40,64.40,73.44,130.00,3.00,0.00,30.12,,6.21,,,,,,,,,,,,,,,,,73.40,SBMT 111100Z 13003KT CAVOK 23/18 Q1020,
SBMT,2024-02-11 12:00,78.80,62.60,57.60,110.00,2.00,0.00,30.15,,6.21,,,,,,,,,,,,,,,,,78.80,SBMT 111200Z 11002KT CAVOK 26/17 Q1021,
SBMT,2024-02-11 13:00,80.60,62.60,54.30,300.00,2.00,0.00,30.15,,6.21,,,,,,,,,,,,,,,,,81.84,SBMT 111300Z 30002KT CAVOK 27/17 Q1021,
SBMT,2024-02-11 14:00,84.20,62.60,48.32,90.00,4.00,0.00,30.12,,6.21,,FEW,,,,3000.00,,,,,,,,,,,85.03,SBMT 111400Z 09004KT 9999 FEW030 29/17 Q1020,
SBMT,2024-02-11 15:00,84.20,62.60,48.32,290.00,4.00,0.00,30.09,,6.21,,SCT,,,,4000.00,,,,,,,,,,,85.03,SBMT 111500Z 29004KT 9999 SCT040 29/17 Q1019,
SBMT,2024-02-11 16:00,86.00,60.80,42.80,300.00,3.00,0.00,30.09,,6.21,,SCT,,,,4000.00,,,,,,,,,,,86.05,SBMT 111600Z 30003KT 9999 SCT040 30/16 Q1019,
SBMT,2024-02-11 17:00,87.80,62.60,43.07,30.00,6.00,0.00,30.06,,6.21,,SCT,,,,4500.00,,,,,,,,,,,88.48,SBMT 111700Z 03006KT 9999 SCT045 31/17 Q1018,
SBMT,2024-02-11 18:00,89.60,59.00,35.81,350.00,5.00,0.00,30.03,,6.21,,FEW,,,,4900.00,,,,,,,,,,,88.86,SBMT 111800Z 35005KT 9999 FEW049 32/15 Q1017,
SBMT,2024-02-11 19:00,89.60,60.80,38.18,350.00,5.00,0.00,30.00,,6.21,,FEW,,,,4900.00,,,,,,,,,,,89.54,SBMT 111900Z 35005KT 9999 FEW049 32/16 Q1016,
SBMT,2024-02-11 20:00,84.20,69.80,62.03,110.00,9.00,0.00,30.03,,6.21,,FEW,,,,4500.00,,,,,,,,,,,88.43,SBMT 112000Z 11009KT 060V160 9999 FEW045 29/21 Q1017,
SBMT,2024-02-11 21:00,78.80,69.80,73.95,150.00,10.00,0.00,30.06,,6.21,,FEW,,,,4500.00,,,,,,,,,,,78.80,SBMT 112100Z 15010KT 9999 FEW045 26/21 Q1018,
SBMT,2024-02-11 22:00,77.00,69.80,78.48,150.00,7.00,0.00,30.06,,6.21,,FEW,,,,1900.00,,,,,,,,,,,77.00,SBMT 112200Z 15007KT 9999 FEW019 25/21 Q1018,
SBMT,2024-02-11 23:00,75.20,68.00,78.34,120.00,7.00,0.00,30.06,,6.21,,,,,,,,,,,,,,,,,75.20,SBMT 112300Z 12007KT CAVOK 24/20 Q1018,
SBMT,2024-02-12 00:00,75.20,68.00,78.34,150.00,4.00,0.00,30.09,,6.21,,,,,,,,,,,,,,,,,75.20,SBMT 120000Z 15004KT CAVOK 24/20 Q1019,
SBMT,2024-02-12 01:00,73.40,66.20,78.19,80.00,5.00,0.00,30.12,,6.21,,,,,,,,,,,,,,,,,73.40,SBMT 120100Z 08005KT CAVOK 23/19 Q1020,
SBMT,2024-02-12 02:00,73.40,66.20,78.19,110.00,6.00,0.00,30.15,,6.21,,,,,,,,,,,,,,,,,73.40,SBMT 120200Z 11006KT CAVOK 23/19 Q1021,
SBMT,2024-02-12 09:00,71.60,62.60,73.27,320.00,4.00,0.00,30.12,,6.21,,,,,,,,,,,,,,,,,71.60,SBMT 120900Z 32004KT CAVOK 22/17 Q1020,
SBMT,2024-02-12 10:00,73.40,66.20,78.19,250.00,2.00,0.00,30.15,,6.21,,,,,,,,,,,,,,,,,73.40,SBMT 121000Z 25002KT CAVOK 23/19 Q1021,
SBMT,2024-02-12 11:00,77.00,64.40,65.12,340.00,7.00,0.00,30.15,,6.21,,,,,,,,,,,,,,,,,77.00,SBMT 121100Z 34007KT CAVOK 25/18 Q1021,
SBMT,2024-02-12 12:00,80.60,64.40,57.84,330.00,8.00,0.00,30.15,,6.21,,FEW,,,,3000.00,,,,,,,,,,,82.27,SBMT 121200Z 33008KT 9999 FEW030 27/18 Q1021,
SBMT,2024-02-12 13:00,80.60,64.40,57.84,300.00,12.00,0.00,30.15,,6.21,,SCT,,,,3000.00,,,,,,,,,,,82.27,SBMT 121300Z 30012KT 9999 SCT030 27/18 Q1021,
SBMT,2024-02-12 14:00,82.40,62.60,51.21,310.00,10.00,0.00,30.15,,6.21,,SCT,,,,3000.00,,,,,,,,,,,83.41,SBMT 121400Z 31010KT 9999 SCT030 28/17 Q1021,
SBMT,2024-02-12 15:00,82.40,62.60,51.21,310.00,8.00,0.00,30.12,,6.21,21.00,SCT,,,,4000.00,,,,,,,,,,,83.41,SBMT 121500Z 31008G21KT 9999 SCT040 28/17 Q1020,
SBMT,2024-02-12 16:00,86.00,64.40,48.58,310.00,9.00,0.00,30.12,,6.21,,SCT,,,,4000.00,,,,,,,,,,,87.49,SBMT 121600Z 31009KT 9999 SCT040 30/18 Q1020,
SBMT,2024-02-12 17:00,87.80,66.20,48.84,290.00,11.00,0.00,30.09,,6.21,,SCT,,,,4000.00,,,,,,,,,,,90.31,SBMT 121700Z 29011KT 250V350 9999 SCT040 31/19 Q1019,
SBMT,2024-02-12 18:00,87.80,64.40,45.88,320.00,8.00,0.00,30.06,,6.21,,SCT,,,,4000.00,,,,,,,,,,,89.33,SBMT 121800Z 32008KT 9999 SCT040 31/18 Q1018,
SBMT,2024-02-12 19:00,86.00,64.40,48.58,320.00,8.00,0.00,30.03,,6.21,,SCT,,,,4000.00,,,,,,,,,,,87.49,SBMT 121900Z 32008KT 250V360 9999 SCT040 30/18 Q1017,
SBMT,2024-02-12 20:00,87.80,66.20,48.84,280.00,10.00,0.00,30.03,,6.21,,SCT,,,,4000.00,,,,,,,,,,,90.31,SBMT 122000Z 28010KT 250V320 9999 SCT040 31/19 Q1017,
SBMT,2024-02-12 21:00,86.00,64.40,48.58,290.00,9.00,0.00,30.03,,6.21,,SCT,,,,4000.00,,,,,,,,,,,87.49,SBMT 122100Z 29009KT 9999 SCT040 30/18 Q1017,
SBMT,2024-02-12 22:00,84.20,64.40,51.47,360.00,5.00,0.00,30.06,,6.21,,FEW,,,,4000.00,,,,,,,,,,,85.71,SBMT 122200Z 36005KT 9999 FEW040 29/18 Q1018,
SBMT,2024-02-12 23:00,80.60,66.20,61.58,10.00,6.00,0.00,30.06,,6.21,,,,,,,,,,,,,,,,,82.75,SBMT 122300Z 01006KT CAVOK 27/19 Q1018,
SBMT,2024-02-13 00:00,78.80,64.40,61.36,30.00,2.00,0.00,30.09,,6.21,,,,,,,,,,,,,,,,,78.80,SBMT 130000Z 03002KT CAVOK 26/18 Q1019,
SBMT,2024-02-13 01:00,75.20,64.40,69.14,80.00,7.00,0.00,30.12,,6.21,,,,,,,,,,,,,,,,,75.20,SBMT 130100Z 08007KT CAVOK 24/18 Q1020,
SBMT,2024-02-13 02:00,75.20,64.40,69.14,90.00,6.00,0.00,30.12,,6.21,,,,,,,,,,,,,,,,,75.20,SBMT 130200Z 09006KT CAVOK 24/18 Q1020,
SBMT,2024-02-13 09:00,75.20,66.20,73.61,320.00,4.00,0.00,30.09,,6.21,,,,,,,,,,,,,,,,,75.20,SBMT 130900Z 32004KT 260V060 CAVOK 24/19 Q1019,
SBMT,2024-02-13 10:00,75.20,66.20,73.61,330.00,3.00,0.00,30.12,,6.21,,,,,,,,,,,,,,,,,75.20,SBMT 131000Z 33003KT 250V040 CAVOK 24/19 Q1020,
SBMT,2024-02-13 11:00,77.00,66.20,69.33,270.00,5.00,0.00,30.12,,6.21,,,,,,,,,,,,,,,,,77.00,SBMT 131100Z 27005KT 230V310 CAVOK 25/19 Q1020,
SBMT,2024-02-13 12:00,80.60,64.40,57.84,,6.00,0.00,30.12,,6.21,,,,,,,,,,,,,,,,,82.27,SBMT 131200Z VRB06KT CAVOK 27/18 Q1020,
SBMT,2024-02-13 13:00,82.40,68.00,61.81,,9.00,0.00,30.12,,6.21,19.00,,,,,,,,,,,,,,,,85.38,SBMT 131300Z VRB09G19KT CAVOK 28/20 Q1020,
SBMT,2024-02-13 14:00,86.00,68.00,55.04,310.00,9.00,0.00,30.12,,6.21,,FEW,,,,4000.00,,,,,,,,,,,89.41,SBMT 131400Z 31009KT 270V340 9999 FEW040 30/20 Q1020,
SBMT,2024-02-13 15:00,87.80,68.00,51.98,300.00,12.00,0.00,30.09,,6.21,,,,,,,,,,,,,,,,,91.43,SBMT 131500Z 30012KT 250V340 CAVOK 31/20 Q1019,
SBMT,2024-02-13 16:00,87.80,66.20,48.84,,7.00,0.00,30.09,,6.21,,,,,,,,,,,,,,,,,90.31,SBMT 131600Z VRB07KT CAVOK 31/19 Q1019,
SBMT,2024-02-13 17:00,87.80,68.00,51.98,280.00,10.00,0.00,30.06,,6.21,,SCT,,,,4000.00,,,,,,,,,,,91.43,SBMT 131700Z 28010KT 9999 SCT040 31/20 Q1018,
SBMT,2024-02-13 18:00,89.60,68.00,49.10,260.00,12.00,0.00,30.03,,6.21,,SCT,,,,4000.00,,,,,,,,,,,93.47,SBMT 131800Z 26012KT 230V290 9999 SCT040 32/20 Q1017,
SBMT,2024-02-13 19:00,87.80,66.20,48.84,300.00,8.00,0.00,30.00,,6.21,,SCT,,,,4000.00,,,,,,,,,,,90.31,SBMT 131900Z 30008KT 9999 SCT040 31/19 Q1016,
SBMT,2024-02-13 20:00,89.60,66.20,46.14,320.00,7.00,0.00,30.00,,6.21,,SCT,,,,4000.00,,,,,,,,,,,92.27,SBMT 132000Z 32007KT 9999 SCT040 32/19 Q1016,
SBMT,2024-02-13 21:00,87.80,64.40,45.88,290.00,6.00,0.00,29.97,,6.21,,SCT,,,,4000.00,,,,,,,,,,,89.33,SBMT 132100Z 29006KT 250V340 9999 SCT040 31/18 Q1015,
SBMT,2024-02-13 22:00,86.00,66.20,51.72,330.00,3.00,0.00,30.00,,6.21,,SCT,,,,4000.00,,,,,,,,,,,88.39,SBMT 132200Z 33003KT 9999 SCT040 30/19 Q1016,
SBMT,2024-02-13 23:00,84.20,66.20,54.80,340.00,7.00,0.00,30.03,,6.21,,,,,,,,,,,,,,,,,86.50,SBMT 132300Z 34007KT CAVOK 29/19 Q1017,
SBMT,2024-02-14 00:00,75.20,66.20,73.61,60.00,11.00,0.00,30.06,,6.21,,FEW,,,,4000.00,,,,,,,,,,,75.20,SBMT 140000Z 06011KT 030V110 9999 FEW040 24/19 Q1018,
SBMT,2024-02-14 01:00,77.00,66.20,69.33,70.00,8.00,0.00,30.09,,6.21,,SCT,,,,4000.00,,,,,,,,,,,77.00,SBMT 140100Z 07008KT 9999 SCT040 25/19 Q1019,
SBMT,2024-02-14 01:05,75.20,66.20,73.61,120.00,5.00,0.00,30.12,,2.49,,BKN,,,,4000.00,,,,RA,,,,,,,75.20,SBMT 140105Z 12005KT 4000 RA BKN040 24/19 Q1020,
SBMT,2024-02-14 02:00,69.80,68.00,94.01,110.00,10.00,0.00,30.15,,1.86,,BKN,///,,,4000.00,,,,+TSRA,,,,,,,69.80,SBMT 140200Z 11010KT 3000 +TSRA BKN040 //////CB 21/20 Q1021 RERA,
SBMT,2024-02-14 09:00,69.80,68.00,94.01,260.00,4.00,0.00,30.03,,6.21,,FEW,,,,4000.00,,,,,,,,,,,69.80,SBMT 140900Z 26004KT 9999 FEW040 21/20 Q1017,
SBMT,2024-02-14 10:00,69.80,66.20,88.34,300.00,6.00,0.00,30.06,,6.21,,,,,,,,,,,,,,,,,69.80,SBMT 141000Z 30006KT CAVOK 21/19 Q1018,
SBMT,2024-02-14 11:00,75.20,66.20,73.61,300.00,5.00,0.00,30.06,,6.21,,SCT,,,,3000.00,,,,,,,,,,,75.20,SBMT 141100Z 30005KT 9999 SCT030 24/19 Q1018,
SBMT,2024-02-14 12:00,73.40,66.20,78.19,280.00,7.00,0.00,30.09,,6.21,,SCT,,,,3000.00,,,,,,,,,,,73.40,SBMT 141200Z 28007KT 9999 SCT030 23/19 Q1019,
SBMT,2024-02-14 13:00,77.00,68.00,73.78,270.00,10.00,0.00,30.09,,6.21,,SCT,,,,3000.00,,,,,,,,,,,77.00,SBMT 141300Z 27010KT 9999 SCT030 25/20 Q1019,
SBMT,2024-02-14 14:00,77.00,68.00,73.78,270.00,6.00,0.00,30.09,,6.21,,BKN,,,,2300.00,,,,,,,,,,,77.00,SBMT 141400Z 27006KT 9999 BKN023 25/20 Q1019,
SBMT,2024-02-14 15:00,75.20,69.80,83.32,280.00,4.00,0.00,30.09,,6.21,,FEW,SCT,BKN,,900.00,2600.00,4900.00,,,,,,,,,75.20,SBMT 141500Z 28004KT 9999 FEW009 SCT026 BKN049 24/21 Q1019,
SBMT,2024-02-14 16:00,75.20,71.60,88.59,260.00,6.00,0.00,30.09,,4.97,,FEW,SCT,BKN,,1300.00,3000.00,4900.00,,-DZ,,,,,,,75.20,SBMT 141600Z 26006KT 8000 -DZ FEW013 SCT030 BKN049 24/22 Q1019,
SBMT,2024-02-14 17:00,75.20,71.60,88.59,280.00,5.00,0.00,30.06,,4.35,,SCT,BKN,BKN,,900.00,1100.00,6000.00,,-RA,,,,,,,75.20,SBMT 141700Z 28005KT 250V310 7000 -RA SCT009 BKN011 BKN060 24/22 Q1018,
SBMT,2024-02-14 18:00,75.20,71.60,88.59,280.00,6.00,0.00,30.03,,4.97,,SCT,BKN,BKN,,1300.00,1600.00,6000.00,,,,,,,,,75.20,SBMT 141800Z 28006KT 8000 SCT013 BKN016 BKN060 24/22 Q1017,
SBMT,2024-02-14 19:00,77.00,69.80,78.48,260.00,7.00,0.00,30.03,,4.35,,SCT,BKN,BKN,,2000.00,2500.00,6000.00,,,,,,,,,77.00,SBMT 141900Z 26007KT 230V300 7000 SCT020 BKN025 BKN060 25/21 Q1017,
SBMT,2024-02-14 20:00,75.20,69.80,83.32,280.00,7.00,0.00,30.03,,5.59,,SCT,BKN,BKN,,2000.00,2500.00,6000.00,,,,,,,,,75.20,SBMT 142000Z 28007KT 250V320 9000 SCT020 BKN025 BKN060 24/21 Q1017,
SBMT,2024-02-14 21:00,73.40,69.80,88.51,280.00,5.00,0.00,30.03,,4.35,,SCT,SCT,BKN,,1500.00,2000.00,2500.00,,-RA,,,,,,,73.40,SBMT 142100Z 28005KT 7000 -RA SCT015 SCT020 BKN025 23/21 Q1017,
SBMT,2024-02-14 21:08,71.60,69.80,94.06,270.00,6.00,0.00,30.03,,1.18,,BKN,BKN,,,1300.00,2000.00,,,-RA,,,,,,,71.60,SBMT 142108Z 27006KT 1900 -RA BKN013 BKN020 22/21 Q1017,
SBMT,2024-02-14 22:00,71.60,68.00,88.43,250.00,7.00,0.00,30.06,,5.59,,SCT,BKN,,,1500.00,2500.00,,,,,,,,,,71.60,SBMT 142200Z 25007KT 210V280 9000 SCT015 BKN025 22/20 Q1018,
SBMT,2024-02-14 23:00,69.80,66.20,88.34,270.00,8.00,0.00,30.06,,6.21,,FEW,SCT,BKN,,1300.00,1500.00,2000.00,,,,,,,,,69.80,SBMT 142300Z 27008KT 240V300 9999 FEW013 SCT015 BKN020 21/19 Q1018,
SBMT,2024-02-15 00:00,68.00,66.20,93.97,260.00,7.00,0.00,30.09,,1.86,,BKN,BKN,,,1300.00,1500.00,,,BR,,,,,,,68.00,SBMT 150000Z 26007KT 210V290 3000 BR BKN013 BKN015 20/19 Q1019,
SBMT,2024-02-15 01:00,68.00,68.00,100.00,270.00,7.00,0.00,30.09,,1.86,,BKN,BKN,,,700.00,900.00,,,-RA,,,,,,,68.00,SBMT 150100Z 27007KT 230V300 3000 -RA BKN007 BKN009 20/20 Q1019,
SBMT,2024-02-15 02:00,68.00,68.00,100.00,190.00,5.00,0.00,30.09,,1.86,,BKN,BKN,,,700.00,900.00,,,-RA,,,,,,,68.00,SBMT 150200Z 19005KT 130V250 3000 -RA BKN007 BKN009 20/20 Q1019,
SBMT,2024-02-15 09:00,68.00,66.20,93.97,140.00,4.00,0.00,30.06,,4.35,,BKN,OVC,,,900.00,1700.00,,,-DZ,,,,,,,68.00,SBMT 150900Z 14004KT 7000 -DZ BKN009 OVC017 20/19 Q1018,
SBMT,2024-02-15 10:00,68.00,66.20,93.97,160.00,5.00,0.00,30.06,,6.21,,BKN,OVC,,,900.00,2400.00,,,,,,,,,,68.00,SBMT 151000Z 16005KT 9999 BKN009 OVC024 20/19 Q1018,
SBMT,2024-02-15 11:00,68.00,66.20,93.97,160.00,6.00,0.00,30.09,,4.97,,BKN,OVC,,,1200.00,2600.00,,,-DZ,,,,,,,68.00,SBMT 151100Z 16006KT 8000 -DZ BKN012 OVC026 20/19 Q1019,
SBMT,2024-02-15 12:00,68.00,66.20,93.97,160.00,6.00,0.00,30.12,,5.59,,BKN,OVC,,,1300.00,2300.00,,,-DZ,,,,,,,68.00,SBMT 151200Z 16006KT 9000 -DZ BKN013 OVC023 20/19 Q1020,
SBMT,2024-02-15 13:00,69.80,66.20,88.34,170.00,6.00,0.00,30.12,,6.21,,BKN,OVC,,,1200.00,2000.00,,,,,,,,,,69.80,SBMT 151300Z 17006KT 9999 BKN012 OVC020 21/19 Q1020,
SBMT,2024-02-15 14:00,71.60,66.20,83.09,170.00,7.00,0.00,30.12,,6.21,,BKN,OVC,,,1400.00,2300.00,,,,,,,,,,71.60,SBMT 151400Z 17007KT 9999 BKN014 OVC023 22/19 Q1020,
SBMT,2024-02-15 15:00,73.40,66.20,78.19,170.00,8.00,0.00,30.12,,6.21,,BKN,BKN,,,1900.00,2500.00,,,,,,,,,,73.40,SBMT 151500Z 17008KT 9999 BKN019 BKN025 23/19 Q1020,
SBMT,2024-02-15 16:00,69.80,66.20,88.34,170.00,7.00,0.00,30.09,,6.21,,FEW,BKN,BKN,,1200.00,2000.00,3300.00,,,,,,,,,69.80,SBMT 151600Z 17007KT 9999 FEW012 BKN020 BKN033 21/19 Q1019,
SBMT,2024-02-15 17:00,71.60,66.20,83.09,150.00,6.00,0.00,30.09,,6.21,,BKN,BKN,,,1900.00,2600.00,,,,,,,,,,71.60,SBMT 151700Z 15006KT 9999 BKN019 BKN026 22/19 Q1019,
SBMT,2024-02-15 18:00,68.00,66.20,93.97,170.00,7.00,0.00,30.09,,4.35,,BKN,BKN,BKN,,900.00,1300.00,2300.00,,,,,,,,,68.00,SBMT 151800Z 17007KT 7000 BKN009 BKN013 BKN023 20/19 Q1019 REDZ,
SBMT,2024-02-15 19:00,69.80,66.20,88.34,160.00,4.00,0.00,30.09,,4.35,,BKN,BKN,BKN,,900.00,1300.00,2300.00,,,,,,,,,69.80,SBMT 151900Z 16004KT 7000 BKN009 BKN013 BKN023 21/19 Q1019,
SBMT,2024-02-15 20:00,69.80,64.40,82.98,170.00,8.00,0.00,30.06,,6.21,,SCT,BKN,BKN,,1300.00,1500.00,2300.00,,,,,,,,,69.80,SBMT 152000Z 17008KT 9999 SCT013 BKN015 BKN023 21/18 Q1018,
SBMT,2024-02-15 21:00,68.00,64.40,88.26,160.00,5.00,0.00,30.09,,6.21,,SCT,BKN,BKN,,1100.00,1300.00,2300.00,,,,,,,,,68.00,SBMT 152100Z 16005KT 9999 SCT011 BKN013 BKN023 20/18 Q1019,
SBMT,2024-02-15 22:00,66.20,62.60,88.18,150.00,6.00,0.00,30.09,,6.21,,BKN,BKN,,,1500.00,1700.00,,,,,,,,,,66.20,SBMT 152200Z 15006KT 9999 BKN015 BKN017 19/17 Q1019,
SBMT,2024-02-15 23:00,66.20,60.80,82.74,140.00,5.00,0.00,30.09,,6.21,,SCT,BKN,BKN,,1000.00,1300.00,2600.00,,,,,,,,,66.20,SBMT 152300Z 14005KT 9999 SCT010 BKN013 BKN026 19/16 Q1019,
SBMT,2024-02-16 00:00,66.20,62.60,88.18,130.00,5.00,0.00,30.12,,6.21,,BKN,BKN,,,1300.00,1700.00,,,,,,,,,,66.20,SBMT 160000Z 13005KT 9999 BKN013 BKN017 19/17 Q1020,
SBMT,2024-02-16 01:00,66.20,62.60,88.18,110.00,5.00,0.00,30.12,,6.21,,BKN,BKN,,,1300.00,1700.00,,,,,,,,,,66.20,SBMT 160100Z 11005KT 9999 BKN013 BKN017 19/17 Q1020,
SBMT,2024-02-16 02:00,66.20,62.60,88.18,130.00,5.00,0.00,30.12,,1.24,,BKN,BKN,,,1100.00,1300.00,,,BR,,,,,,,66.20,SBMT 160200Z 13005KT 2000 BR BKN011 BKN013 19/17 Q1020,
SBMT,2024-02-16 09:00,66.20,60.80,82.74,130.00,3.00,0.00,30.06,,1.86,,BKN,BKN,,,1000.00,2000.00,,,BR,,,,,,,66.20,SBMT 160900Z 13003KT 3000 BR BKN010 BKN020 19/16 Q1018,
SBMT,2024-02-16 10:00,66.20,60.80,82.74,180.00,4.00,0.00,30.09,,2.49,,BKN,,,,1200.00,,,,BR,,,,,,,66.20,SBMT 161000Z 18004KT 4000 BR BKN012 19/16 Q1019,
SBMT,2024-02-16 11:00,68.00,62.60,82.86,120.00,4.00,0.00,30.09,,3.11,,BKN,,,,1500.00,,,,BR,,,,,,,68.00,SBMT 161100Z 12004KT 5000 BR BKN015 20/17 Q1019,
SBMT,2024-02-16 12:00,69.80,60.80,73.09,130.00,4.00,0.00,30.09,,3.11,,BKN,,,,1500.00,,,,HZ,,,,,,,69.80,SBMT 161200Z 13004KT 5000 HZ BKN015 21/16 Q1019,
SBMT,2024-02-16 13:00,69.80,60.80,73.09,140.00,4.00,0.00,30.09,,3.73,,BKN,,,,1700.00,,,,,,,,,,,69.80,SBMT 161300Z 14004KT 6000 BKN017 21/16 Q1019,
SBMT,2024-02-16 14:00,73.40,62.60,68.94,30.00,2.00,0.00,30.09,,4.35,,BKN,,,,2000.00,,,,,,,,,,,73.40,SBMT 161400Z 03002KT 7000 BKN020 23/17 Q1019,
SBMT,2024-02-16 15:00,75.20,62.60,64.91,70.00,2.00,0.00,30.06,,4.35,,BKN,,,,2500.00,,,,,,,,,,,75.20,SBMT 161500Z 07002KT 7000 BKN025 24/17 Q1018,
SBMT,2024-02-16 16:00,75.20,62.60,64.91,130.00,4.00,0.00,30.03,,4.97,,BKN,,,,2500.00,,,,,,,,,,,75.20,SBMT 161600Z 13004KT 8000 BKN025 24/17 Q1017,
SBMT,2024-02-16 17:00,77.00,64.40,65.12,140.00,5.00,0.00,30.00,,6.21,,BKN,,,,2900.00,,,,,,,,,,,77.00,SBMT 161700Z 14005KT 9999 BKN029 25/18 Q1016,
SBMT,2024-02-16 18:00,77.00,66.20,69.33,140.00,7.00,0.00,30.00,,6.21,,SCT,BKN,,,3000.00,3500.00,,,,,,,,,,77.00,SBMT 161800Z 14007KT 9999 SCT030 BKN035 25/19 Q1016,
SBMT,2024-02-16 19:00,77.00,64.40,65.12,140.00,8.00,0.00,30.00,,6.21,,BKN,,,,2900.00,,,,,,,,,,,77.00,SBMT 161900Z 14008KT 9999 BKN029 25/18 Q1016,
SBMT,2024-02-16 20:00,73.40,66.20,78.19,150.00,9.00,0.00,29.97,,6.21,,BKN,,,,2900.00,,,,,,,,,,,73.40,SBMT 162000Z 15009KT 9999 BKN029 23/19 Q1015,
SBMT,2024-02-16 21:00,69.80,64.40,82.98,140.00,9.00,0.00,30.00,,6.21,,FEW,BKN,,,1700.00,2000.00,,,,,,,,,,69.80,SBMT 162100Z 14009KT 9999 FEW017 BKN020 21/18 Q1016,
SBMT,2024-02-16 22:00,69.80,62.60,77.90,130.00,10.00,0.00,30.00,,6.21,,BKN,,,,1600.00,,,,,,,,,,,69.80,SBMT 162200Z 13010KT 9999 BKN016 21/17 Q1016,
SBMT,2024-02-16 23:00,68.00,62.60,82.86,130.00,10.00,0.00,30.00,,5.59,,OVC,,,,1500.00,,,,,,,,,,,68.00,SBMT 162300Z 13010KT 9000 OVC015 20/17 Q1016,
SBMT,2024-02-17 00:00,68.00,64.40,88.26,140.00,5.00,0.00,30.03,,6.21,,OVC,,,,1500.00,,,,,,,,,,,68.00,SBMT 170000Z 14005KT 9999 OVC015 20/18 Q1017,
SBMT,2024-02-17 01:00,68.00,62.60,82.86,160.00,4.00,0.00,30.06,,6.21,,OVC,,,,1400.00,,,,,,,,,,,68.00,SBMT 170100Z 16004KT 9999 OVC014 20/17 Q1018,
SBMT,2024-02-17 02:00,68.00,62.60,82.86,130.00,4.00,0.00,30.06,,6.21,,OVC,,,,1500.00,,,,,,,,,,,68.00,SBMT 170200Z 13004KT 9999 OVC015 20/17 Q1018,
SBMT,2024-02-17 09:00,64.40,60.80,88.09,80.00,5.00,0.00,30.00,,6.21,,FEW,,,,1300.00,,,,,,,,,,,64.40,SBMT 170900Z 08005KT 9999 FEW013 18/16 Q1016,
SBMT,2024-02-17 10:00,66.20,60.80,82.74,90.00,4.00,0.00,30.00,,6.21,,,,,,,,,,,,,,,,,66.20,SBMT 171000Z 09004KT CAVOK 19/16 Q1016,
SBMT,2024-02-17 11:00,68.00,62.60,82.86,100.00,6.00,0.00,30.03,,6.21,,FEW,BKN,,,1300.00,4000.00,,,,,,,,,,68.00,COR SBMT 171100Z 10006KT 9999 FEW013 BKN040 20/17 Q1017,
SBMT,2024-02-17 12:00,69.80,62.60,77.90,70.00,3.00,0.00,30.03,,6.21,,FEW,BKN,,,1300.00,4000.00,,,,,,,,,,69.80,SBMT 171200Z 07003KT 9999 FEW013 BKN040 21/17 Q1017,
SBMT,2024-02-17 13:00,73.40,64.40,73.44,110.00,3.00,0.00,30.03,,6.21,,,,,,,,,,,,,,,,,73.40,SBMT 171300Z 11003KT CAVOK 23/18 Q1017,
SBMT,2024-02-17 14:00,75.20,64.40,69.14,110.00,4.00,0.00,30.00,,6.21,,,,,,,,,,,,,,,,,75.20,SBMT 171400Z 11004KT CAVOK 24/18 Q1016,
SBMT,2024-02-17 15:00,77.00,64.40,65.12,10.00,3.00,0.00,30.00,,6.21,,,,,,,,,,,,,,,,,77.00,SBMT 171500Z 01003KT CAVOK 25/18 Q1016,
SBMT,2024-02-17 16:00,80.60,68.00,65.54,320.00,3.00,0.00,29.97,,6.21,,,,,,,,,,,,,,,,,83.29,SBMT 171600Z 32003KT CAVOK 27/20 Q1015,
SBMT,2024-02-17 17:00,80.60,62.60,54.30,130.00,3.00,0.00,29.94,,6.21,,SCT,,,,3500.00,,,,,,,,,,,81.84,SBMT 171700Z 13003KT 9999 SCT035 27/17 Q1014,
SBMT,2024-02-17 18:00,80.60,66.20,61.58,140.00,7.00,0.00,29.91,,6.21,,BKN,,,,3500.00,,,,,,,,,,,82.75,SBMT 171800Z 14007KT 9999 BKN035 27/19 Q1013,
SBMT,2024-02-17 19:00,80.60,64.40,57.84,180.00,8.00,0.00,29.91,,6.21,,SCT,SCT,,,3000.00,8000.00,,,,,,,,,,82.27,SBMT 171900Z 18008KT 9999 SCT030 SCT080 27/18 Q1013,
SBMT,2024-02-17 20:00,73.40,62.60,68.94,160.00,11.00,0.00,29.94,,4.97,,SCT,BKN,,,2000.00,8000.00,,,,,,,,,,73.40,SBMT 172000Z 16011KT 8000 SCT020 BKN080 23/17 Q1014,
SBMT,2024-02-17 21:00,71.60,62.60,73.27,140.00,8.00,0.00,29.97,,4.35,,BKN,,,,1700.00,,,,,,,,,,,71.60,SBMT 172100Z 14008KT 7000 BKN017 22/17 Q1015,
SBMT,2024-02-17 22:00,69.80,62.60,77.90,120.00,8.00,0.00,29.97,,4.35,,BKN,,,,1700.00,,,,,,,,,,,69.80,SBMT 172200Z 12008KT 7000 BKN017 21/17 Q1015,
SBMT,2024-02-17 23:00,71.60,62.60,73.27,130.00,9.00,0.00,29.97,,4.35,,BKN,,,,1700.00,,,,,,,,,,,71.60,SBMT 172300Z 13009KT 7000 BKN017 22/17 Q1015,
SBMT,2024-02-18 00:00,69.80,62.60,77.90,150.00,7.00,0.00,29.97,,4.35,,BKN,,,,1700.00,,,,,,,,,,,69.80,SBMT 180000Z 15007KT 7000 BKN017 21/17 Q1015,
SBMT,2024-02-18 01:00,69.80,62.60,77.90,130.00,7.00,0.00,30.00,,3.73,,BKN,,,,1700.00,,,,,,,,,,,69.80,SBMT 180100Z 13007KT 6000 BKN017 21/17 Q1016,
SBMT,2024-02-18 02:00,69.80,62.60,77.90,120.00,7.00,0.00,30.00,,6.21,,SCT,,,,2500.00,,,,,,,,,,,69.80,SBMT 180200Z 12007KT 9999 SCT025 21/17 Q1016,
SBMT,2024-02-18 09:00,68.00,64.40,88.26,70.00,3.00,0.00,29.94,,4.97,,FEW,BKN,,,1300.00,1500.00,,,,,,,,,,68.00,SBMT 180900Z 07003KT 040V100 8000 FEW013 BKN015 20/18 Q1014,
SBMT,2024-02-18 10:00,68.00,64.40,88.26,80.00,6.00,0.00,29.97,,5.59,,FEW,BKN,,,1100.00,1300.00,,,,,,,,,,68.00,SBMT 181000Z 08006KT 9000 FEW011 BKN013 20/18 Q1015,
SBMT,2024-02-18 11:00,69.80,66.20,88.34,110.00,5.00,0.00,29.97,,4.97,,FEW,BKN,,,1100.00,1300.00,,,,,,,,,,69.80,SBMT 181100Z 11005KT 8000 FEW011 BKN013 21/19 Q1015,
SBMT,2024-02-18 12:00,71.60,64.40,78.04,100.00,6.00,0.00,30.00,,4.97,,FEW,BKN,,,1100.00,1300.00,,,,,,,,,,71.60,SBMT 181200Z 10006KT 8000 FEW011 BKN013 22/18 Q1016,
SBMT,2024-02-18 13:00,71.60,66.20,83.09,90.00,4.00,0.00,30.00,,5.59,,BKN,BKN,,,1500.00,1700.00,,,,,,,,,,71.60,SBMT 181300Z 09004KT 050V130 9000 BKN015 BKN017 22/19 Q1016,
SBMT,2024-02-18 14:00,73.40,66.20,78.19,30.00,3.00,0.00,29.97,,4.97,,FEW,BKN,,,1700.00,2000.00,,,,,,,,,,73.40,SBMT 181400Z 03003KT 350V090 8000 FEW017 BKN020 23/19 Q1015,
SBMT,2024-02-18 15:00,75.20,69.80,83.32,,1.00,0.00,29.94,,6.21,,SCT,,,,2000.00,,,,,,,,,,,75.20,SBMT 181500Z VRB01KT 9999 SCT020 24/21 Q1014,
SBMT,2024-02-18 16:00,80.60,66.20,61.58,,4.00,0.00,29.91,,6.21,,SCT,,,,2000.00,,,,,,,,,,,82.75,SBMT 181600Z VRB04KT 9999 SCT020 27/19 Q1013,
SBMT,2024-02-18 17:00,82.40,68.00,61.81,,4.00,0.00,29.88,,6.21,,SCT,,,,3000.00,,,,,,,,,,,85.38,SBMT 181700Z VRB04KT 9999 SCT030 28/20 Q1012,
SBMT,2024-02-18 18:00,77.00,68.00,73.78,120.00,10.00,0.00,29.85,,1.86,,BKN,SCT,,,3000.00,4000.00,,,+TSRA,,,,,,,77.00,SBMT 181800Z 12010KT 3000 +TSRA BKN030 SCT040CB 25/20 Q1011,
SBMT,2024-02-18 19:00,66.20,64.40,93.92,110.00,13.00,0.00,29.94,,1.24,,SCT,BKN,BKN,FEW,700.00,900.00,1700.00,4000.00,TSRA BR,,,,,,,66.20,SBMT 181900Z 11013KT 2000 TSRA BR SCT007 BKN009 BKN017 FEW040CB 19/18 Q1014 RERA,
SBMT,2024-02-18 20:00,64.40,62.60,93.88,140.00,2.00,0.00,29.88,,6.21,,SCT,BKN,BKN,,1100.00,3000.00,6000.00,,,,,,,,,64.40,SBMT 182000Z 14002KT 9999 SCT011 BKN030 BKN060 18/17 Q1012 RETSRA,
SBMT,2024-02-18 21:00,66.20,64.40,93.92,240.00,5.00,0.00,29.85,,6.21,,,,,,,,,,,,,,,,,66.20,SBMT 182100Z 24005KT CAVOK 19/18 Q1011,
SBMT,2024-02-18 22:00,68.00,64.40,88.26,10.00,4.00,0.00,29.88,,6.21,,BKN,,,,1300.00,,,,,,,,,,,68.00,SBMT 182200Z 01004KT 9999 BKN013 20/18 Q1012,
SBMT,2024-02-18 23:00,66.20,64.40,93.92,10.00,3.00,0.00,29.91,,6.21,,SCT,SCT,,,1300.00,1500.00,,,,,,,,,,66.20,SBMT 182300Z 01003KT 9999 SCT013 SCT015 19/18 Q1013,
SBMT,2024-02-19 00:00,66.20,64.40,93.92,0.00,0.00,0.00,29.91,,6.21,,BKN,,,,1300.00,,,,,,,,,,,66.20,SBMT 190000Z 00000KT 9999 BKN013 19/18 Q1013,
SBMT,2024-02-19 01:00,64.40,62.60,93.88,280.00,3.00,0.00,29.94,,6.21,,,,,,,,,,,,,,,,,64.40,SBMT 190100Z 28003KT CAVOK 18/17 Q1014,
SBMT,2024-02-19 02:00,64.40,64.40,100.00,110.00,3.00,0.00,29.94,,6.21,,BKN,,,,1500.00,,,,,,,,,,,64.40,SBMT 190200Z 11003KT 9999 BKN015 18/18 Q1014,
SBMT,2024-02-19 09:00,62.60,62.60,100.00,0.00,0.00,0.00,29.88,,1.86,,NSC,,,,,,,,BR,,,,,,,62.60,SBMT 190900Z 00000KT 3000 BR NSC 17/17 Q1012,
SBMT,2024-02-19 10:00,66.20,66.20,100.00,10.00,2.00,0.00,29.88,,1.24,,NSC,,,,,,,,BR,,,,,,,66.20,SBMT 191000Z 01002KT 2000 BR NSC 19/19 Q1012,
SBMT,2024-02-19 11:00,69.80,66.20,88.34,120.00,3.00,0.00,29.91,,3.11,,SCT,,,,900.00,,,,BR,,,,,,,69.80,SBMT 191100Z 12003KT 5000 2000E BR SCT009 21/19 Q1013,
SBMT,2024-02-19 12:00,71.60,66.20,83.09,110.00,7.00,0.00,29.91,,4.97,,SCT,,,,1300.00,,,,,,,,,,,71.60,SBMT 191200Z 11007KT 8000 3000E SCT013 22/19 Q1013,
SBMT,2024-02-19 13:00,77.00,68.00,73.78,220.00,1.00,0.00,29.91,,6.21,,SCT,,,,2000.00,,,,,,,,,,,77.00,SBMT 191300Z 22001KT 9999 SCT020 25/20 Q1013,
SBMT,2024-02-19 14:00,77.00,66.20,69.33,30.00,2.00,0.00,29.88,,6.21,,SCT,,,,3000.00,,,,,,,,,,,77.00,SBMT 191400Z 03002KT 9999 SCT030 25/19 Q1012,
SBMT,2024-02-19 15:00,80.60,64.40,57.84,270.00,6.00,0.00,29.88,,6.21,,BKN,,,,4000.00,,,,,,,,,,,82.27,SBMT 191500Z 27006KT 9999 BKN040 27/18 Q1012,
SBMT,2024-02-19 16:00,80.60,64.40,57.84,290.00,4.00,0.00,29.85,,6.21,,BKN,,,,4000.00,,,,,,,,,,,82.27,SBMT 191600Z 29004KT 9999 BKN040 27/18 Q1011,
SBMT,2024-02-19 17:00,80.60,64.40,57.84,,4.00,0.00,29.83,,6.21,,BKN,FEW,,,4000.00,4500.00,,,,,,,,,,82.27,SBMT 191700Z VRB04KT 9999 BKN040 FEW045TCU 27/18 Q1010,
SBMT,2024-02-19 18:00,78.80,68.00,69.52,150.00,9.00,0.00,29.80,,6.21,,BKN,FEW,,,4000.00,4500.00,,,VCSH,,,,,,,78.80,SBMT 191800Z 15009KT 110V210 9999 VCSH BKN040 FEW045TCU 26/20 Q1009,
SBMT,2024-02-19 19:00,77.00,68.00,73.78,170.00,10.00,0.00,29.83,,6.21,,FEW,BKN,FEW,,2000.00,4000.00,4500.00,,VCSH,,,,,,,77.00,SBMT 191900Z 17010KT 120V210 9999 VCSH FEW020 BKN040 FEW045TCU 25/20 Q1010,
SBMT,2024-02-19 20:00,75.20,68.00,78.34,120.00,7.00,0.00,29.83,,6.21,,SCT,SCT,FEW,,2000.00,4000.00,4500.00,,,,,,,,,75.20,SBMT 192000Z 12007KT 9999 SCT020 SCT040 FEW045TCU 24/20 Q1010,
SBMT,2024-02-19 21:00,73.40,66.20,78.19,140.00,7.00,0.00,29.83,,6.21,,SCT,SCT,FEW,,2000.00,4000.00,4500.00,,,,,,,,,73.40,SBMT 192100Z 14007KT 090V180 9999 SCT020 SCT040 FEW045TCU 23/19 Q1010,
SBMT,2024-02-19 22:00,71.60,66.20,83.09,170.00,6.00,0.00,29.83,,6.21,,SCT,SCT,,,2000.00,4000.00,,,,,,,,,,71.60,SBMT 192200Z 17006KT 130V210 9999 SCT020 SCT040 22/19 Q1010,
SBMT,2024-02-19 23:00,71.60,66.20,83.09,120.00,6.00,0.00,29.85,,4.97,,FEW,BKN,,,1500.00,1700.00,,,,,,,,,,71.60,SBMT 192300Z 12006KT 090V150 8000 FEW015 BKN017 22/19 Q1011,
SBMT,2024-02-20 00:00,71.60,66.20,83.09,140.00,6.00,0.00,29.85,,4.97,,BKN,BKN,,,1700.00,2000.00,,,,,,,,,,71.60,SBMT 200000Z 14006KT 100V170 8000 BKN017 BKN020 22/19 Q1011,
SBMT,2024-02-20 01:00,71.60,64.40,78.04,110.00,7.00,0.00,29.88,,4.97,,BKN,BKN,,,1700.00,2000.00,,,,,,,,,,71.60,SBMT 200100Z 11007KT 8000 BKN017 BKN020 22/18 Q1012,
SBMT,2024-02-20 02:00,69.80,64.40,82.98,110.00,8.00,0.00,29.88,,5.59,,BKN,,,,2000.00,,,,,,,,,,,69.80,SBMT 200200Z 11008KT 9000 BKN020 21/18 Q1012,
SBMT,2024-02-20 09:00,69.80,66.20,88.34,100.00,4.00,0.00,29.83,,6.21,,FEW,OVC,,,900.00,1500.00,,,,,,,,,,69.80,SBMT 200900Z 10004KT 9999 FEW009 OVC015 21/19 Q1010,
SBMT,2024-02-20 10:00,69.80,68.00,94.01,110.00,6.00,0.00,29.83,,6.21,,SCT,OVC,,,1100.00,1600.00,,,,,,,,,,69.80,SBMT 201000Z 11006KT 9999 SCT011 OVC016 21/20 Q1010,
SBMT,2024-02-20 11:00,71.60,68.00,88.43,80.00,6.00,0.00,29.85,,6.21,,BKN,BKN,,,1300.00,1800.00,,,,,,,,,,71.60,SBMT 201100Z 08006KT 9999 BKN013 BKN018 22/20 Q1011,
SBMT,2024-02-20 12:00,73.40,68.00,83.21,80.00,6.00,0.00,29.85,,6.21,,BKN,BKN,,,1500.00,8000.00,,,,,,,,,,73.40,SBMT 201200Z 08006KT 9999 BKN015 BKN080 23/20 Q1011,
SBMT,2024-02-20 13:00,71.60,68.00,88.43,100.00,5.00,0.00,29.85,,6.21,,SCT,BKN,,,1900.00,5000.00,,,-RA,,,,,,,71.60,SBMT 201300Z 10005KT 9999 3500S -RA SCT019 BKN050 22/20 Q1011,
SBMT,2024-02-20 14:00,73.40,68.00,83.21,70.00,7.00,0.00,29.85,,6.21,,SCT,SCT,,,1800.00,5000.00,,,,,,,,,,73.40,SBMT 201400Z 07007KT 9999 SCT018 SCT050 23/20 Q1011,
SBMT,2024-02-20 15:00,78.80,68.00,69.52,70.00,4.00,0.00,29.83,,6.21,,SCT,SCT,,,2000.00,4000.00,,,,,,,,,,78.80,SBMT 201500Z 07004KT 9999 SCT020 SCT040 26/20 Q1010,
SBMT,2024-02-20 16:00,80.60,66.20,61.58,340.00,5.00,0.00,29.80,,6.21,,SCT,SCT,,,3000.00,5000.00,,,,,,,,,,82.75,SBMT 201600Z 34005KT 270V050 9999 SCT030 SCT050 27/19 Q1009,
SBMT,2024-02-20 17:00,75.20,68.00,78.34,200.00,8.00,0.00,29.80,,6.21,,SCT,BKN,,,2000.00,3600.00,,,,,,,,,,75.20,SBMT 201700Z 20008KT 9999 SCT020 BKN036 24/20 Q1009,
SBMT,2024-02-20 17:05,73.40,68.00,83.21,200.00,11.00,0.00,29.80,,1.24,,BKN,BKN,FEW,,2000.00,2300.00,4000.00,,-TSRA,,,,,,,73.40,COR SBMT 201705Z 20011KT 2000 -TSRA BKN020 BKN023 FEW040CB 23/20 Q1009,
SBMT,2024-02-20 18:00,69.80,68.00,94.01,150.00,7.00,0.00,29.80,,6.21,,BKN,BKN,,,1100.00,3300.00,,,,,,,,,,69.80,SBMT 201800Z 15007KT 9999 BKN011 BKN033 21/20 Q1009,
SBMT,2024-02-20 19:00,68.00,66.20,93.97,170.00,8.00,0.00,29.80,,1.24,,BKN,BKN,,,1100.00,3300.00,,,RA,,,,,,,68.00,SBMT 201900Z 17008KT 2000 RA BKN011 BKN033 20/19 Q1009,
SBMT,2024-02-20 20:00,69.80,66.20,88.34,140.00,7.00,0.00,29.80,,6.21,,SCT,BKN,BKN,,900.00,1100.00,1500.00,,,,,,,,,69.80,SBMT 202000Z 14007KT 9999 SCT009 BKN011 BKN015 21/19 Q1009,
SBMT,2024-02-20 21:00,68.00,66.20,93.97,150.00,5.00,0.00,29.83,,6.21,,BKN,BKN,,,1100.00,1300.00,,,,,,,,,,68.00,SBMT 202100Z 15005KT 9999 BKN011 BKN013 20/19 Q1010,
SBMT,2024-02-20 22:00,68.00,64.40,88.26,100.00,8.00,0.00,29.83,,6.21,,SCT,BKN,,,1100.00,1300.00,,,,,,,,,,68.00,SBMT 202200Z 10008KT 9999 SCT011 BKN013 20/18 Q1010,
SBMT,2024-02-20 23:00,68.00,64.40,88.26,130.00,7.00,0.00,29.85,,6.21,,BKN,BKN,,,900.00,2000.00,,,,,,,,,,68.00,SBMT 202300Z 13007KT 9999 BKN009 BKN020 20/18 Q1011,
SBMT,2024-02-21 00:00,68.00,64.40,88.26,150.00,3.00,0.00,29.88,,6.21,,BKN,,,,1300.00,,,,,,,,,,,68.00,SBMT 210000Z 15003KT 9999 BKN013 20/18 Q1012,
SBMT,2024-02-21 01:00,68.00,64.40,88.26,150.00,5.00,0.00,29.88,,6.21,,BKN,,,,1300.00,,,,,,,,,,,68.00,SBMT 210100Z 15005KT 9999 BKN013 20/18 Q1012,
SBMT,2024-02-21 02:00,68.00,64.40,88.26,130.00,5.00,0.00,29.91,,6.21,,BKN,,,,1300.00,,,,,,,,,,,68.00,COR SBMT 210200Z 13005KT 9999 BKN013 20/18 Q1013,
SBMT,2024-02-21 09:00,68.00,62.60,82.86,120.00,3.00,0.00,29.85,,3.73,,BKN,,,,1300.00,,,,,,,,,,,68.00,SBMT 210900Z 12003KT 6000 BKN013 20/17 Q1011,
SBMT,2024-02-21 10:00,68.00,62.60,82.86,150.00,4.00,0.00,29.85,,3.73,,BKN,,,,1300.00,,,,,,,,,,,68.00,SBMT 211000Z 15004KT 6000 BKN013 20/17 Q1011,
SBMT,2024-02-21 11:00,69.80,62.60,77.90,90.00,4.00,0.00,29.88,,4.35,,BKN,,,,1500.00,,,,,,,,,,,69.80,SBMT 211100Z 09004KT 7000 BKN015 21/17 Q1012,
SBMT,2024-02-21 12:00,71.60,64.40,78.04,70.00,2.00,0.00,29.88,,4.97,,BKN,,,,1500.00,,,,,,,,,,,71.60,SBMT 211200Z 07002KT 8000 BKN015 22/18 Q1012,
SBMT,2024-02-21 13:00,73.40,62.60,68.94,60.00,3.00,0.00,29.88,,6.21,,SCT,SCT,,,2000.00,4000.00,,,,,,,,,,73.40,SBMT 211300Z 06003KT 9999 SCT020 SCT040 23/17 Q1012,
SBMT,2024-02-21 14:00,77.00,66.20,69.33,140.00,4.00,0.00,29.88,,6.21,,BKN,SCT,,,2500.00,4000.00,,,,,,,,,,77.00,SBMT 211400Z 14004KT 9999 BKN025 SCT040 25/19 Q1012,
SBMT,2024-02-21 15:00,78.80,64.40,61.36,280.00,4.00,0.00,29.85,,3.11,,BKN,,,,3500.00,,,,HZ,,,,,,,78.80,SBMT 211500Z 28004KT 5000 HZ BKN035 26/18 Q1011,
SBMT,2024-02-21 16:00,82.40,64.40,54.55,210.00,4.00,0.00,29.83,,6.21,,SCT,,,,3500.00,,,,,,,,,,,83.98,SBMT 211600Z 21004KT 9999 SCT035 28/18 Q1010,
SBMT,2024-02-21 17:00,78.80,66.20,65.33,270.00,7.00,0.00,29.80,,6.21,,SCT,FEW,,,4000.00,,,,VCTS,,,,,,,78.80,SBMT 211700Z 27007KT 210V330 9999 VCTS SCT040 FEW///CB 26/19 Q1009,
SBMT,2024-02-21 18:00,73.40,68.00,83.21,170.00,10.00,0.00,29.80,,6.21,,FEW,SCT,FEW,,1700.00,3000.00,4000.00,,-TSRA,,,,,,,73.40,SBMT 211800Z 17010KT 9999 3000E -TSRA FEW017 SCT030 FEW040CB 23/20 Q1009,
SBMT,2024-02-21 19:00,71.60,69.80,94.06,140.00,6.00,0.00,29.83,,6.21,,SCT,SCT,,,2000.00,4200.00,,,,,,,,,,71.60,SBMT 211900Z 14006KT 9999 SCT020 SCT042 22/21 Q1010 RETSRA,
SBMT,2024-02-21 20:00,69.80,68.00,94.01,150.00,6.00,0.00,29.83,,6.21,,SCT,OVC,,,1100.00,2100.00,,,-RA,,,,,,,69.80,SBMT 212000Z 15006KT 9999 -RA SCT011 OVC021 21/20 Q1010,
SBMT,2024-02-21 21:00,69.80,68.00,94.01,120.00,5.00,0.00,29.83,,3.11,,BKN,OVC,,,800.00,1100.00,,,-RA,,,,,,,69.80,SBMT 212100Z 12005KT 5000 -RA BKN008 OVC011 21/20 Q1010 RETSRA,
SBMT,2024-02-21 22:00,69.80,68.00,94.01,90.00,7.00,0.00,29.85,,4.35,,BKN,BKN,,,1000.00,1600.00,,,-RA,,,,,,,69.80,SBMT 212200Z 09007KT 7000 -RA BKN010 BKN016 21/20 Q1011,
SBMT,2024-02-21 23:00,68.00,66.20,93.97,90.00,6.00,0.00,29.88,,6.21,,SCT,,,,1200.00,,,,,,,,,,,68.00,SBMT 212300Z 09006KT 9999 SCT012 20/19 Q1012,
SBMT,2024-02-22 00:00,68.00,68.00,100.00,80.00,6.00,0.00,29.91,,4.35,,BKN,OVC,,,1000.00,7000.00,,,-RA,,,,,,,68.00,SBMT 220000Z 08006KT 7000 -RA BKN010 OVC070 20/20 Q1013,
SBMT,2024-02-22 01:00,68.00,68.00,100.00,100.00,6.00,0.00,29.91,,5.59,,BKN,BKN,,,900.00,8000.00,,,-RA,,,,,,,68.00,SBMT 220100Z 10006KT 9000 -RA BKN009 BKN080 20/20 Q1013,
SBMT,2024-02-22 02:00,69.80,68.00,94.01,90.00,6.00,0.00,29.91,,5.59,,BKN,,,,800.00,,,,-RA,,,,,,,69.80,SBMT 220200Z 09006KT 9000 -RA BKN008 21/20 Q1013,
SBMT,2024-02-22 09:00,68.00,64.40,88.26,90.00,5.00,0.00,29.88,,3.11,,BKN,,,,800.00,,,,BR,,,,,,,68.00,SBMT 220900Z 09005KT 5000 BR BKN008 20/18 Q1012,
SBMT,2024-02-22 10:00,68.00,64.40,88.26,80.00,6.00,0.00,29.88,,3.11,,BKN,,,,800.00,,,,BR,,,,,,,68.00,SBMT 221000Z 08006KT 5000 BR BKN008 20/18 Q1012,
SBMT,2024-02-22 11:00,69.80,64.40,82.98,60.00,4.00,0.00,29.91,,4.97,,SCT,,,,1000.00,,,,,,,,,,,69.80,SBMT 221100Z 06004KT 8000 SCT010 21/18 Q1013,
SBMT,2024-02-22 12:00,73.40,66.20,78.19,60.00,4.00,0.00,29.91,,6.21,,FEW,,,,1300.00,,,,,,,,,,,73.40,SBMT 221200Z 06004KT 9999 FEW013 23/19 Q1013,
SBMT,2024-02-22 13:00,77.00,66.20,69.33,80.00,3.00,0.00,29.94,,6.21,,FEW,,,,2500.00,,,,,,,,,,,77.00,SBMT 221300Z 08003KT 9999 FEW025 25/19 Q1014,
SBMT,2024-02-22 14:00,80.60,64.40,57.84,250.00,3.00,0.00,29.91,,6.21,,SCT,,,,2500.00,,,,,,,,,,,82.27,SBMT 221400Z 25003KT 9999 SCT025 27/18 Q1013,
SBMT,2024-02-22 15:00,82.40,64.40,54.55,310.00,6.00,0.00,29.91,,6.21,,SCT,,,,4000.00,,,,,,,,,,,83.98,SBMT 221500Z 31006KT 9999 SCT040 28/18 Q1013,
SBMT,2024-02-22 16:00,82.40,62.60,51.21,310.00,7.00,0.00,29.88,,6.21,,SCT,,,,4000.00,,,,,,,,,,,83.41,SBMT 221600Z 31007KT 9999 SCT040 28/17 Q1012,
SBMT,2024-02-22 17:00,84.20,64.40,51.47,320.00,7.00,0.00,29.85,,6.21,,SCT,,,,4000.00,,,,,,,,,,,85.71,SBMT 221700Z 32007KT 9999 SCT040 29/18 Q1011,
SBMT,2024-02-22 18:00,86.00,64.40,48.58,290.00,6.00,0.00,29.85,,6.21,,SCT,,,,4000.00,,,,,,,,,,,87.49,SBMT 221800Z 29006KT 9999 SCT040 30/18 Q1011,
SBMT,2024-02-22 19:00,86.00,66.20,51.72,270.00,5.00,0.00,29.83,,6.21,,SCT,,,,4000.00,,,,,,,,,,,88.39,SBMT 221900Z 27005KT 9999 SCT040 30/19 Q1010,
SBMT,2024-02-22 20:00,77.00,69.80,78.48,150.00,9.00,0.00,29.85,,6.21,,SCT,,,,4000.00,,,,,,,,,,,77.00,SBMT 222000Z 15009KT 9999 SCT040 25/21 Q1011,
SBMT,2024-02-22 21:00,75.20,68.00,78.34,140.00,9.00,0.00,29.88,,6.21,,SCT,BKN,,,1500.00,2000.00,,,,,,,,,,75.20,SBMT 222100Z 14009KT 110V180 9999 SCT015 BKN020 24/20 Q1012,
SBMT,2024-02-22 22:00,73.40,68.00,83.21,140.00,7.00,0.00,29.91,,4.35,,SCT,BKN,,,1500.00,2000.00,,,,,,,,,,73.40,SBMT 222200Z 14007KT 7000 SCT015 BKN020 23/20 Q1013,
SBMT,2024-02-22 23:00,73.40,68.00,83.21,130.00,6.00,0.00,29.94,,4.97,,SCT,BKN,,,1300.00,1500.00,,,,,,,,,,73.40,SBMT 222300Z 13006KT 8000 SCT013 BKN015 23/20 Q1014,
SBMT,2024-02-23 00:00,73.40,68.00,83.21,110.00,6.00,0.00,29.94,,6.21,,SCT,BKN,,,1300.00,1500.00,,,,,,,,,,73.40,SBMT 230000Z 11006KT 080V160 9999 SCT013 BKN015 23/20 Q1014,
SBMT,2024-02-23 01:00,73.40,66.20,78.19,70.00,8.00,0.00,29.97,,6.21,,FEW,SCT,,,1300.00,1500.00,,,,,,,,,,73.40,SBMT 230100Z 07008KT 9999 FEW013 SCT015 23/19 Q1015,
SBMT,2024-02-23 02:00,71.60,66.20,83.09,100.00,6.00,0.00,29.97,,6.21,,FEW,,,,1300.00,,,,,,,,,,,71.60,SBMT 230200Z 10006KT 9999 FEW013 22/19 Q1015,
SBMT,2024-02-23 09:00,69.80,66.20,88.34,210.00,2.00,0.00,30.00,,6.21,,,,,,,,,,,,,,,,,69.80,SBMT 230900Z 21002KT CAVOK 21/19 Q1016,
SBMT,2024-02-23 10:00,71.60,68.00,88.43,140.00,2.00,0.00,30.00,,6.21,,,,,,,,,,,,,,,,,71.60,SBMT 231000Z 14002KT CAVOK 22/20 Q1016,
SBMT,2024-02-23 11:00,75.20,68.00,78.34,110.00,2.00,0.00,30.03,,6.21,,,,,,,,,,,,,,,,,75.20,SBMT 231100Z 11002KT CAVOK 24/20 Q1017,
SBMT,2024-02-23 12:00,80.60,68.00,65.54,10.00,2.00,0.00,30.03,,6.21,,,,,,,,,,,,,,,,,83.29,SBMT 231200Z 01002KT CAVOK 27/20 Q1017,
SBMT,2024-02-23 13:00,82.40,68.00,61.81,350.00,4.00,0.00,30.03,,6.21,,SCT,,,,3000.00,,,,,,,,,,,85.38,SBMT 231300Z 35004KT 9999 SCT030 28/20 Q1017,
SBMT,2024-02-23 14:00,82.40,68.00,61.81,310.00,7.00,0.00,30.03,,6.21,,BKN,,,,3000.00,,,,,,,,,,,85.38,SBMT 231400Z 31007KT 9999 BKN030 28/20 Q1017,
SBMT,2024-02-23 15:00,86.00,69.80,58.55,330.00,7.00,0.00,30.03,,6.21,,BKN,,,,3000.00,,,,,,,,,,,90.58,SBMT 231500Z 33007KT 9999 BKN030 30/21 Q1017,
SBMT,2024-02-23 16:00,87.80,68.00,51.98,320.00,6.00,0.00,30.00,,6.21,,BKN,,,,4000.00,,,,,,,,,,,91.43,SBMT 231600Z 32006KT 9999 BKN040 31/20 Q1016,
SBMT,2024-02-23 17:00,87.80,69.80,55.29,270.00,8.00,0.00,29.97,,6.21,,BKN,,,,4000.00,,,,,,,,,,,92.71,SBMT 231700Z 27008KT 240V300 9999 BKN040 31/21 Q1015,
SBMT,2024-02-23 18:00,87.80,68.00,51.98,290.00,8.00,0.00,29.97,,6.21,,BKN,,,,4000.00,,,,,,,,,,,91.43,SBMT 231800Z 29008KT 9999 BKN040 31/20 Q1015,
SBMT,2024-02-23 19:00,87.80,68.00,51.98,280.00,7.00,0.00,29.94,,6.21,,BKN,,,,4000.00,,,,,,,,,,,91.43,SBMT 231900Z 28007KT 240V330 9999 BKN040 31/20 Q1014,
SBMT,2024-02-23 20:00,77.00,66.20,69.33,110.00,17.00,0.00,29.97,,5.59,,SCT,BKN,FEW,,2000.00,3000.00,4000.00,,TS,,,,,,,77.00,SBMT 232000Z 11017KT 070V140 9000 3000SE TS SCT020 BKN030 FEW040CB 25/19 Q1015,
SBMT,2024-02-23 21:00,77.00,64.40,65.12,130.00,9.00,0.00,30.00,,6.21,,BKN,FEW,,,3000.00,4000.00,,,,,,,,,,77.00,SBMT 232100Z 13009KT 100V170 9999 BKN030 FEW040TCU 25/18 Q1016 RETS,
SBMT,2024-02-23 22:00,73.40,68.00,83.21,80.00,6.00,0.00,30.03,,2.49,,SCT,BKN,FEW,,1500.00,3000.00,4000.00,,-TSRA,,,,,,,73.40,SBMT 232200Z 08006KT 020V180 4000 -TSRA SCT015 BKN030 FEW040CB 23/20 Q1017,
SBMT,2024-02-23 23:00,71.60,69.80,94.06,100.00,9.00,0.00,30.06,,4.35,,FEW,BKN,FEW,,1700.00,3000.00,4000.00,,-TSRA,,,,,,,71.60,SBMT 232300Z 10009KT 060V130 7000 -TSRA FEW017 BKN030 FEW040CB 22/21 Q1018,
SBMT,2024-02-24 00:00,71.60,68.00,88.43,120.00,5.00,0.00,30.09,,6.21,,FEW,BKN,FEW,,1700.00,3500.00,4000.00,,,,,,,,,71.60,SBMT 240000Z 12005KT 9999 FEW017 BKN035 FEW040TCU 22/20 Q1019 RETS,
SBMT,2024-02-24 01:00,71.60,68.00,88.43,60.00,5.00,0.00,30.12,,6.21,,SCT,FEW,,,3500.00,4000.00,,,,,,,,,,71.60,SBMT 240100Z 06005KT 9999 SCT035 FEW040TCU 22/20 Q1020,
SBMT,2024-02-24 02:00,73.40,68.00,83.21,60.00,5.00,0.00,30.09,,6.21,,,,,,,,,,,,,,,,,73.40,SBMT 240200Z 06005KT CAVOK 23/20 Q1019,
SBMT,2024-02-24 09:00,71.60,68.00,88.43,100.00,2.00,0.00,30.12,,6.21,,,,,,,,,,,,,,,,,71.60,SBMT 240900Z 10002KT CAVOK 22/20 Q1020,
SBMT,2024-02-24 10:00,73.40,69.80,88.51,0.00,0.00,0.00,30.12,,6.21,,,,,,,,,,,,,,,,,73.40,SBMT 241000Z 00000KT CAVOK 23/21 Q1020,
SBMT,2024-02-24 11:00,75.20,69.80,83.32,0.00,0.00,0.00,30.15,,6.21,,,,,,,,,,,,,,,,,75.20,SBMT 241100Z 00000KT CAVOK 24/21 Q1021,
SBMT,2024-02-24 13:00,80.60,69.80,69.71,300.00,6.00,0.00,30.15,,6.21,,SCT,,,,3000.00,,,,,,,,,,,83.90,SBMT 241300Z 30006KT 9999 SCT030 27/21 Q1021,
SBMT,2024-02-24 14:00,84.20,69.80,62.03,320.00,6.00,0.00,30.15,,6.21,,SCT,,,,3300.00,,,,,,,,,,,88.43,SBMT 241400Z 32006KT 9999 SCT033 29/21 Q1021,
SBMT,2024-02-24 15:00,82.40,69.80,65.74,260.00,5.00,0.00,30.12,,6.21,,BKN,,,,3600.00,,,,,,,,,,,86.22,SBMT 241500Z 26005KT 9999 BKN036 28/21 Q1020,
SBMT,2024-02-24 16:00,75.20,71.60,88.59,20.00,6.00,0.00,30.12,,4.97,,SCT,BKN,FEW,,2100.00,3000.00,4200.00,,-TSRA,,,,,,,75.20,SBMT 241600Z 02006KT 8000 -TSRA SCT021 BKN030 FEW042CB 24/22 Q1020,
SBMT,2024-02-24 17:00,75.20,69.80,83.32,260.00,3.00,0.00,30.12,,3.11,,SCT,BKN,FEW,,2000.00,3000.00,4000.00,,-TSRA,,,,,,,75.20,COR SBMT 241700Z 26003KT 180V350 5000 -TSRA SCT020 BKN030 FEW040CB 24/21 Q1020 RERA,
SBMT,2024-02-24 18:00,75.20,69.80,83.32,160.00,5.00,0.00,30.15,,6.21,,SCT,BKN,FEW,,2500.00,3500.00,4000.00,,VCSH,,,,,,,75.20,SBMT 241800Z 16005KT 120V220 9999 VCSH SCT025 BKN035 FEW040TCU 24/21 Q1021 RETS,
SBMT,2024-02-24 19:00,73.40,69.80,88.51,,2.00,0.00,30.12,,6.21,,SCT,BKN,FEW,,2500.00,3500.00,4000.00,,,,,,,,,73.40,SBMT 241900Z VRB02KT 9999 SCT025 BKN035 FEW040TCU 23/21 Q1020,
SBMT,2024-02-24 20:00,73.40,71.60,94.10,,2.00,0.00,30.15,,6.21,,SCT,BKN,FEW,,2500.00,3500.00,4000.00,,,,,,,,,73.40,SBMT 242000Z VRB02KT 9999 SCT025 BKN035 FEW040TCU 23/22 Q1021,
SBMT,2024-02-24 21:00,73.40,71.60,94.10,,2.00,0.00,30.12,,6.21,,SCT,BKN,FEW,,1300.00,3000.00,4000.00,,,,,,,,,73.40,SBMT 242100Z VRB02KT 9999 SCT013 BKN030 FEW040TCU 23/22 Q1020,
SBMT,2024-02-24 22:00,71.60,71.60,100.00,0.00,0.00,0.00,30.15,,6.21,,SCT,BKN,FEW,,1300.00,3000.00,4000.00,,,,,,,,,71.60,SBMT 242200Z 00000KT 9999 SCT013 BKN030 FEW040TCU 22/22 Q1021,
SBMT,2024-02-24 23:00,73.40,69.80,88.51,70.00,4.00,0.00,30.15,,6.21,,SCT,SCT,,,1300.00,3000.00,,,,,,,,,,73.40,SBMT 242300Z 07004KT 9999 SCT013 SCT030 23/21 Q1021,
SBMT,2024-02-25 00:00,71.60,69.80,94.06,90.00,4.00,0.00,30.18,,6.21,,SCT,SCT,,,1300.00,3000.00,,,,,,,,,,71.60,SBMT 250000Z 09004KT 9999 SCT013 SCT030 22/21 Q1022,
SBMT,2024-02-25 01:00,71.60,69.80,94.06,110.00,4.00,0.00,30.18,,3.73,,SCT,SCT,,,1100.00,2000.00,,,,,,,,,,71.60,SBMT 250100Z 11004KT 6000 SCT011 SCT020 22/21 Q1022,
SBMT,2024-02-25 02:00,71.60,69.80,94.06,130.00,4.00,0.00,30.18,,6.21,,SCT,FEW,,,3500.00,4000.00,,,,,,,,,,71.60,SBMT 250200Z 13004KT 9999 SCT035 FEW040TCU 22/21 Q1022,
SBMT,2024-02-25 09:00,69.80,68.00,94.01,60.00,3.00,0.00,30.18,,1.86,,OVC,,,,800.00,,,,BR,,,,,,,69.80,SBMT 250900Z 06003KT 3000 BR OVC008 21/20 Q1022,
SBMT,2024-02-25 10:00,71.60,69.80,94.06,90.00,2.00,0.00,30.18,,2.17,,OVC,,,,900.00,,,,BR,,,,,,,71.60,SBMT 251000Z 09002KT 3500 BR OVC009 22/21 Q1022,
SBMT,2024-02-25 11:00,73.40,69.80,88.51,160.00,3.00,0.00,30.21,,2.61,,BKN,,,,1100.00,,,,BR,,,,,,,73.40,SBMT 251100Z 16003KT 4200 BR BKN011 23/21 Q1023,
SBMT,2024-02-25 12:00,75.20,71.60,88.59,90.00,5.00,0.00,30.24,,2.80,,BKN,,,,1400.00,,,,BR,,,,,,,75.20,SBMT 251200Z 09005KT 4500 BR BKN014 24/22 Q1024,
SBMT,2024-02-25 13:00,75.20,69.80,83.32,70.00,4.00,0.00,30.24,,3.11,,BKN,,,,1500.00,,,,BR,,,,,,,75.20,SBMT 251300Z 07004KT 5000 BR BKN015 24/21 Q1024,
SBMT,2024-02-25 14:00,78.80,69.80,73.95,140.00,4.00,0.00,30.24,,4.97,,BKN,,,,2000.00,,,,,,,,,,,78.80,SBMT 251400Z 14004KT 8000 BKN020 26/21 Q1024,
SBMT,2024-02-25 15:00,80.60,69.80,69.71,130.00,6.00,0.00,30.21,,6.21,,BKN,,,,2600.00,,,,,,,,,,,83.90,SBMT 251500Z 13006KT 9999 BKN026 27/21 Q1023,
SBMT,2024-02-25 16:00,84.20,69.80,62.03,50.00,4.00,0.00,30.18,,6.21,,SCT,,,,3300.00,,,,,,,,,,,88.43,SBMT 251600Z 05004KT 9999 SCT033 29/21 Q1022,
SBMT,2024-02-25 17:00,82.40,68.00,61.81,140.00,5.00,0.00,30.15,,6.21,,SCT,,,,3000.00,,,,,,,,,,,85.38,SBMT 251700Z 14005KT 9999 SCT030 28/20 Q1021,
SBMT,2024-02-25 18:00,82.40,69.80,65.74,140.00,9.00,0.00,30.15,,6.21,,SCT,,,,3000.00,,,,,,,,,,,86.22,SBMT 251800Z 14009KT 9999 SCT030 28/21 Q1021,
SBMT,2024-02-25 19:00,82.40,69.80,65.74,150.00,9.00,0.00,30.12,,6.21,,SCT,,,,3000.00,,,,,,,,,,,86.22,SBMT 251900Z 15009KT 9999 SCT030 28/21 Q1020,
SBMT,2024-02-25 20:00,78.80,68.00,69.52,150.00,11.00,0.00,30.12,,6.21,,SCT,,,,2500.00,,,,,,,,,,,78.80,SBMT 252000Z 15011KT 100V190 9999 SCT025 26/20 Q1020,
SBMT,2024-02-25 21:00,77.00,69.80,78.48,140.00,9.00,0.00,30.12,,6.21,,SCT,,,,2500.00,,,,,,,,,,,77.00,SBMT 252100Z 14009KT 9999 SCT025 25/21 Q1020,
SBMT,2024-02-25 22:00,75.20,69.80,83.32,140.00,9.00,0.00,30.15,,6.21,,SCT,BKN,,,2000.00,2500.00,,,,,,,,,,75.20,SBMT 252200Z 14009KT 9999 SCT020 BKN025 24/21 Q1021,
SBMT,2024-02-25 23:00,73.40,69.80,88.51,120.00,6.00,0.00,30.15,,6.21,,FEW,BKN,,,2000.00,2500.00,,,,,,,,,,73.40,SBMT 252300Z 12006KT 9999 FEW020 BKN025 23/21 Q1021,
SBMT,2024-02-26 00:00,73.40,68.00,83.21,110.00,8.00,0.00,30.15,,6.21,,SCT,BKN,,,1500.00,2000.00,,,,,,,,,,73.40,SBMT 260000Z 11008KT 9999 SCT015 BKN020 23/20 Q1021,
SBMT,2024-02-26 01:00,73.40,68.00,83.21,110.00,9.00,0.00,30.18,,6.21,,SCT,BKN,,,1500.00,2000.00,,,,,,,,,,73.40,SBMT 260100Z 11009KT 9999 SCT015 BKN020 23/20 Q1022,
SBMT,2024-02-26 02:00,73.40,68.00,83.21,130.00,9.00,0.00,30.18,,6.21,,SCT,BKN,,,1500.00,2000.00,,,,,,,,,,73.40,SBMT 260200Z 13009KT 9999 SCT015 BKN020 23/20 Q1022,
SBMT,2024-02-26 09:00,69.80,68.00,94.01,90.00,7.00,0.00,30.12,,6.21,,FEW,SCT,,,1100.00,1300.00,,,,,,,,,,69.80,SBMT 260900Z 09007KT 060V120 9999 FEW011 SCT013 21/20 Q1020,
SBMT,2024-02-26 10:00,71.60,68.00,88.43,100.00,5.00,0.00,30.15,,6.21,,,,,,,,,,,,,,,,,71.60,SBMT 261000Z 10005KT CAVOK 22/20 Q1021,
SBMT,2024-02-26 11:00,73.40,68.00,83.21,90.00,7.00,0.00,30.15,,6.21,,FEW,,,,2000.00,,,,,,,,,,,73.40,SBMT 261100Z 09007KT 9999 FEW020 23/20 Q1021,
SBMT,2024-02-26 12:00,75.20,68.00,78.34,110.00,10.00,0.00,30.18,,6.21,,SCT,BKN,,,1900.00,2500.00,,,,,,,,,,75.20,SBMT 261200Z 11010KT 9999 SCT019 BKN025 24/20 Q1022,
SBMT,2024-02-26 13:00,77.00,68.00,73.78,90.00,9.00,0.00,30.18,,6.21,,SCT,BKN,,,1900.00,2500.00,,,,,,,,,,77.00,SBMT 261300Z 09009KT 9999 SCT019 BKN025 25/20 Q1022,
SBMT,2024-02-26 14:00,80.60,68.00,65.54,80.00,8.00,0.00,30.18,,6.21,,BKN,,,,2500.00,,,,,,,,,,,83.29,SBMT 261400Z 08008KT 9999 BKN025 27/20 Q1022,
SBMT,2024-02-26 15:00,80.60,68.00,65.54,100.00,8.00,0.00,30.15,,6.21,,BKN,,,,3000.00,,,,,,,,,,,83.29,SBMT 261500Z 10008KT 050V160 9999 BKN030 27/20 Q1021,
SBMT,2024-02-26 16:00,80.60,69.80,69.71,150.00,7.00,0.00,30.12,,6.21,,BKN,,,,3000.00,,,,,,,,,,,83.90,SBMT 261600Z 15007KT 100V210 9999 BKN030 27/21 Q1020,
SBMT,2024-02-26 17:00,80.60,69.80,69.71,160.00,9.00,0.00,30.09,,6.21,,SCT,,,,2600.00,,,,,,,,,,,83.90,SBMT 261700Z 16009KT 9999 SCT026 27/21 Q1019,
SBMT,2024-02-26 18:00,78.80,69.80,73.95,160.00,10.00,0.00,30.09,,6.21,,SCT,,,,2500.00,,,,,,,,,,,78.80,SBMT 261800Z 16010KT 9999 SCT025 26/21 Q1019,
SBMT,2024-02-26 19:00,78.80,68.00,69.52,160.00,9.00,0.00,30.06,,6.21,,BKN,,,,2500.00,,,,,,,,,,,78.80,SBMT 261900Z 16009KT 9999 BKN025 26/20 Q1018,
SBMT,2024-02-26 20:00,77.00,69.80,78.48,140.00,9.00,0.00,30.06,,6.21,,BKN,,,,2200.00,,,,,,,,,,,77.00,SBMT 262000Z 14009KT 9999 BKN022 25/21 Q1018,
SBMT,2024-02-26 21:00,75.20,68.00,78.34,140.00,8.00,0.00,30.06,,6.21,,BKN,,,,1900.00,,,,,,,,,,,75.20,SBMT 262100Z 14008KT 9999 BKN019 24/20 Q1018,
SBMT,2024-02-26 22:00,75.20,68.00,78.34,140.00,6.00,0.00,30.06,,6.21,,OVC,,,,1800.00,,,,,,,,,,,75.20,SBMT 262200Z 14006KT 9999 OVC018 24/20 Q1018,
SBMT,2024-02-26 23:00,73.40,68.00,83.21,100.00,9.00,0.00,30.09,,6.21,,BKN,BKN,,,1600.00,2200.00,,,,,,,,,,73.40,SBMT 262300Z 10009KT 9999 BKN016 BKN022 23/20 Q1019,
SBMT,2024-02-27 00:00,73.40,68.00,83.21,110.00,8.00,0.00,30.09,,6.21,,SCT,BKN,,,1500.00,2100.00,,,,,,,,,,73.40,SBMT 270000Z 11008KT 9999 SCT015 BKN021 23/20 Q1019,
SBMT,2024-02-27 01:00,73.40,68.00,83.21,110.00,9.00,0.00,30.09,,6.21,,SCT,BKN,,,1600.00,2200.00,,,,,,,,,,73.40,SBMT 270100Z 11009KT 9999 SCT016 BKN022 23/20 Q1019,
SBMT,2024-02-27 02:00,73.40,68.00,83.21,110.00,8.00,0.00,30.09,,6.21,,SCT,BKN,,,1400.00,2200.00,,,,,,,,,,73.40,SBMT 270200Z 11008KT 9999 SCT014 BKN022 23/20 Q1019,
SBMT,2024-02-27 09:00,71.60,66.20,83.09,70.00,4.00,0.00,30.00,,3.11,,SCT,,,,1300.00,,,,BR,,,,,,,71.60,SBMT 270900Z 07004KT 5000 BR SCT013 22/19 Q1016,
SBMT,2024-02-27 10:00,73.40,66.20,78.19,60.00,4.00,0.00,30.00,,4.35,,FEW,,,,1300.00,,,,,,,,,,,73.40,SBMT 271000Z 06004KT 7000 FEW013 23/19 Q1016,
SBMT,2024-02-27 11:00,75.20,66.20,73.61,90.00,2.00,0.00,30.03,,6.21,,FEW,,,,1500.00,,,,,,,,,,,75.20,SBMT 271100Z 09002KT 9999 FEW015 24/19 Q1017,
SBMT,2024-02-27 12:00,78.80,66.20,65.33,30.00,3.00,0.00,30.03,,6.21,,,,,,,,,,,,,,,,,78.80,SBMT 271200Z 03003KT CAVOK 26/19 Q1017,
SBMT,2024-02-27 13:00,80.60,66.20,61.58,340.00,6.00,0.00,30.03,,6.21,,,,,,,,,,,,,,,,,82.75,SBMT 271300Z 34006KT CAVOK 27/19 Q1017,
SBMT,2024-02-27 14:00,84.20,66.20,54.80,290.00,9.00,0.00,30.03,,6.21,,SCT,,,,3000.00,,,,,,,,,,,86.50,SBMT 271400Z 29009KT 9999 SCT030 29/19 Q1017,
SBMT,2024-02-27 15:00,86.00,68.00,55.04,300.00,8.00,0.00,30.00,,6.21,,SCT,,,,3500.00,,,,,,,,,,,89.41,SBMT 271500Z 30008KT 9999 SCT035 30/20 Q1016,
SBMT,2024-02-27 16:00,87.80,68.00,51.98,290.00,10.00,0.00,29.97,,6.21,,SCT,,,,4000.00,,,,,,,,,,,91.43,SBMT 271600Z 29010KT 9999 SCT040 31/20 Q1015,
SBMT,2024-02-27 17:00,86.00,69.80,58.55,290.00,9.00,0.00,29.94,,6.21,,SCT,,,,4000.00,,,,,,,,,,,90.58,SBMT 271700Z 29009KT 250V360 9999 SCT040 30/21 Q1014,
SBMT,2024-02-27 18:00,87.80,68.00,51.98,290.00,10.00,0.00,29.91,,6.21,,SCT,,,,4000.00,,,,,,,,,,,91.43,SBMT 271800Z 29010KT 9999 SCT040 31/20 Q1013,
SBMT,2024-02-27 19:00,86.00,68.00,55.04,280.00,9.00,0.00,29.91,,6.21,,SCT,,,,4000.00,,,,,,,,,,,89.41,SBMT 271900Z 28009KT 9999 SCT040 30/20 Q1013,
SBMT,2024-02-27 20:00,86.00,68.00,55.04,310.00,6.00,0.00,29.88,,6.21,,SCT,,,,4000.00,,,,,,,,,,,89.41,SBMT 272000Z 31006KT 9999 SCT040 30/20 Q1012,
SBMT,2024-02-27 21:00,84.20,68.00,58.32,270.00,8.00,0.00,29.91,,6.21,,FEW,,,,4000.00,,,,,,,,,,,87.40,SBMT 272100Z 27008KT 9999 FEW040 29/20 Q1013,
SBMT,2024-02-27 22:00,82.40,68.00,61.81,280.00,6.00,0.00,29.94,,6.21,,FEW,,,,4000.00,,,,,,,,,,,85.38,SBMT 272200Z 28006KT 9999 FEW040 28/20 Q1014,
SBMT,2024-02-27 23:00,80.60,69.80,69.71,250.00,5.00,0.00,29.94,,6.21,,,,,,,,,,,,,,,,,83.90,SBMT 272300Z 25005KT CAVOK 27/21 Q1014,
SBMT,2024-02-28 00:00,78.80,69.80,73.95,260.00,4.00,0.00,29.97,,6.21,,,,,,,,,,,,,,,,,78.80,SBMT 280000Z 26004KT CAVOK 26/21 Q1015,
SBMT,2024-02-28 01:00,77.00,69.80,78.48,290.00,3.00,0.00,29.97,,6.21,,,,,,,,,,,,,,,,,77.00,SBMT 280100Z 29003KT CAVOK 25/21 Q1015,
SBMT,2024-02-28 02:00,77.00,69.80,78.48,350.00,3.00,0.00,29.97,,6.21,,,,,,,,,,,,,,,,,77.00,SBMT 280200Z 35003KT CAVOK 25/21 Q1015,
SBMT,2024-02-28 09:00,71.60,68.00,88.43,250.00,3.00,0.00,29.94,,6.21,,,,,,,,,,,,,,,,,71.60,SBMT 280900Z 25003KT CAVOK 22/20 Q1014,
SBMT,2024-02-28 10:00,73.40,69.80,88.51,250.00,2.00,0.00,29.97,,6.21,,,,,,,,,,,,,,,,,73.40,SBMT 281000Z 25002KT CAVOK 23/21 Q1015,
SBMT,2024-02-28 11:00,78.80,71.60,78.62,260.00,2.00,0.00,29.97,,6.21,,,,,,,,,,,,,,,,,78.80,SBMT 281100Z 26002KT CAVOK 26/22 Q1015,
SBMT,2024-02-28 12:00,82.40,73.40,74.28,320.00,4.00,0.00,30.00,,6.21,,,,,,,,,,,,,,,,,88.26,SBMT 281200Z 32004KT 250V010 CAVOK 28/23 Q1016,
SBMT,2024-02-28 13:00,84.20,71.60,65.95,300.00,6.00,0.00,30.00,,6.21,,SCT,,,,3000.00,,,,,,,,,,,89.60,SBMT 281300Z 30006KT 9999 SCT030 29/22 Q1016,
SBMT,2024-02-28 14:00,84.20,71.60,65.95,290.00,7.00,0.00,30.00,,6.21,,BKN,,,,3000.00,,,,,,,,,,,89.60,SBMT 281400Z 29007KT 230V360 9999 BKN030 29/22 Q1016,
SBMT,2024-02-28 15:00,86.00,71.60,62.25,280.00,11.00,0.00,29.97,,6.21,,BKN,,,,3000.00,,,,,,,,,,,91.92,SBMT 281500Z 28011KT 260V320 9999 BKN030 30/22 Q1015,
SBMT,2024-02-28 16:00,86.00,69.80,58.55,280.00,9.00,0.00,29.94,,6.21,,BKN,FEW,,,3000.00,3500.00,,,,,,,,,,90.58,SBMT 281600Z 28009KT 250V320 9999 BKN030 FEW035TCU 30/21 Q1014,
SBMT,2024-02-28 17:00,78.80,71.60,78.62,300.00,3.00,0.00,29.94,,6.21,,FEW,SCT,FEW,,900.00,2000.00,2500.00,,VCSH,,,,,,,78.80,SBMT 281700Z 30003KT 9999 VCSH FEW009 SCT020 FEW025TCU 26/22 Q1014,
SBMT,2024-02-28 18:00,87.80,71.60,58.78,260.00,2.00,0.00,29.94,,6.21,,FEW,BKN,FEW,,900.00,2000.00,2500.00,,,,,,,,,94.18,SBMT 281800Z 26002KT 9999 FEW009 BKN020 FEW025TCU 31/22 Q1014 RETS,
SBMT,2024-02-28 19:00,75.20,71.60,88.59,70.00,7.00,0.00,29.97,,6.21,,FEW,BKN,///,,900.00,2000.00,,,-TSRA,,,,,,,75.20,SBMT 281900Z 07007KT 9999 -TSRA FEW009 BKN020 //////CB 24/22 Q1015,
SBMT,2024-02-28 20:00,75.20,71.60,88.59,170.00,4.00,0.00,29.97,,6.21,,SCT,///,,,2000.00,,,,TS,,,,,,,75.20,SBMT 282000Z 17004KT 9999 TS SCT020 //////CB 24/22 Q1015,
SBMT,2024-02-28 21:00,75.20,73.40,94.14,30.00,3.00,0.00,29.94,,6.21,,FEW,SCT,///,,900.00,2000.00,,,TS,,,,,,,75.20,SBMT 282100Z 03003KT 9999 TS FEW009 SCT020 //////CB 24/23 Q1014,
SBMT,2024-02-28 22:00,75.20,71.60,88.59,140.00,4.00,0.00,29.97,,6.21,,FEW,SCT,,,900.00,1500.00,,,,,,,,,,75.20,SBMT 282200Z 14004KT 9999 FEW009 SCT015 24/22 Q1015 RETS,
SBMT,2024-02-28 23:00,75.20,71.60,88.59,120.00,5.00,0.00,30.00,,6.21,,FEW,BKN,,,900.00,1500.00,,,,,,,,,,75.20,SBMT 282300Z 12005KT 9999 FEW009 BKN015 24/22 Q1016,
SBMT,2024-02-29 00:00,73.40,71.60,94.10,110.00,5.00,0.00,30.00,,6.21,,FEW,BKN,,,900.00,1500.00,,,,,,,,,,73.40,SBMT 290000Z 11005KT 9999 FEW009 BKN015 23/22 Q1016,
SBMT,2024-02-29 01:00,73.40,69.80,88.51,70.00,4.00,0.00,30.03,,6.21,,BKN,,,,1500.00,,,,,,,,,,,73.40,SBMT 290100Z 07004KT 030V110 9999 BKN015 23/21 Q1017,
SBMT,2024-02-29 02:00,73.40,71.60,94.10,90.00,3.00,0.00,30.03,,6.21,,BKN,,,,1500.00,,,,,,,,,,,73.40,SBMT 290200Z 09003KT 9999 BKN015 23/22 Q1017,
SBMT,2024-02-29 09:00,71.60,69.80,94.06,0.00,0.00,0.00,30.00,,6.21,,SCT,,,,4900.00,,,,,,,,,,,71.60,SBMT 290900Z 00000KT 9999 SCT049 22/21 Q1016,
SBMT,2024-02-29 10:00,73.40,71.60,94.10,150.00,1.00,0.00,30.03,,6.21,,BKN,,,,1500.00,,,,,,,,,,,73.40,SBMT 291000Z 15001KT 9999 BKN015 23/22 Q1017,
SBMT,2024-02-29 11:00,75.20,69.80,83.32,130.00,5.00,0.00,30.06,,6.21,,SCT,BKN,,,1300.00,1500.00,,,,,,,,,,75.20,SBMT 291100Z 13005KT 9999 SCT013 BKN015 24/21 Q1018,
SBMT,2024-02-29 12:00,78.80,68.00,69.52,150.00,2.00,0.00,30.06,,6.21,,SCT,BKN,,,1100.00,3300.00,,,,,,,,,,78.80,SBMT 291200Z 15002KT 9999 SCT011 BKN033 26/20 Q1018,
SBMT,2024-02-29 13:00,77.00,68.00,73.78,190.00,4.00,0.00,30.06,,6.21,,BKN,,,,2600.00,,,,,,,,,,,77.00,SBMT 291300Z 19004KT 9999 BKN026 25/20 Q1018,
SBMT,2024-02-29 14:00,77.00,68.00,73.78,220.00,6.00,0.00,30.06,,6.21,,BKN,,,,3000.00,,,,,,,,,,,77.00,SBMT 291400Z 22006KT 9999 BKN030 25/20 Q1018,
SBMT,2024-02-29 15:00,82.40,69.80,65.74,30.00,2.00,0.00,30.03,,6.21,,,,,,,,,,,,,,,,,86.22,SBMT 291500Z 03002KT CAVOK 28/21 Q1017,
SBMT,2024-02-29 16:00,86.00,68.00,55.04,270.00,2.00,0.00,30.00,,6.21,,,,,,,,,,,,,,,,,89.41,SBMT 291600Z 27002KT CAVOK 30/20 Q1016,
SBMT,2024-02-29 17:00,87.80,66.20,48.84,250.00,4.00,0.00,29.97,,6.21,,BKN,,,,3000.00,,,,,,,,,,,90.31,SBMT 291700Z 25004KT 9999 BKN030 31/19 Q1015,
SBMT,2024-02-29 18:00,87.80,64.40,45.88,240.00,6.00,0.00,29.94,,6.21,,SCT,,,,3000.00,,,,,,,,,,,89.33,SBMT 291800Z 24006KT 190V280 9999 SCT030 31/18 Q1014,
SBMT,2024-02-29 19:00,87.80,66.20,48.84,220.00,6.00,0.00,29.94,,6.21,,SCT,,,,3000.00,,,,,,,,,,,90.31,SBMT 291900Z 22006KT 160V280 9999 SCT030 31/19 Q1014,
SBMT,2024-02-29 20:00,87.80,66.20,48.84,200.00,8.00,0.00,29.94,,6.21,,FEW,,,,3500.00,,,,,,,,,,,90.31,SBMT 292000Z 20008KT 160V230 9999 FEW035 31/19 Q1014,
SBMT,2024-02-29 21:00,78.80,71.60,78.62,170.00,8.00,0.00,29.94,,6.21,,,,,,,,,,,,,,,,,78.80,SBMT 292100Z 17008KT CAVOK 26/22 Q1014,
SBMT,2024-02-29 22:00,75.20,69.80,83.32,140.00,6.00,0.00,29.97,,6.21,,,,,,,,,,,,,,,,,75.20,SBMT 292200Z 14006KT 090V180 CAVOK 24/21 Q1015,
SBMT,2024-02-29 23:00,75.20,68.00,78.34,140.00,7.00,0.00,30.00,,6.21,,,,,,,,,,,,,,,,,75.20,SBMT 292300Z 14007KT CAVOK 24/20 Q1016,
SBMT,2024-03-01 00:00,75.20,68.00,78.34,170.00,5.00,0.00,30.03,,6.21,,BKN,,,,1800.00,,,,,,,,,,,75.20,SBMT 010000Z 17005KT 130V210 9999 BKN018 24/20 Q1017,
SBMT,2024-03-01 01:00,73.40,68.00,83.21,140.00,5.00,0.00,30.03,,6.21,,SCT,,,,1800.00,,,,,,,,,,,73.40,SBMT 010100Z 14005KT 9999 SCT018 23/20 Q1017,
SBMT,2024-03-01 02:00,73.40,68.00,83.21,140.00,5.00,0.00,30.03,,6.21,,SCT,,,,1800.00,,,,,,,,,,,73.40,SBMT 010200Z 14005KT 9999 SCT018 23/20 Q1017,
SBMT,2024-03-01 09:00,69.80,66.20,88.34,0.00,0.00,0.00,29.94,,6.21,,,,,,,,,,,,,,,,,69.80,SBMT 010900Z 00000KT CAVOK 21/19 Q1014,
SBMT,2024-03-01 10:00,71.60,66.20,83.09,290.00,4.00,0.00,29.97,,6.21,,,,,,,,,,,,,,,,,71.60,SBMT 011000Z 29004KT CAVOK 22/19 Q1015,
SBMT,2024-03-01 11:00,75.20,68.00,78.34,270.00,4.00,0.00,30.00,,6.21,,,,,,,,,,,,,,,,,75.20,SBMT 011100Z 27004KT CAVOK 24/20 Q1016,
SBMT,2024-03-01 12:00,78.80,68.00,69.52,250.00,6.00,0.00,30.00,,6.21,,SCT,,,,2000.00,,,,,,,,,,,78.80,SBMT 011200Z 25006KT 9999 SCT020 26/20 Q1016,
SBMT,2024-03-01 13:00,80.60,68.00,65.54,210.00,6.00,0.00,30.00,,6.21,,SCT,,,,2500.00,,,,,,,,,,,83.29,SBMT 011300Z 21006KT 9999 SCT025 27/20 Q1016,
SBMT,2024-03-01 14:00,80.60,66.20,61.58,210.00,8.00,0.00,30.00,,6.21,,BKN,,,,3000.00,,,,,,,,,,,82.75,SBMT 011400Z 21008KT 9999 BKN030 27/19 Q1016,
SBMT,2024-03-01 15:00,82.40,66.20,58.08,220.00,9.00,0.00,30.00,,6.21,,BKN,,,,3500.00,,,,,,,,,,,84.63,SBMT 011500Z 22009KT 9999 BKN035 28/19 Q1016,
SBMT,2024-03-01 16:00,82.40,64.40,54.55,200.00,9.00,0.00,30.00,,6.21,,BKN,,,,4000.00,,,,,,,,,,,83.98,SBMT 011600Z 20009KT 9999 BKN040 28/18 Q1016,
SBMT,2024-03-01 17:00,84.20,68.00,58.32,170.00,8.00,0.00,29.97,,6.21,,SCT,,,,4000.00,,,,,,,,,,,87.40,SBMT 011700Z 17008KT 130V210 9999 SCT040 29/20 Q1015,
SBMT,2024-03-01 18:00,84.20,66.20,54.80,190.00,11.00,0.00,29.94,,6.21,,SCT,,,,4500.00,,,,,,,,,,,86.50,SBMT 011800Z 19011KT 9999 SCT045 29/19 Q1014,
SBMT,2024-03-01 19:00,78.80,69.80,73.95,190.00,11.00,0.00,29.97,,6.21,23.00,SCT,,,,2300.00,,,,,,,,,,,78.80,SBMT 011900Z 19011G23KT 9999 SCT023 26/21 Q1015,
SBMT,2024-03-01 20:00,77.00,66.20,69.33,160.00,9.00,0.00,29.97,,6.21,,FEW,SCT,,,2000.00,7000.00,,,,,,,,,,77.00,SBMT 012000Z 16009KT 9999 FEW020 SCT070 25/19 Q1015,
SBMT,2024-03-01 21:00,73.40,64.40,73.44,180.00,10.00,0.00,30.00,,6.21,,BKN,,,,2500.00,,,,,,,,,,,73.40,SBMT 012100Z 18010KT 9999 BKN025 23/18 Q1016,
SBMT,2024-03-01 22:00,73.40,64.40,73.44,170.00,9.00,0.00,30.00,,6.21,,BKN,,,,2600.00,,,,,,,,,,,73.40,SBMT 012200Z 17009KT 9999 BKN026 23/18 Q1016,
SBMT,2024-03-01 23:00,71.60,66.20,83.09,130.00,10.00,0.00,30.03,,6.21,,FEW,BKN,,,1700.00,2500.00,,,,,,,,,,71.60,SBMT 012300Z 13010KT 9999 FEW017 BKN025 22/19 Q1017,
SBMT,2024-03-02 00:00,69.80,64.40,82.98,120.00,7.00,0.00,30.03,,6.21,,SCT,,,,1600.00,,,,,,,,,,,69.80,SBMT 020000Z 12007KT 9999 SCT016 21/18 Q1017,
SBMT,2024-03-02 01:00,69.80,62.60,77.90,130.00,7.00,0.00,30.06,,6.21,,FEW,,,,1700.00,,,,,,,,,,,69.80,SBMT 020100Z 13007KT 9999 FEW017 21/17 Q1018,
SBMT,2024-03-02 02:00,69.80,62.60,77.90,100.00,9.00,0.00,30.06,,6.21,,FEW,,,,2500.00,,,,,,,,,,,69.80,SBMT 020200Z 10009KT 9999 FEW025 21/17 Q1018,
SBMT,2024-03-02 09:00,68.00,60.80,77.75,120.00,8.00,0.00,30.00,,4.97,,BKN,,,,1500.00,,,,,,,,,,,68.00,SBMT 020900Z 12008KT 8000 BKN015 20/16 Q1016,
SBMT,2024-03-02 10:00,68.00,62.60,82.86,110.00,6.00,0.00,30.03,,4.97,,BKN,,,,1500.00,,,,,,,,,,,68.00,SBMT 021000Z 11006KT 8000 BKN015 20/17 Q1017,
SBMT,2024-03-02 11:00,69.80,60.80,73.09,100.00,7.00,0.00,30.06,,6.21,,BKN,,,,2000.00,,,,,,,,,,,69.80,SBMT 021100Z 10007KT 9999 BKN020 21/16 Q1018,
SBMT,2024-03-02 12:00,71.60,60.80,68.75,120.00,7.00,0.00,30.06,,6.21,,SCT,,,,2500.00,,,,,,,,,,,71.60,SBMT 021200Z 12007KT 9999 SCT025 22/16 Q1018,
SBMT,2024-03-02 13:00,73.40,60.80,64.69,130.00,7.00,0.00,30.06,,6.21,,BKN,,,,3000.00,,,,,,,,,,,73.40,SBMT 021300Z 13007KT 9999 BKN030 23/16 Q1018,
SBMT,2024-03-02 14:00,78.80,60.80,54.05,90.00,6.00,0.00,30.06,,6.21,,BKN,,,,3500.00,,,,,,,,,,,78.80,SBMT 021400Z 09006KT 9999 BKN035 26/16 Q1018,
SBMT,2024-03-02 15:00,78.80,60.80,54.05,90.00,7.00,0.00,30.03,,6.21,,SCT,,,,4000.00,,,,,,,,,,,78.80,SBMT 021500Z 09007KT 9999 SCT040 26/16 Q1017,
SBMT,2024-03-02 16:00,80.60,57.20,44.80,60.00,10.00,0.00,30.03,,6.21,,SCT,,,,4000.00,,,,,,,,,,,80.81,SBMT 021600Z 06010KT 9999 SCT040 27/14 Q1017,
SBMT,2024-03-02 17:00,80.60,60.80,50.95,80.00,7.00,0.00,30.00,,6.21,,SCT,,,,4500.00,,,,,,,,,,,81.46,SBMT 021700Z 08007KT 030V130 9999 SCT045 27/16 Q1016,
SBMT,2024-03-02 18:00,82.40,60.80,48.05,130.00,4.00,0.00,29.97,,6.21,,SCT,,,,4900.00,,,,,,,,,,,82.90,SBMT 021800Z 13004KT 9999 SCT049 28/16 Q1015,
SBMT,2024-03-02 19:00,80.60,64.40,57.84,180.00,9.00,0.00,29.97,,6.21,,FEW,,,,4500.00,,,,,,,,,,,82.27,SBMT 021900Z 18009KT 9999 FEW045 27/18 Q1015,
SBMT,2024-03-02 20:00,77.00,64.40,65.12,160.00,9.00,0.00,29.97,,6.21,,FEW,,,,3600.00,,,,,,,,,,,77.00,SBMT 022000Z 16009KT 9999 FEW036 25/18 Q1015,
SBMT,2024-03-02 21:00,73.40,64.40,73.44,160.00,10.00,0.00,29.97,,6.21,,SCT,,,,2600.00,,,,,,,,,,,73.40,SBMT 022100Z 16010KT 9999 SCT026 23/18 Q1015,
SBMT,2024-03-02 22:00,71.60,64.40,78.04,130.00,8.00,0.00,30.00,,6.21,,BKN,,,,2200.00,,,,,,,,,,,71.60,SBMT 022200Z 13008KT 9999 BKN022 22/18 Q1016,
SBMT,2024-03-02 23:00,71.60,62.60,73.27,140.00,7.00,0.00,30.03,,6.21,,BKN,,,,2500.00,,,,,,,,,,,71.60,SBMT 022300Z 14007KT 9999 BKN025 22/17 Q1017,
SBMT,2024-03-03 00:00,69.80,62.60,77.90,130.00,10.00,0.00,30.03,,6.21,,BKN,,,,3000.00,,,,,,,,,,,69.80,SBMT 030000Z 13010KT 9999 BKN030 21/17 Q1017,
SBMT,2024-03-03 01:00,69.80,64.40,82.98,100.00,8.00,0.00,30.06,,6.21,,BKN,,,,2100.00,,,,,,,,,,,69.80,SBMT 030100Z 10008KT 9999 BKN021 21/18 Q1018,
SBMT,2024-03-03 02:00,69.80,62.60,77.90,90.00,9.00,0.00,30.03,,6.21,,SCT,,,,2300.00,,,,,,,,,,,69.80,SBMT 030200Z 09009KT 9999 SCT023 21/17 Q1017,
SBMT,2024-03-03 09:00,66.20,64.40,93.92,80.00,4.00,0.00,30.00,,6.21,,SCT,BKN,,,1100.00,1500.00,,,,,,,,,,66.20,SBMT 030900Z 08004KT 9999 SCT011 BKN015 19/18 Q1016,
SBMT,2024-03-03 10:00,68.00,62.60,82.86,90.00,6.00,0.00,30.00,,6.21,,,,,,,,,,,,,,,,,68.00,SBMT 031000Z 09006KT CAVOK 20/17 Q1016,
SBMT,2024-03-03 11:00,69.80,64.40,82.98,60.00,6.00,0.00,30.03,,6.21,,,,,,,,,,,,,,,,,69.80,SBMT 031100Z 06006KT CAVOK 21/18 Q1017,
SBMT,2024-03-03 12:00,73.40,64.40,73.44,60.00,6.00,0.00,30.03,,6.21,,,,,,,,,,,,,,,,,73.40,SBMT 031200Z 06006KT CAVOK 23/18 Q1017,
SBMT,2024-03-03 13:00,77.00,66.20,69.33,70.00,4.00,0.00,30.00,,6.21,,,,,,,,,,,,,,,,,77.00,SBMT 031300Z 07004KT CAVOK 25/19 Q1016,
SBMT,2024-03-03 14:00,82.40,68.00,61.81,160.00,3.00,0.00,30.00,,6.21,,,,,,,,,,,,,,,,,85.38,SBMT 031400Z 16003KT CAVOK 28/20 Q1016,
SBMT,2024-03-03 15:00,84.20,66.20,54.80,250.00,2.00,0.00,29.97,,6.21,,SCT,,,,4000.00,,,,,,,,,,,86.50,SBMT 031500Z 25002KT 9999 SCT040 29/19 Q1015,
SBMT,2024-03-03 16:00,84.20,64.40,51.47,190.00,2.00,0.00,29.94,,6.21,,BKN,,,,4900.00,,,,,,,,,,,85.71,SBMT 031600Z 19002KT 9999 BKN049 29/18 Q1014,
SBMT,2024-03-03 17:00,86.00,64.40,48.58,250.00,5.00,0.00,29.94,,6.21,,BKN,,,,4000.00,,,,,,,,,,,87.49,SBMT 031700Z 25005KT 9999 BKN040 30/18 Q1014,
SBMT,2024-03-03 18:00,86.00,64.40,48.58,300.00,2.00,0.00,29.91,,6.21,,BKN,,,,4000.00,,,,,,,,,,,87.49,SBMT 031800Z 30002KT 9999 BKN040 30/18 Q1013,
SBMT,2024-03-03 19:00,86.00,68.00,55.04,180.00,8.00,0.00,29.91,,6.21,,BKN,,,,4000.00,,,,,,,,,,,89.41,SBMT 031900Z 18008KT 9999 BKN040 30/20 Q1013,
SBMT,2024-03-03 20:00,80.60,68.00,65.54,180.00,12.00,0.00,29.94,,6.21,,SCT,,,,4000.00,,,,,,,,,,,83.29,SBMT 032000Z 18012KT 9999 SCT040 27/20 Q1014,
SBMT,2024-03-03 21:00,77.00,68.00,73.78,160.00,8.00,0.00,29.97,,6.21,,SCT,FEW,,,4000.00,4500.00,,,,,,,,,,77.00,SBMT 032100Z 16008KT 110V200 9999 SCT040 FEW045TCU 25/20 Q1015,
SBMT,2024-03-03 22:00,73.40,68.00,83.21,150.00,5.00,0.00,30.00,,6.21,,SCT,BKN,FEW,,1500.00,1700.00,4000.00,,,,,,,,,73.40,SBMT 032200Z 15005KT 110V210 9999 SCT015 BKN017 FEW040TCU 23/20 Q1016,
SBMT,2024-03-03 23:00,73.40,68.00,83.21,110.00,8.00,0.00,30.00,,6.21,,SCT,BKN,,,1500.00,1700.00,,,,,,,,,,73.40,SBMT 032300Z 11008KT 9999 SCT015 BKN017 23/20 Q1016,
SBMT,2024-03-04 00:00,73.40,68.00,83.21,120.00,3.00,0.00,30.00,,6.21,,SCT,,,,4000.00,,,,,,,,,,,73.40,SBMT 040000Z 12003KT 9999 SCT040 23/20 Q1016,
SBMT,2024-03-04 01:00,73.40,68.00,83.21,,2.00,0.00,30.03,,6.21,,,,,,,,,,,,,,,,,73.40,SBMT 040100Z VRB02KT CAVOK 23/20 Q1017,
SBMT,2024-03-04 02:00,71.60,66.20,83.09,110.00,3.00,0.00,30.03,,6.21,,,,,,,,,,,,,,,,,71.60,SBMT 040200Z 11003KT CAVOK 22/19 Q1017,
SBMT,2024-03-04 09:00,68.00,64.40,88.26,130.00,3.00,0.00,29.97,,6.21,,,,,,,,,,,,,,,,,68.00,SBMT 040900Z 13003KT 100V160 CAVOK 20/18 Q1015,
SBMT,2024-03-04 10:00,69.80,66.20,88.34,110.00,3.00,0.00,30.00,,6.21,,,,,,,,,,,,,,,,,69.80,SBMT 041000Z 11003KT CAVOK 21/19 Q1016,
SBMT,2024-03-04 11:00,73.40,66.20,78.19,0.00,0.00,0.00,30.03,,6.21,,,,,,,,,,,,,,,,,73.40,SBMT 041100Z 00000KT CAVOK 23/19 Q1017,
SBMT,2024-03-04 12:00,77.00,66.20,69.33,260.00,1.00,0.00,30.03,,6.21,,,,,,,,,,,,,,,,,77.00,SBMT 041200Z 26001KT CAVOK 25/19 Q1017,
SBMT,2024-03-04 13:00,80.60,66.20,61.58,,3.00,0.00,30.00,,6.21,,,,,,,,,,,,,,,,,82.75,SBMT 041300Z VRB03KT CAVOK 27/19 Q1016,
SBMT,2024-03-04 14:00,84.20,68.00,58.32,,3.00,0.00,30.00,,6.21,,,,,,,,,,,,,,,,,87.40,SBMT 041400Z VRB03KT CAVOK 29/20 Q1016,
SBMT,2024-03-04 15:00,86.00,68.00,55.04,,5.00,0.00,30.00,,6.21,,SCT,,,,4000.00,,,,,,,,,,,89.41,SBMT 041500Z VRB05KT 9999 SCT040 30/20 Q1016,
SBMT,2024-03-04 16:00,87.80,68.00,51.98,320.00,6.00,0.00,29.97,,6.21,,BKN,,,,4000.00,,,,,,,,,,,91.43,SBMT 041600Z 32006KT 250V020 9999 BKN040 31/20 Q1015,
SBMT,2024-03-04 17:00,86.00,68.00,55.04,280.00,8.00,0.00,29.94,,6.21,,BKN,,,,4000.00,,,,,,,,,,,89.41,SBMT 041700Z 28008KT 9999 BKN040 30/20 Q1014,
SBMT,2024-03-04 18:00,89.60,64.40,43.34,260.00,8.00,0.00,29.94,,6.21,,BKN,,,,4000.00,,,,,,,,,,,91.23,SBMT 041800Z 26008KT 9999 BKN040 32/18 Q1014,
SBMT,2024-03-04 19:00,89.60,68.00,49.10,230.00,3.00,0.00,29.91,,6.21,,BKN,,,,4000.00,,,,,,,,,,,93.47,SBMT 041900Z 23003KT 9999 BKN040 32/20 Q1013,
SBMT,2024-03-04 20:00,80.60,69.80,69.71,130.00,9.00,0.00,29.91,,6.21,,,,,,,,,,,,,,,,,83.90,SBMT 042000Z 13009KT CAVOK 27/21 Q1013,
SBMT,2024-03-04 21:00,77.00,69.80,78.48,170.00,9.00,0.00,29.94,,6.21,,,,,,,,,,,,,,,,,77.00,SBMT 042100Z 17009KT 110V200 CAVOK 25/21 Q1014,
SBMT,2024-03-04 22:00,75.20,69.80,83.32,170.00,6.00,0.00,29.97,,4.35,,FEW,BKN,,,1300.00,1500.00,,,,,,,,,,75.20,SBMT 042200Z 17006KT 7000 FEW013 BKN015 24/21 Q1015,
SBMT,2024-03-04 23:00,75.20,69.80,83.32,170.00,7.00,0.00,30.00,,6.21,,FEW,BKN,,,1300.00,1500.00,,,,,,,,,,75.20,SBMT 042300Z 17007KT 9999 FEW013 BKN015 24/21 Q1016,
SBMT,2024-03-05 00:00,75.20,69.80,83.32,170.00,6.00,0.00,30.03,,6.21,,FEW,BKN,,,1300.00,1500.00,,,,,,,,,,75.20,SBMT 050000Z 17006KT 9999 FEW013 BKN015 24/21 Q1017,
SBMT,2024-03-05 01:00,73.40,68.00,83.21,120.00,7.00,0.00,30.03,,6.21,,,,,,,,,,,,,,,,,73.40,SBMT 050100Z 12007KT CAVOK 23/20 Q1017,
SBMT,2024-03-05 02:00,73.40,68.00,83.21,130.00,6.00,0.00,30.03,,6.21,,SCT,,,,1500.00,,,,,,,,,,,73.40,SBMT 050200Z 13006KT 9999 SCT015 23/20 Q1017,
SBMT,2024-03-05 09:00,69.80,68.00,94.01,,2.00,0.00,30.00,,4.35,,SCT,SCT,,,2000.00,7000.00,,,,,,,,,,69.80,SBMT 050900Z VRB02KT 7000 SCT020 SCT070 21/20 Q1016,
SBMT,2024-03-05 10:00,71.60,68.00,88.43,,2.00,0.00,30.00,,5.59,,SCT,SCT,,,3500.00,7000.00,,,,,,,,,,71.60,SBMT 051000Z VRB02KT 9000 SCT035 SCT070 22/20 Q1016,
SBMT,2024-03-05 11:00,75.20,68.00,78.34,,2.00,0.00,30.03,,6.21,,,,,,,,,,,,,,,,,75.20,SBMT 051100Z VRB02KT CAVOK 24/20 Q1017,
SBMT,2024-03-05 12:00,78.80,68.00,69.52,10.00,3.00,0.00,30.03,,6.21,,,,,,,,,,,,,,,,,78.80,SBMT 051200Z 01003KT 310V090 CAVOK 26/20 Q1017,
SBMT,2024-03-05 13:00,80.60,68.00,65.54,320.00,7.00,0.00,30.03,,6.21,,,,,,,,,,,,,,,,,83.29,SBMT 051300Z 32007KT 270V020 CAVOK 27/20 Q1017,
SBMT,2024-03-05 14:00,84.20,69.80,62.03,320.00,7.00,0.00,30.00,,6.21,,BKN,,,,3300.00,,,,,,,,,,,88.43,SBMT 051400Z 32007KT 290V010 9999 BKN033 29/21 Q1016,
SBMT,2024-03-05 15:00,84.20,69.80,62.03,290.00,8.00,0.00,30.00,,6.21,,BKN,,,,3500.00,,,,,,,,,,,88.43,SBMT 051500Z 29008KT 260V340 9999 BKN035 29/21 Q1016,
SBMT,2024-03-05 16:00,84.20,68.00,58.32,300.00,10.00,0.00,29.97,,6.21,,BKN,,,,3500.00,,,,,,,,,,,87.40,SBMT 051600Z 30010KT 260V340 9999 BKN035 29/20 Q1015,
SBMT,2024-03-05 17:00,86.00,68.00,55.04,280.00,11.00,0.00,29.97,,6.21,,BKN,,,,3300.00,,,,,,,,,,,89.41,SBMT 051700Z 28011KT 250V320 9999 BKN033 30/20 Q1015,
SBMT,2024-03-05 18:00,86.00,66.20,51.72,280.00,8.00,0.00,29.94,,6.21,,BKN,,,,4000.00,,,,,,,,,,,88.39,SBMT 051800Z 28008KT 240V330 9999 BKN040 30/19 Q1014,
SBMT,2024-03-05 19:00,80.60,69.80,69.71,170.00,12.00,0.00,29.94,,6.21,,BKN,,,,3000.00,,,,,,,,,,,83.90,SBMT 051900Z 17012KT 120V210 9999 BKN030 27/21 Q1014,
SBMT,2024-03-05 20:00,75.20,69.80,83.32,130.00,12.00,0.00,29.97,,6.21,,BKN,BKN,,,1300.00,3300.00,,,-RA,,,,,,,75.20,SBMT 052000Z 13012KT 100V160 9999 -RA BKN013 BKN033 24/21 Q1015,
SBMT,2024-03-05 21:00,73.40,69.80,88.51,110.00,6.00,0.00,29.97,,4.97,,BKN,BKN,,,1100.00,1300.00,,,-RA,,,,,,,73.40,SBMT 052100Z 11006KT 070V150 8000 -RA BKN011 BKN013 23/21 Q1015,
SBMT,2024-03-05 21:07,73.40,69.80,88.51,,5.00,0.00,30.00,,3.11,,BKN,BKN,FEW,,1100.00,1300.00,5000.00,,TSRA,,,,,,,73.40,SBMT 052107Z VRB05KT 5000 TSRA BKN011 BKN013 FEW050CB 23/21 Q1016,
SBMT,2024-03-05 22:00,68.00,66.20,93.97,160.00,6.00,0.00,30.00,,2.17,,BKN,FEW,SCT,,1300.00,4000.00,5000.00,,-TSRA,,,,,,,68.00,SBMT 052200Z 16006KT 120V240 3500 -TSRA BKN013 FEW040CB SCT050 20/19 Q1016 RERA,
SBMT,2024-03-05 23:00,68.00,64.40,88.26,250.00,5.00,0.00,30.00,,3.11,,BKN,FEW,SCT,,1400.00,4000.00,5000.00,,-TSRA,,,,,,,68.00,SBMT 052300Z 25005KT 210V280 5000 -TSRA BKN014 FEW040CB SCT050 20/18 Q1016,
SBMT,2024-03-06 00:00,68.00,64.40,88.26,320.00,3.00,0.00,30.03,,3.11,,SCT,FEW,SCT,,1300.00,4000.00,5000.00,,-TSRA,,,,,,,68.00,SBMT 060000Z 32003KT 270V020 5000 -TSRA SCT013 FEW040CB SCT050 20/18 Q1017,
SBMT,2024-03-06 01:00,69.80,68.00,94.01,0.00,0.00,0.00,30.06,,6.21,,SCT,SCT,,,1400.00,5000.00,,,,,,,,,,69.80,SBMT 060100Z 00000KT 9999 SCT014 SCT050 21/20 Q1018,
SBMT,2024-03-06 02:00,71.60,68.00,88.43,220.00,5.00,0.00,30.06,,6.21,,SCT,BKN,,,1300.00,2000.00,,,,,,,,,,71.60,SBMT 060200Z 22005KT 9999 SCT013 BKN020 22/20 Q1018,
SBMT,2024-03-06 09:00,68.00,68.00,100.00,0.00,0.00,0.00,30.03,,6.21,,,,,,,,,,,,,,,,,68.00,SBMT 060900Z 00000KT CAVOK 20/20 Q1017,
SBMT,2024-03-06 10:00,69.80,69.80,100.00,0.00,0.00,0.00,30.03,,6.21,,,,,,,,,,,,,,,,,69.80,SBMT 061000Z 00000KT CAVOK 21/21 Q1017,
SBMT,2024-03-06 11:00,73.40,66.20,78.19,140.00,2.00,0.00,30.06,,6.21,,,,,,,,,,,,,,,,,73.40,SBMT 061100Z 14002KT CAVOK 23/19 Q1018,
SBMT,2024-03-06 12:00,75.20,68.00,78.34,70.00,3.00,0.00,30.06,,6.21,,,,,,,,,,,,,,,,,75.20,SBMT 061200Z 07003KT CAVOK 24/20 Q1018,
SBMT,2024-03-06 13:00,78.80,68.00,69.52,40.00,2.00,0.00,30.09,,6.21,,BKN,,,,4900.00,,,,,,,,,,,78.80,SBMT 061300Z 04002KT 9999 BKN049 26/20 Q1019,
SBMT,2024-03-06 14:00,78.80,68.00,69.52,340.00,2.00,0.00,30.09,,6.21,,BKN,BKN,,,2900.00,4900.00,,,,,,,,,,78.80,SBMT 061400Z 34002KT 9999 BKN029 BKN049 26/20 Q1019,
SBMT,2024-03-06 15:00,78.80,64.40,61.36,240.00,4.00,0.00,30.06,,6.21,,BKN,BKN,,,2900.00,4900.00,,,,,,,,,,78.80,SBMT 061500Z 24004KT 9999 BKN029 BKN049 26/18 Q1018,
SBMT,2024-03-06 16:00,78.80,68.00,69.52,200.00,10.00,0.00,30.06,,6.21,,SCT,BKN,,,2300.00,2600.00,,,,,,,,,,78.80,SBMT 061600Z 20010KT 9999 SCT023 BKN026 26/20 Q1018,
SBMT,2024-03-06 17:00,78.80,69.80,73.95,150.00,8.00,0.00,30.03,,6.21,,SCT,FEW,,,2500.00,3500.00,,,,,,,,,,78.80,SBMT 061700Z 15008KT 110V200 9999 SCT025 FEW035TCU 26/21 Q1017,
SBMT,2024-03-06 18:00,77.00,66.20,69.33,140.00,8.00,0.00,30.03,,6.21,,SCT,FEW,,,2500.00,3500.00,,,,,,,,,,77.00,SBMT 061800Z 14008KT 9999 SCT025 FEW035TCU 25/19 Q1017,
SBMT,2024-03-06 19:00,77.00,66.20,69.33,150.00,9.00,0.00,30.03,,6.21,,SCT,FEW,,,2500.00,3500.00,,,,,,,,,,77.00,SBMT 061900Z 15009KT 110V190 9999 SCT025 FEW035TCU 25/19 Q1017,
SBMT,2024-03-06 20:00,75.20,66.20,73.61,130.00,9.00,0.00,30.03,,6.21,,SCT,FEW,,,2500.00,3500.00,,,,,,,,,,75.20,SBMT 062000Z 13009KT 9999 SCT025 FEW035TCU 24/19 Q1017,
SBMT,2024-03-06 21:00,73.40,68.00,83.21,130.00,8.00,0.00,30.03,,6.21,,SCT,FEW,,,2000.00,3500.00,,,,,,,,,,73.40,SBMT 062100Z 13008KT 100V170 9999 SCT020 FEW035TCU 23/20 Q1017,
SBMT,2024-03-06 22:00,73.40,68.00,83.21,140.00,10.00,0.00,30.06,,6.21,,BKN,,,,1500.00,,,,,,,,,,,73.40,SBMT 062200Z 14010KT 100V170 9999 BKN015 23/20 Q1018,
SBMT,2024-03-06 23:00,71.60,68.00,88.43,140.00,8.00,0.00,30.09,,6.21,,BKN,,,,1300.00,,,,,,,,,,,71.60,SBMT 062300Z 14008KT 9999 BKN013 22/20 Q1019,
SBMT,2024-03-07 00:00,71.60,68.00,88.43,150.00,8.00,0.00,30.12,,6.21,,SCT,BKN,,,1100.00,1300.00,,,,,,,,,,71.60,SBMT 070000Z 15008KT 110V190 9999 SCT011 BKN013 22/20 Q1020,
SBMT,2024-03-07 01:00,69.80,66.20,88.34,130.00,10.00,0.00,30.12,,2.49,,BKN,BKN,,,1100.00,1300.00,,,-DZ BR,,,,,,,69.80,COR SBMT 070100Z 13010KT 100V160 4000 -DZ BR BKN011 BKN013 21/19 Q1020,
SBMT,2024-03-07 02:00,69.80,66.20,88.34,130.00,8.00,0.00,30.12,,4.97,,BKN,,,,1300.00,,,,,,,,,,,69.80,SBMT 070200Z 13008KT 8000 BKN013 21/19 Q1020,
SBMT,2024-03-07 09:00,69.80,66.20,88.34,110.00,7.00,0.00,30.09,,6.21,,BKN,,,,1100.00,,,,,,,,,,,69.80,SBMT 070900Z 11007KT 9999 BKN011 21/19 Q1019,
SBMT,2024-03-07 10:00,69.80,64.40,82.98,110.00,8.00,0.00,30.12,,6.21,,SCT,BKN,,,1300.00,1500.00,,,,,,,,,,69.80,SBMT 071000Z 11008KT 9999 SCT013 BKN015 21/18 Q1020,
SBMT,2024-03-07 11:00,71.60,64.40,78.04,100.00,7.00,0.00,30.15,,6.21,,BKN,SCT,,,1300.00,1500.00,,,,,,,,,,71.60,SBMT 071100Z 10007KT 070V130 9999 BKN013 SCT015 22/18 Q1021,
SBMT,2024-03-07 12:00,71.60,66.20,83.09,110.00,7.00,0.00,30.15,,6.21,,BKN,BKN,,,1300.00,1500.00,,,,,,,,,,71.60,SBMT 071200Z 11007KT 070V150 9999 BKN013 BKN015 22/19 Q1021,
SBMT,2024-03-07 13:00,75.20,66.20,73.61,120.00,6.00,0.00,30.18,,6.21,,BKN,,,,1900.00,,,,,,,,,,,75.20,SBMT 071300Z 12006KT 060V160 9999 BKN019 24/19 Q1022,
SBMT,2024-03-07 14:00,77.00,66.20,69.33,70.00,7.00,0.00,30.18,,6.21,,BKN,,,,2300.00,,,,,,,,,,,77.00,SBMT 071400Z 07007KT 9999 BKN023 25/19 Q1022,
SBMT,2024-03-07 15:00,78.80,66.20,65.33,70.00,6.00,0.00,30.15,,6.21,,BKN,,,,3000.00,,,,,,,,,,,78.80,SBMT 071500Z 07006KT 030V140 9999 BKN030 26/19 Q1021,
SBMT,2024-03-07 16:00,80.60,66.20,61.58,170.00,5.00,0.00,30.12,,6.21,,BKN,,,,3300.00,,,,,,,,,,,82.75,SBMT 071600Z 17005KT 110V220 9999 BKN033 27/19 Q1020,
SBMT,2024-03-07 17:00,80.60,69.80,69.71,150.00,8.00,0.00,30.12,,6.21,,BKN,,,,3000.00,,,,,,,,,,,83.90,SBMT 071700Z 15008KT 9999 BKN030 27/21 Q1020,
SBMT,2024-03-07 18:00,78.80,68.00,69.52,150.00,10.00,0.00,30.09,,6.21,,SCT,BKN,BKN,,2300.00,3600.00,4500.00,,,,,,,,,78.80,SBMT 071800Z 15010KT 9999 SCT023 BKN036 BKN045 26/20 Q1019,
SBMT,2024-03-07 19:00,77.00,69.80,78.48,160.00,10.00,0.00,30.09,,6.21,,BKN,,,,2300.00,,,,,,,,,,,77.00,SBMT 071900Z 16010KT 9999 BKN023 25/21 Q1019,
SBMT,2024-03-07 20:00,75.20,68.00,78.34,160.00,8.00,0.00,30.06,,6.21,,BKN,,,,2000.00,,,,,,,,,,,75.20,SBMT 072000Z 16008KT 9999 BKN020 24/20 Q1018,
SBMT,2024-03-07 21:00,75.20,68.00,78.34,150.00,10.00,0.00,30.06,,6.21,,SCT,BKN,,,2300.00,3000.00,,,,,,,,,,75.20,SBMT 072100Z 15010KT 9999 SCT023 BKN030 24/20 Q1018,
SBMT,2024-03-07 22:00,73.40,68.00,83.21,100.00,10.00,0.00,30.09,,6.21,,SCT,BKN,,,2000.00,2300.00,,,,,,,,,,73.40,SBMT 072200Z 10010KT 9999 SCT020 BKN023 23/20 Q1019,
SBMT,2024-03-07 23:00,73.40,68.00,83.21,110.00,10.00,0.00,30.12,,6.21,,SCT,BKN,,,1700.00,2000.00,,,,,,,,,,73.40,SBMT 072300Z 11010KT 9999 SCT017 BKN020 23/20 Q1020,
SBMT,2024-03-08 00:00,73.40,68.00,83.21,120.00,9.00,0.00,30.15,,6.21,,SCT,BKN,,,1500.00,1700.00,,,,,,,,,,73.40,SBMT 080000Z 12009KT 9999 SCT015 BKN017 23/20 Q1021,
SBMT,2024-03-08 01:00,73.40,68.00,83.21,100.00,10.00,0.00,30.15,,6.21,,SCT,BKN,,,2000.00,2300.00,,,,,,,,,,73.40,SBMT 080100Z 10010KT 9999 SCT020 BKN023 23/20 Q1021,
SBMT,2024-03-08 02:00,73.40,68.00,83.21,100.00,10.00,0.00,30.15,,6.21,,BKN,,,,1700.00,,,,,,,,,,,73.40,SBMT 080200Z 10010KT 9999 BKN017 23/20 Q1021,
SBMT,2024-03-08 09:00,71.60,68.00,88.43,90.00,8.00,0.00,30.09,,6.21,,BKN,BKN,,,1400.00,2100.00,,,,,,,,,,71.60,SBMT 080900Z 09008KT 9999 BKN014 BKN021 22/20 Q1019,
SBMT,2024-03-08 10:00,71.60,68.00,88.43,90.00,9.00,0.00,30.09,,6.21,,BKN,SCT,,,1400.00,2400.00,,,,,,,,,,71.60,SBMT 081000Z 09009KT 9999 BKN014 SCT024 22/20 Q1019,
SBMT,2024-03-08 11:00,73.40,68.00,83.21,90.00,9.00,0.00,30.12,,6.21,,BKN,,,,1600.00,,,,,,,,,,,73.40,SBMT 081100Z 09009KT 9999 BKN016 23/20 Q1020,
SBMT,2024-03-08 12:00,75.20,68.00,78.34,70.00,7.00,0.00,30.12,,6.21,,BKN,,,,1800.00,,,,,,,,,,,75.20,SBMT 081200Z 07007KT 9999 BKN018 24/20 Q1020,
SBMT,2024-03-08 13:00,77.00,68.00,73.78,70.00,8.00,0.00,30.15,,6.21,,BKN,,,,2300.00,,,,,,,,,,,77.00,SBMT 081300Z 07008KT 9999 BKN023 25/20 Q1021,
SBMT,2024-03-08 14:00,80.60,68.00,65.54,80.00,8.00,0.00,30.12,,6.21,,SCT,,,,2600.00,,,,,,,,,,,83.29,SBMT 081400Z 08008KT 9999 SCT026 27/20 Q1020,
SBMT,2024-03-08 15:00,84.20,69.80,62.03,50.00,5.00,0.00,30.09,,6.21,,SCT,,,,3100.00,,,,,,,,,,,88.43,SBMT 081500Z 05005KT 010V090 9999 SCT031 29/21 Q1019,
SBMT,2024-03-08 16:00,82.40,68.00,61.81,50.00,5.00,0.00,30.06,,6.21,,SCT,FEW,,,3600.00,4500.00,,,,,,,,,,85.38,SBMT 081600Z 05005KT 360V100 9999 SCT036 FEW045TCU 28/20 Q1018,
SBMT,2024-03-08 17:00,84.20,68.00,58.32,70.00,5.00,0.00,30.03,,6.21,,SCT,FEW,,,3500.00,4000.00,,,,,,,,,,87.40,SBMT 081700Z 07005KT 9999 SCT035 FEW040TCU 29/20 Q1017,
SBMT,2024-03-08 18:00,73.40,68.00,83.21,20.00,10.00,0.00,30.03,,1.55,,FEW,BKN,FEW,,1000.00,2500.00,4000.00,,-TSRA,,,,,,,73.40,SBMT 081800Z 02010KT 320V080 2500 -TSRA FEW010 BKN025 FEW040CB 23/20 Q1017,
SBMT,2024-03-08 19:00,73.40,68.00,83.21,130.00,8.00,0.00,30.00,,4.97,,BKN,FEW,,,3000.00,4000.00,,,,,,,,,,73.40,SBMT 081900Z 13008KT 8000 BKN030 FEW040TCU 23/20 Q1016 RETS,
SBMT,2024-03-08 20:00,73.40,66.20,78.19,140.00,4.00,0.00,30.00,,6.21,,SCT,BKN,,,4000.00,8000.00,,,,,,,,,,73.40,SBMT 082000Z 14004KT 9999 SCT040 BKN080 23/19 Q1016,
SBMT,2024-03-08 21:00,73.40,66.20,78.19,130.00,4.00,0.00,30.00,,6.21,,SCT,BKN,,,3000.00,8000.00,,,,,,,,,,73.40,SBMT 082100Z 13004KT 9999 SCT030 BKN080 23/19 Q1016,
SBMT,2024-03-08 22:00,73.40,68.00,83.21,150.00,3.00,0.00,30.03,,2.49,,BKN,SCT,,,1300.00,2000.00,,,-RA,,,,,,,73.40,SBMT 082200Z 15003KT 4000 -RA BKN013 SCT020 23/20 Q1017,
SBMT,2024-03-08 23:00,73.40,69.80,88.51,160.00,3.00,0.00,30.06,,1.86,,BKN,,,,800.00,,,,-RA,,,,,,,73.40,SBMT 082300Z 16003KT 3000 -RA BKN008 23/21 Q1018,
SBMT,2024-03-09 00:00,71.60,68.00,88.43,90.00,6.00,0.00,30.06,,3.11,,BKN,SCT,,,1200.00,2000.00,,,BR,,,,,,,71.60,SBMT 090000Z 09006KT 5000 BR BKN012 SCT020 22/20 Q1018,
SBMT,2024-03-09 01:00,73.40,68.00,83.21,90.00,5.00,0.00,30.09,,2.49,,BKN,,,,1000.00,,,,BR,,,,,,,73.40,SBMT 090100Z 09005KT 4000 BR BKN010 23/20 Q1019,
SBMT,2024-03-09 02:00,73.40,68.00,83.21,90.00,4.00,0.00,30.09,,2.49,,BKN,,,,1000.00,,,,BR,,,,,,,73.40,SBMT 090200Z 09004KT 4000 BR BKN010 23/20 Q1019,
SBMT,2024-03-09 09:00,69.80,69.80,100.00,0.00,0.00,0.00,30.00,,6.21,,,,,,,,,,,,,,,,,69.80,SBMT 090900Z 00000KT CAVOK 21/21 Q1016,
SBMT,2024-03-09 10:00,71.60,69.80,94.06,360.00,3.00,0.00,30.00,,6.21,,,,,,,,,,,,,,,,,71.60,SBMT 091000Z 36003KT CAVOK 22/21 Q1016,
SBMT,2024-03-09 11:00,75.20,71.60,88.59,10.00,3.00,0.00,30.00,,6.21,,,,,,,,,,,,,,,,,75.20,SBMT 091100Z 01003KT CAVOK 24/22 Q1016,
SBMT,2024-03-09 12:00,77.00,71.60,83.44,340.00,6.00,0.00,30.00,,6.21,,,,,,,,,,,,,,,,,77.00,SBMT 091200Z 34006KT CAVOK 25/22 Q1016,
SBMT,2024-03-09 13:00,80.60,71.60,74.11,310.00,7.00,0.00,30.00,,6.21,,SCT,BKN,,,2000.00,10000.00,,,,,,,,,,84.57,SBMT 091300Z 31007KT 9999 SCT020 BKN100 27/22 Q1016,
SBMT,2024-03-09 14:00,82.40,69.80,65.74,300.00,11.00,0.00,30.00,,6.21,,SCT,BKN,,,2000.00,10000.00,,,,,,,,,,86.22,SBMT 091400Z 30011KT 9999 SCT020 BKN100 28/21 Q1016,
SBMT,2024-03-09 15:00,84.20,69.80,62.03,300.00,8.00,0.00,29.97,,6.21,,BKN,SCT,,,2500.00,10000.00,,,,,,,,,,88.43,SBMT 091500Z 30008KT 270V340 9999 BKN025 SCT100 29/21 Q1015,
SBMT,2024-03-09 16:00,84.20,71.60,65.95,300.00,10.00,0.00,29.97,,6.21,,BKN,,,,3000.00,,,,,,,,,,,89.60,SBMT 091600Z 30010KT 260V330 9999 BKN030 29/22 Q1015,
SBMT,2024-03-09 17:00,84.20,68.00,58.32,280.00,11.00,0.00,29.91,,6.21,,SCT,,,,3500.00,,,,,,,,,,,87.40,SBMT 091700Z 28011KT 9999 SCT035 29/20 Q1013,
SBMT,2024-03-09 18:00,86.00,69.80,58.55,280.00,8.00,0.00,29.91,,6.21,,SCT,,,,3500.00,,,,,,,,,,,90.58,SBMT 091800Z 28008KT 9999 SCT035 30/21 Q1013,
SBMT,2024-03-09 19:00,84.20,68.00,58.32,270.00,9.00,0.00,29.88,,6.21,,SCT,FEW,,,3500.00,4000.00,,,,,,,,,,87.40,SBMT 091900Z 27009KT 9999 SCT035 FEW040TCU 29/20 Q1012,
SBMT,2024-03-09 20:00,82.40,68.00,61.81,330.00,8.00,0.00,29.91,,6.21,,BKN,FEW,,,3500.00,4000.00,,,,,,,,,,85.38,SBMT 092000Z 33008KT 9999 BKN035 FEW040TCU 28/20 Q1013,
SBMT,2024-03-09 21:00,80.60,69.80,69.71,320.00,8.00,0.00,29.94,,6.21,,BKN,FEW,,,3500.00,4000.00,,,,,,,,,,83.90,SBMT 092100Z 32008KT 9999 BKN035 FEW040TCU 27/21 Q1014,
SBMT,2024-03-09 22:00,77.00,69.80,78.48,300.00,7.00,0.00,29.94,,3.73,,BKN,FEW,,,2500.00,3500.00,,,-RA,,,,,,,77.00,SBMT 092200Z 30007KT 6000 -RA BKN025 FEW035TCU 25/21 Q1014,
SBMT,2024-03-09 23:00,77.00,69.80,78.48,300.00,5.00,0.00,29.97,,6.21,,SCT,,,,2500.00,,,,,,,,,,,77.00,SBMT 092300Z 30005KT 9999 SCT025 25/21 Q1015,
SBMT,2024-03-10 00:00,77.00,68.00,73.78,350.00,3.00,0.00,30.00,,6.21,,SCT,,,,2500.00,,,,,,,,,,,77.00,SBMT 100000Z 35003KT 9999 SCT025 25/20 Q1016,
SBMT,2024-03-10 01:00,75.20,69.80,83.32,350.00,4.00,0.00,30.03,,6.21,,SCT,,,,2000.00,,,,,,,,,,,75.20,SBMT 100100Z 35004KT 9999 SCT020 24/21 Q1017,
SBMT,2024-03-10 02:00,75.20,69.80,83.32,330.00,3.00,0.00,30.00,,6.21,,,,,,,,,,,,,,,,,75.20,SBMT 100200Z 33003KT CAVOK 24/21 Q1016,
SBMT,2024-03-10 09:00,71.60,66.20,83.09,280.00,6.00,0.00,29.97,,6.21,,FEW,,,,1300.00,,,,,,,,,,,71.60,SBMT 100900Z 28006KT 9999 FEW013 22/19 Q1015,
SBMT,2024-03-10 10:00,73.40,68.00,83.21,280.00,5.00,0.00,29.97,,6.21,,FEW,BKN,,,1000.00,1100.00,,,,,,,,,,73.40,SBMT 101000Z 28005KT 9999 FEW010 BKN011 23/20 Q1015,
SBMT,2024-03-10 11:00,73.40,68.00,83.21,280.00,5.00,0.00,30.03,,6.21,,BKN,,,,900.00,,,,,,,,,,,73.40,SBMT 101100Z 28005KT 250V310 9999 BKN009 23/20 Q1017,
SBMT,2024-03-10 12:00,73.40,69.80,88.51,300.00,3.00,0.00,30.03,,6.21,,FEW,BKN,,,900.00,1100.00,,,-RA,,,,,,,73.40,SBMT 101200Z 30003KT 260V330 9999 -RA FEW009 BKN011 23/21 Q1017,
SBMT,2024-03-10 13:00,75.20,68.00,78.34,290.00,7.00,0.00,30.03,,6.21,,SCT,BKN,,,1300.00,1700.00,,,,,,,,,,75.20,SBMT 101300Z 29007KT 260V320 9999 SCT013 BKN017 24/20 Q1017,
SBMT,2024-03-10 14:00,78.80,68.00,69.52,280.00,8.00,0.00,30.03,,6.21,,BKN,,,,2000.00,,,,,,,,,,,78.80,SBMT 101400Z 28008KT 220V320 9999 BKN020 26/20 Q1017,
SBMT,2024-03-10 15:00,80.60,69.80,69.71,310.00,6.00,0.00,30.03,,6.21,,BKN,SCT,,,2000.00,3300.00,,,,,,,,,,83.90,SBMT 101500Z 31006KT 270V350 9999 BKN020 SCT033 27/21 Q1017,
SBMT,2024-03-10 16:00,77.00,69.80,78.48,,2.00,0.00,30.00,,6.21,,BKN,SCT,,,2000.00,3300.00,,,,,,,,,,77.00,SBMT 101600Z VRB02KT 9999 BKN020 SCT033 25/21 Q1016,
SBMT,2024-03-10 17:00,75.20,71.60,88.59,30.00,4.00,0.00,30.00,,6.21,,BKN,,,,2000.00,,,,,,,,,,,75.20,SBMT 101700Z 03004KT 9999 BKN020 24/22 Q1016,
SBMT,2024-03-10 18:00,75.20,71.60,88.59,330.00,4.00,0.00,29.97,,6.21,,BKN,,,,2000.00,,,,,,,,,,,75.20,SBMT 101800Z 33004KT 9999 BKN020 24/22 Q1015,
SBMT,2024-03-10 19:00,77.00,71.60,83.44,,2.00,0.00,29.97,,6.21,,BKN,,,,2000.00,,,,,,,,,,,77.00,SBMT 101900Z VRB02KT 9999 BKN020 25/22 Q1015,
SBMT,2024-03-10 20:00,78.80,69.80,73.95,170.00,5.00,0.00,29.97,,6.21,,SCT,,,,2000.00,,,,,,,,,,,78.80,SBMT 102000Z 17005KT 9999 SCT020 26/21 Q1015,
SBMT,2024-03-10 21:00,75.20,68.00,78.34,170.00,7.00,0.00,30.00,,6.21,,SCT,,,,2000.00,,,,,,,,,,,75.20,SBMT 102100Z 17007KT 140V200 9999 SCT020 24/20 Q1016,
SBMT,2024-03-10 22:00,75.20,66.20,73.61,170.00,7.00,0.00,30.00,,6.21,,SCT,,,,2000.00,,,,,,,,,,,75.20,SBMT 102200Z 17007KT 9999 SCT020 24/19 Q1016,
SBMT,2024-03-10 23:00,73.40,66.20,78.19,160.00,6.00,0.00,30.06,,6.21,,SCT,,,,2000.00,,,,,,,,,,,73.40,SBMT 102300Z 16006KT 9999 SCT020 23/19 Q1018,
SBMT,2024-03-11 00:00,71.60,66.20,83.09,170.00,6.00,0.00,30.06,,6.21,,SCT,,,,2000.00,,,,,,,,,,,71.60,SBMT 110000Z 17006KT 9999 SCT020 22/19 Q1018,
SBMT,2024-03-11 01:00,71.60,66.20,83.09,180.00,5.00,0.00,30.09,,6.21,,SCT,,,,2000.00,,,,,,,,,,,71.60,SBMT 110100Z 18005KT 9999 SCT020 22/19 Q1019,
SBMT,2024-03-11 02:00,71.60,66.20,83.09,150.00,5.00,0.00,30.09,,6.21,,SCT,,,,2000.00,,,,,,,,,,,71.60,SBMT 110200Z 15005KT 9999 SCT020 22/19 Q1019,
SBMT,2024-03-11 09:00,68.00,64.40,88.26,150.00,3.00,0.00,30.09,,6.21,,SCT,,,,1500.00,,,,,,,,,,,68.00,SBMT 110900Z 15003KT 9999 SCT015 20/18 Q1019,
SBMT,2024-03-11 10:00,69.80,66.20,88.34,150.00,3.00,0.00,30.12,,6.21,,SCT,,,,1300.00,,,,,,,,,,,69.80,SBMT 111000Z 15003KT 110V200 9999 SCT013 21/19 Q1020,
SBMT,2024-03-11 11:00,71.60,64.40,78.04,150.00,7.00,0.00,30.12,,6.21,,SCT,,,,1500.00,,,,,,,,,,,71.60,SBMT 111100Z 15007KT 120V180 9999 SCT015 22/18 Q1020,
SBMT,2024-03-11 12:00,73.40,62.60,68.94,120.00,8.00,0.00,30.15,,6.21,,SCT,,,,2000.00,,,,,,,,,,,73.40,SBMT 111200Z 12008KT 070V150 9999 SCT020 23/17 Q1021,
SBMT,2024-03-11 13:00,75.20,60.80,60.90,150.00,6.00,0.00,30.15,,6.21,,SCT,,,,2500.00,,,,,,,,,,,75.20,SBMT 111300Z 15006KT 110V180 9999 SCT025 24/16 Q1021,
SBMT,2024-03-11 14:00,77.00,60.80,57.36,120.00,6.00,0.00,30.12,,6.21,,FEW,,,,3000.00,,,,,,,,,,,77.00,SBMT 111400Z 12006KT 060V190 9999 FEW030 25/16 Q1020,
SBMT,2024-03-11 15:00,80.60,59.00,47.79,,6.00,0.00,30.12,,6.21,,FEW,,,,3000.00,,,,,,,,,,,81.11,SBMT 111500Z VRB06KT 9999 FEW030 27/15 Q1020,
SBMT,2024-03-11 16:00,80.60,59.00,47.79,160.00,6.00,0.00,30.09,,6.21,,FEW,,,,3000.00,,,,,,,,,,,81.11,SBMT 111600Z 16006KT 100V250 9999 FEW030 27/15 Q1019,
SBMT,2024-03-11 17:00,82.40,62.60,51.21,160.00,8.00,0.00,30.06,,6.21,,SCT,,,,4000.00,,,,,,,,,,,83.41,SBMT 111700Z 16008KT 090V190 9999 SCT040 28/17 Q1018,
SBMT,2024-03-11 18:00,78.80,62.60,57.60,120.00,9.00,0.00,30.06,,6.21,,BKN,,,,4000.00,,,,,,,,,,,78.80,SBMT 111800Z 12009KT 080V170 9999 BKN040 26/17 Q1018,
SBMT,2024-03-11 19:00,78.80,64.40,61.36,130.00,10.00,0.00,30.06,,6.21,,BKN,,,,4000.00,,,,,,,,,,,78.80,SBMT 111900Z 13010KT 090V180 9999 BKN040 26/18 Q1018,
SBMT,2024-03-11 20:00,75.20,62.60,64.91,140.00,11.00,0.00,30.06,,6.21,,BKN,,,,4000.00,,,,,,,,,,,75.20,SBMT 112000Z 14011KT 100V180 9999 BKN040 24/17 Q1018,
SBMT,2024-03-11 21:00,73.40,60.80,64.69,140.00,9.00,0.00,30.09,,6.21,,BKN,,,,3300.00,,,,,,,,,,,73.40,SBMT 112100Z 14009KT 120V200 9999 BKN033 23/16 Q1019,
SBMT,2024-03-11 22:00,69.80,59.00,68.55,130.00,10.00,0.00,30.09,,6.21,,SCT,,,,3300.00,,,,,,,,,,,69.80,SBMT 112200Z 13010KT 090V150 9999 SCT033 21/15 Q1019,
SBMT,2024-03-11 23:00,68.00,59.00,72.92,120.00,9.00,0.00,30.12,,6.21,,SCT,,,,2300.00,,,,,,,,,,,68.00,SBMT 112300Z 12009KT 090V150 9999 SCT023 20/15 Q1020,
SBMT,2024-03-12 00:00,68.00,59.00,72.92,140.00,8.00,0.00,30.15,,6.21,,SCT,,,,2100.00,,,,,,,,,,,68.00,SBMT 120000Z 14008KT 110V170 9999 SCT021 20/15 Q1021,
SBMT,2024-03-12 01:00,68.00,59.00,72.92,130.00,6.00,0.00,30.15,,6.21,,SCT,,,,1900.00,,,,,,,,,,,68.00,SBMT 120100Z 13006KT 100V170 9999 SCT019 20/15 Q1021,
SBMT,2024-03-12 02:00,66.20,59.00,77.60,110.00,9.00,0.00,30.15,,6.21,,FEW,,,,1700.00,,,,,,,,,,,66.20,SBMT 120200Z 11009KT 070V140 9999 FEW017 19/15 Q1021,
SBMT,2024-03-12 09:00,64.40,60.80,88.09,100.00,5.00,0.00,30.12,,6.21,,,,,,,,,,,,,,,,,64.40,SBMT 120900Z 10005KT CAVOK 18/16 Q1020,
SBMT,2024-03-12 10:00,66.20,60.80,82.74,100.00,5.00,0.00,30.15,,6.21,,,,,,,,,,,,,,,,,66.20,SBMT 121000Z 10005KT CAVOK 19/16 Q1021,
SBMT,2024-03-12 11:00,68.00,59.00,72.92,90.00,5.00,0.00,30.15,,6.21,,,,,,,,,,,,,,,,,68.00,SBMT 121100Z 09005KT CAVOK 20/15 Q1021,
SBMT,2024-03-12 12:00,71.60,60.80,68.75,80.00,6.00,0.00,30.15,,6.21,,,,,,,,,,,,,,,,,71.60,SBMT 121200Z 08006KT CAVOK 22/16 Q1021,
SBMT,2024-03-12 13:00,75.20,62.60,64.91,80.00,6.00,0.00,30.15,,6.21,,,,,,,,,,,,,,,,,75.20,SBMT 121300Z 08006KT CAVOK 24/17 Q1021,
SBMT,2024-03-12 14:00,78.80,64.40,61.36,60.00,6.00,0.00,30.12,,6.21,,,,,,,,,,,,,,,,,78.80,SBMT 121400Z 06006KT CAVOK 26/18 Q1020,
SBMT,2024-03-12 15:00,80.60,64.40,57.84,140.00,4.00,0.00,30.12,,6.21,,,,,,,,,,,,,,,,,82.27,SBMT 121500Z 14004KT CAVOK 27/18 Q1020,
SBMT,2024-03-12 16:00,82.40,64.40,54.55,70.00,5.00,0.00,30.09,,6.21,,SCT,,,,3600.00,,,,,,,,,,,83.98,SBMT 121600Z 07005KT 9999 SCT036 28/18 Q1019,
SBMT,2024-03-12 17:00,80.60,66.20,61.58,150.00,10.00,0.00,30.06,,6.21,,SCT,,,,3300.00,,,,,,,,,,,82.75,SBMT 121700Z 15010KT 110V180 9999 SCT033 27/19 Q1018,
SBMT,2024-03-12 18:00,77.00,66.20,69.33,150.00,9.00,0.00,30.06,,4.97,,BKN,,,,2300.00,,,,,,,,,,,77.00,SBMT 121800Z 15009KT 110V200 8000 BKN023 25/19 Q1018,
SBMT,2024-03-12 19:00,73.40,66.20,78.19,150.00,10.00,0.00,30.06,,4.97,,BKN,,,,2300.00,,,,,,,,,,,73.40,SBMT 121900Z 15010KT 120V180 8000 BKN023 23/19 Q1018,
SBMT,2024-03-12 20:00,73.40,66.20,78.19,140.00,9.00,0.00,30.06,,5.59,,BKN,,,,2000.00,,,,,,,,,,,73.40,SBMT 122000Z 14009KT 110V170 9000 BKN020 23/19 Q1018,
SBMT,2024-03-12 21:00,71.60,64.40,78.04,140.00,8.00,0.00,30.06,,6.21,,BKN,,,,1900.00,,,,,,,,,,,71.60,SBMT 122100Z 14008KT 110V170 9999 BKN019 22/18 Q1018,
SBMT,2024-03-12 22:00,69.80,64.40,82.98,150.00,6.00,0.00,30.06,,3.73,,BKN,BKN,,,1500.00,1900.00,,,,,,,,,,69.80,SBMT 122200Z 15006KT 6000 BKN015 BKN019 21/18 Q1018,
SBMT,2024-03-12 23:00,69.80,64.40,82.98,140.00,8.00,0.00,30.09,,3.11,,OVC,,,,1500.00,,,,BR,,,,,,,69.80,SBMT 122300Z 14008KT 5000 BR OVC015 21/18 Q1019,
SBMT,2024-03-13 00:00,69.80,64.40,82.98,120.00,8.00,0.00,30.09,,3.11,,OVC,,,,1300.00,,,,BR,,,,,,,69.80,SBMT 130000Z 12008KT 5000 BR OVC013 21/18 Q1019,
SBMT,2024-03-13 01:00,69.80,64.40,82.98,100.00,7.00,0.00,30.12,,3.73,,OVC,,,,1300.00,,,,,,,,,,,69.80,SBMT 130100Z 10007KT 6000 OVC013 21/18 Q1020,
SBMT,2024-03-13 02:00,69.80,64.40,82.98,100.00,8.00,0.00,30.12,,3.73,,OVC,,,,1300.00,,,,,,,,,,,69.80,SBMT 130200Z 10008KT 6000 OVC013 21/18 Q1020,
SBMT,2024-03-13 09:00,69.80,62.60,77.90,90.00,6.00,0.00,30.09,,3.73,,BKN,,,,1300.00,,,,,,,,,,,69.80,SBMT 130900Z 09006KT 6000 BKN013 21/17 Q1019,
SBMT,2024-03-13 10:00,69.80,62.60,77.90,80.00,4.00,0.00,30.09,,4.35,,BKN,,,,1300.00,,,,,,,,,,,69.80,SBMT 131000Z 08004KT 7000 BKN013 21/17 Q1019,
SBMT,2024-03-13 11:00,71.60,64.40,78.04,90.00,6.00,0.00,30.12,,4.97,,SCT,,,,1300.00,,,,,,,,,,,71.60,SBMT 131100Z 09006KT 8000 SCT013 22/18 Q1020,
SBMT,2024-03-13 12:00,73.40,64.40,73.44,100.00,5.00,0.00,30.12,,6.21,,,,,,,,,,,,,,,,,73.40,SBMT 131200Z 10005KT CAVOK 23/18 Q1020,
SBMT,2024-03-13 13:00,78.80,66.20,65.33,120.00,3.00,0.00,30.12,,6.21,,,,,,,,,,,,,,,,,78.80,SBMT 131300Z 12003KT CAVOK 26/19 Q1020,
SBMT,2024-03-13 14:00,82.40,66.20,58.08,70.00,4.00,0.00,30.09,,6.21,,,,,,,,,,,,,,,,,84.63,SBMT 131400Z 07004KT CAVOK 28/19 Q1019,
SBMT,2024-03-13 15:00,84.20,66.20,54.80,180.00,2.00,0.00,30.06,,6.21,,,,,,,,,,,,,,,,,86.50,SBMT 131500Z 18002KT CAVOK 29/19 Q1018,
SBMT,2024-03-13 16:00,87.80,64.40,45.88,260.00,8.00,0.00,30.03,,6.21,,SCT,,,,4000.00,,,,,,,,,,,89.33,SBMT 131600Z 26008KT 9999 SCT040 31/18 Q1017,
SBMT,2024-03-13 17:00,89.60,66.20,46.14,270.00,7.00,0.00,30.00,,6.21,,BKN,,,,4900.00,,,,,,,,,,,92.27,SBMT 131700Z 27007KT 9999 BKN049 32/19 Q1016,
SBMT,2024-03-13 18:00,82.40,69.80,65.74,180.00,10.00,0.00,30.00,,6.21,,,,,,,,,,,,,,,,,86.22,SBMT 131800Z 18010KT CAVOK 28/21 Q1016,
SBMT,2024-03-13 19:00,78.80,69.80,73.95,160.00,8.00,0.00,30.03,,6.21,,,,,,,,,,,,,,,,,78.80,SBMT 131900Z 16008KT CAVOK 26/21 Q1017,
SBMT,2024-03-13 20:00,77.00,69.80,78.48,140.00,7.00,0.00,30.00,,6.21,,,,,,,,,,,,,,,,,77.00,SBMT 132000Z 14007KT CAVOK 25/21 Q1016,
SBMT,2024-03-13 21:00,75.20,68.00,78.34,150.00,8.00,0.00,30.03,,4.35,,NSC,,,,,,,,,,,,,,,75.20,SBMT 132100Z 15008KT 7000 NSC 24/20 Q1017,
SBMT,2024-03-13 22:00,71.60,68.00,88.43,140.00,5.00,0.00,30.03,,4.35,,NSC,,,,,,,,,,,,,,,71.60,SBMT 132200Z 14005KT 7000 NSC 22/20 Q1017,
SBMT,2024-03-13 23:00,71.60,68.00,88.43,160.00,5.00,0.00,30.06,,4.97,,NSC,,,,,,,,,,,,,,,71.60,SBMT 132300Z 16005KT 8000 NSC 22/20 Q1018,
SBMT,2024-03-14 00:00,71.60,68.00,88.43,130.00,4.00,0.00,30.06,,4.35,,NSC,,,,,,,,,,,,,,,71.60,SBMT 140000Z 13004KT 7000 NSC 22/20 Q1018,
SBMT,2024-03-14 01:00,71.60,68.00,88.43,100.00,4.00,0.00,30.09,,3.11,,NSC,,,,,,,,BR,,,,,,,71.60,SBMT 140100Z 10004KT 5000 BR NSC 22/20 Q1019,
SBMT,2024-03-14 02:00,71.60,68.00,88.43,90.00,5.00,0.00,30.09,,3.11,,NSC,,,,,,,,BR,,,,,,,71.60,SBMT 140200Z 09005KT 5000 BR NSC 22/20 Q1019,
SBMT,2024-03-14 09:00,69.80,68.00,94.01,80.00,4.00,0.00,30.06,,1.55,,OVC,,,,800.00,,,,BR,,,,,,,69.80,SBMT 140900Z 08004KT 2500 BR OVC008 21/20 Q1018,
SBMT,2024-03-14 10:00,69.80,68.00,94.01,100.00,4.00,0.00,30.06,,3.11,,BKN,,,,800.00,,,,BR,,,,,,,69.80,SBMT 141000Z 10004KT 070V130 5000 BR BKN008 21/20 Q1018,
SBMT,2024-03-14 11:00,73.40,68.00,83.21,40.00,4.00,0.00,30.06,,6.21,,,,,,,,,,,,,,,,,73.40,SBMT 141100Z 04004KT CAVOK 23/20 Q1018,
SBMT,2024-03-14 12:00,78.80,69.80,73.95,100.00,3.00,0.00,30.06,,6.21,,,,,,,,,,,,,,,,,78.80,SBMT 141200Z 10003KT CAVOK 26/21 Q1018,
SBMT,2024-03-14 13:00,82.40,68.00,61.81,100.00,3.00,0.00,30.06,,6.21,,,,,,,,,,,,,,,,,85.38,SBMT 141300Z 10003KT CAVOK 28/20 Q1018,
SBMT,2024-03-14 14:00,86.00,68.00,55.04,340.00,6.00,0.00,30.06,,6.21,,FEW,,,,4000.00,,,,,,,,,,,89.41,SBMT 141400Z 34006KT 9999 FEW040 30/20 Q1018,
SBMT,2024-03-14 15:00,87.80,69.80,55.29,310.00,7.00,0.00,30.03,,6.21,,SCT,,,,4000.00,,,,,,,,,,,92.71,SBMT 141500Z 31007KT 9999 SCT040 31/21 Q1017,
SBMT,2024-03-14 16:00,87.80,68.00,51.98,270.00,8.00,0.00,30.03,,6.21,,SCT,,,,4000.00,,,,,,,,,,,91.43,SBMT 141600Z 27008KT 9999 SCT040 31/20 Q1017,
SBMT,2024-03-14 17:00,89.60,62.60,40.69,270.00,9.00,0.00,30.00,,6.21,,,,,,,,,,,,,,,,,90.32,SBMT 141700Z 27009KT 210V320 CAVOK 32/17 Q1016,
SBMT,2024-03-14 18:00,89.60,66.20,46.14,270.00,8.00,0.00,29.97,,6.21,,,,,,,,,,,,,,,,,92.27,SBMT 141800Z 27008KT 240V300 CAVOK 32/19 Q1015,
SBMT,2024-03-14 19:00,91.40,64.40,40.96,240.00,8.00,0.00,29.97,,6.21,,,,,,,,,,,,,,,,,93.19,SBMT 141900Z 24008KT 210V280 CAVOK 33/18 Q1015,
SBMT,2024-03-14 20:00,87.80,68.00,51.98,120.00,5.00,0.00,29.97,,6.21,,,,,,,,,,,,,,,,,91.43,SBMT 142000Z 12005KT 030V200 CAVOK 31/20 Q1015,
SBMT,2024-03-14 21:00,78.80,69.80,73.95,170.00,10.00,0.00,29.97,,6.21,,BKN,,,,4300.00,,,,-RA,,,,,,,78.80,SBMT 142100Z 17010KT 140V200 9999 -RA BKN043 26/21 Q1015,
SBMT,2024-03-14 22:00,80.60,69.80,69.71,110.00,5.00,0.00,30.00,,6.21,,,,,,,,,,,,,,,,,83.90,SBMT 142200Z 11005KT 080V140 CAVOK 27/21 Q1016,
SBMT,2024-03-14 23:00,80.60,68.00,65.54,100.00,4.00,0.00,30.00,,6.21,,,,,,,,,,,,,,,,,83.29,SBMT 142300Z 10004KT CAVOK 27/20 Q1016,
SBMT,2024-03-15 00:00,80.60,68.00,65.54,90.00,5.00,0.00,30.00,,6.21,,,,,,,,,,,,,,,,,83.29,SBMT 150000Z 09005KT CAVOK 27/20 Q1016,
SBMT,2024-03-15 01:00,78.80,66.20,65.33,90.00,5.00,0.00,30.00,,6.21,,,,,,,,,,,,,,,,,78.80,SBMT 150100Z 09005KT CAVOK 26/19 Q1016,
SBMT,2024-03-15 02:00,78.80,66.20,65.33,90.00,4.00,0.00,30.00,,6.21,,,,,,,,,,,,,,,,,78.80,SBMT 150200Z 09004KT CAVOK 26/19 Q1016,
SBMT,2024-03-15 09:00,69.80,66.20,88.34,0.00,0.00,0.00,30.00,,6.21,,,,,,,,,,,,,,,,,69.80,SBMT 150900Z 00000KT CAVOK 21/19 Q1016,
SBMT,2024-03-15 10:00,73.40,68.00,83.21,90.00,3.00,0.00,30.00,,6.21,,,,,,,,,,,,,,,,,73.40,SBMT 151000Z 09003KT CAVOK 23/20 Q1016,
SBMT,2024-03-15 11:00,77.00,69.80,78.48,130.00,2.00,0.00,31.01,,6.21,,,,,,,,,,,,,,,,,77.00,SBMT 151100Z 13002KT CAVOK 25/21 Q1050,
SBMT,2024-03-15 12:00,80.60,68.00,65.54,70.00,3.00,0.00,30.00,,6.21,,,,,,,,,,,,,,,,,83.29,SBMT 151200Z 07003KT CAVOK 27/20 Q1016,
SBMT,2024-03-15 13:00,84.20,66.20,54.80,10.00,6.00,0.00,30.00,,6.21,,,,,,,,,,,,,,,,,86.50,SBMT 151300Z 01006KT CAVOK 29/19 Q1016,
SBMT,2024-03-15 14:00,87.80,66.20,48.84,320.00,7.00,0.00,30.00,,6.21,,FEW,,,,4000.00,,,,,,,,,,,90.31,SBMT 151400Z 32007KT 9999 FEW040 31/19 Q1016,
SBMT,2024-03-15 15:00,89.60,66.20,46.14,330.00,8.00,0.00,29.97,,6.21,,SCT,,,,4000.00,,,,,,,,,,,92.27,SBMT 151500Z 33008KT 9999 SCT040 32/19 Q1015,
SBMT,2024-03-15 16:00,89.60,64.40,43.34,300.00,7.00,0.00,29.94,,6.21,,SCT,,,,4000.00,,,,,,,,,,,91.23,SBMT 151600Z 30007KT 9999 SCT040 32/18 Q1014,
SBMT,2024-03-15 17:00,89.60,60.80,38.18,290.00,7.00,0.00,29.94,,6.21,,,,,,,,,,,,,,,,,89.54,SBMT 151700Z 29007KT 240V360 CAVOK 32/16 Q1014,
SBMT,2024-03-15 18:00,91.40,60.80,36.08,270.00,9.00,0.00,29.91,,6.21,,,,,,,,,,,,,,,,,91.40,SBMT 151800Z 27009KT 220V300 CAVOK 33/16 Q1013,
SBMT,2024-03-15 19:00,91.40,60.80,36.08,310.00,8.00,0.00,29.91,,6.21,,,,,,,,,,,,,,,,,91.40,SBMT 151900Z 31008KT 270V340 CAVOK 33/16 Q1013,
SBMT,2024-03-15 20:00,89.60,62.60,40.69,250.00,7.00,0.00,29.88,,6.21,,,,,,,,,,,,,,,,,90.32,SBMT 152000Z 25007KT CAVOK 32/17 Q1012,
SBMT,2024-03-15 21:00,87.80,64.40,45.88,130.00,8.00,0.00,29.91,,6.21,,,,,,,,,,,,,,,,,89.33,SBMT 152100Z 13008KT CAVOK 31/18 Q1013,
SBMT,2024-03-15 22:00,84.20,66.20,54.80,120.00,7.00,0.00,29.91,,6.21,,,,,,,,,,,,,,,,,86.50,SBMT 152200Z 12007KT 090V150 CAVOK 29/19 Q1013,
SBMT,2024-03-15 23:00,82.40,66.20,58.08,110.00,3.00,0.00,29.94,,6.21,,,,,,,,,,,,,,,,,84.63,SBMT 152300Z 11003KT 060V160 CAVOK 28/19 Q1014,
SBMT,2024-03-16 00:00,82.40,66.20,58.08,80.00,5.00,0.00,29.94,,6.21,,,,,,,,,,,,,,,,,84.63,SBMT 160000Z 08005KT CAVOK 28/19 Q1014,
SBMT,2024-03-16 01:00,80.60,66.20,61.58,90.00,4.00,0.00,29.97,,6.21,,,,,,,,,,,,,,,,,82.75,SBMT 160100Z 09004KT CAVOK 27/19 Q1015,
SBMT,2024-03-16 02:00,80.60,64.40,57.84,90.00,3.00,0.00,29.97,,6.21,,,,,,,,,,,,,,,,,82.27,SBMT 160200Z 09003KT CAVOK 27/18 Q1015,
SBMT,2024-03-16 09:00,73.40,68.00,83.21,110.00,4.00,0.00,29.91,,6.21,,,,,,,,,,,,,,,,,73.40,SBMT 160900Z 11004KT CAVOK 23/20 Q1013,
SBMT,2024-03-16 10:00,73.40,69.80,88.51,110.00,4.00,0.00,29.94,,6.21,,,,,,,,,,,,,,,,,73.40,SBMT 161000Z 11004KT 060V130 CAVOK 23/21 Q1014,
SBMT,2024-03-16 11:00,77.00,69.80,78.48,90.00,3.00,0.00,29.97,,6.21,,,,,,,,,,,,,,,,,77.00,SBMT 161100Z 09003KT CAVOK 25/21 Q1015,
SBMT,2024-03-16 12:00,80.60,68.00,65.54,,3.00,0.00,29.97,,6.21,,,,,,,,,,,,,,,,,83.29,SBMT 161200Z VRB03KT CAVOK 27/20 Q1015,
SBMT,2024-03-16 13:00,86.00,68.00,55.04,,3.00,0.00,29.97,,6.21,,,,,,,,,,,,,,,,,89.41,SBMT 161300Z VRB03KT CAVOK 30/20 Q1015,
SBMT,2024-03-16 14:00,87.80,68.00,51.98,300.00,5.00,0.00,29.94,,6.21,,,,,,,,,,,,,,,,,91.43,SBMT 161400Z 30005KT 230V010 CAVOK 31/20 Q1014,
SBMT,2024-03-16 15:00,89.60,66.20,46.14,320.00,8.00,0.00,29.94,,6.21,,SCT,,,,3500.00,,,,,,,,,,,92.27,SBMT 161500Z 32008KT 260V010 9999 SCT035 32/19 Q1014,
SBMT,2024-03-16 16:00,89.60,66.20,46.14,300.00,9.00,0.00,29.91,,6.21,,SCT,,,,3500.00,,,,,,,,,,,92.27,SBMT 161600Z 30009KT 260V340 9999 SCT035 32/19 Q1013,
SBMT,2024-03-16 17:00,89.60,64.40,43.34,290.00,10.00,0.00,29.88,,6.21,,,,,,,,,,,,,,,,,91.23,SBMT 161700Z 29010KT 250V340 CAVOK 32/18 Q1012,
SBMT,2024-03-16 18:00,89.60,66.20,46.14,290.00,9.00,0.00,29.85,,6.21,,,,,,,,,,,,,,,,,92.27,SBMT 161800Z 29009KT 220V340 CAVOK 32/19 Q1011,
SBMT,2024-03-16 19:00,89.60,66.20,46.14,,6.00,0.00,29.85,,6.21,,,,,,,,,,,,,,,,,92.27,SBMT 161900Z VRB06KT CAVOK 32/19 Q1011,
SBMT,2024-03-16 20:00,89.60,66.20,46.14,270.00,7.00,0.00,29.85,,6.21,,,,,,,,,,,,,,,,,92.27,SBMT 162000Z 27007KT 230V310 CAVOK 32/19 Q1011,
SBMT,2024-03-16 21:00,86.00,66.20,51.72,260.00,6.00,0.00,29.85,,6.21,,,,,,,,,,,,,,,,,88.39,SBMT 162100Z 26006KT CAVOK 30/19 Q1011,
SBMT,2024-03-16 22:00,84.20,66.20,54.80,290.00,4.00,0.00,29.88,,6.21,,,,,,,,,,,,,,,,,86.50,SBMT 162200Z 29004KT CAVOK 29/19 Q1012,
SBMT,2024-03-16 23:00,82.40,66.20,58.08,300.00,3.00,0.00,29.91,,6.21,,,,,,,,,,,,,,,,,84.63,SBMT 162300Z 30003KT CAVOK 28/19 Q1013,
SBMT,2024-03-17 00:00,80.60,68.00,65.54,100.00,2.00,0.00,29.94,,6.21,,,,,,,,,,,,,,,,,83.29,SBMT 170000Z 10002KT CAVOK 27/20 Q1014,
SBMT,2024-03-17 01:00,78.80,68.00,69.52,350.00,2.00,0.00,29.94,,6.21,,,,,,,,,,,,,,,,,78.80,SBMT 170100Z 35002KT CAVOK 26/20 Q1014,
SBMT,2024-03-17 02:00,77.00,68.00,73.78,360.00,1.00,0.00,29.94,,6.21,,,,,,,,,,,,,,,,,77.00,SBMT 170200Z 36001KT CAVOK 25/20 Q1014,
SBMT,2024-03-17 09:00,73.40,69.80,88.51,0.00,0.00,0.00,29.94,,6.21,,,,,,,,,,,,,,,,,73.40,SBMT 170900Z 00000KT CAVOK 23/21 Q1014,
SBMT,2024-03-17 10:00,77.00,69.80,78.48,100.00,3.00,0.00,29.97,,6.21,,,,,,,,,,,,,,,,,77.00,SBMT 171000Z 10003KT CAVOK 25/21 Q1015,
SBMT,2024-03-17 11:00,80.60,66.20,61.58,350.00,3.00,0.00,30.00,,6.21,,,,,,,,,,,,,,,,,82.75,SBMT 171100Z 35003KT CAVOK 27/19 Q1016,
SBMT,2024-03-17 12:00,84.20,68.00,58.32,340.00,5.00,0.00,30.00,,6.21,,,,,,,,,,,,,,,,,87.40,SBMT 171200Z 34005KT CAVOK 29/20 Q1016,
SBMT,2024-03-17 13:00,84.20,66.20,54.80,290.00,8.00,0.00,29.97,,6.21,,,,,,,,,,,,,,,,,86.50,SBMT 171300Z 29008KT CAVOK 29/19 Q1015,
SBMT,2024-03-17 14:00,87.80,68.00,51.98,310.00,8.00,0.00,29.97,,6.21,,,,,,,,,,,,,,,,,91.43,SBMT 171400Z 31008KT CAVOK 31/20 Q1015,
SBMT,2024-03-17 15:00,89.60,66.20,46.14,330.00,9.00,0.00,29.94,,6.21,,SCT,,,,3000.00,,,,,,,,,,,92.27,SBMT 171500Z 33009KT 9999 SCT030 32/19 Q1014,
SBMT,2024-03-17 16:00,91.40,68.00,46.41,320.00,9.00,0.00,29.94,,6.21,,SCT,,,,4000.00,,,,,,,,,,,95.55,SBMT 171600Z 32009KT 9999 SCT040 33/20 Q1014,
SBMT,2024-03-17 17:00,91.40,69.80,49.36,300.00,7.00,0.00,29.91,,6.21,,SCT,,,,4000.00,,,,,,,,,,,96.99,SBMT 171700Z 30007KT 220V020 9999 SCT040 33/21 Q1013,
SBMT,2024-03-17 18:00,91.40,66.20,43.61,280.00,10.00,0.00,29.88,,6.21,,SCT,FEW,,,3500.00,4000.00,,,,,,,,,,94.29,SBMT 171800Z 28010KT 260V320 9999 SCT035 FEW040TCU 33/19 Q1012,
SBMT,2024-03-17 19:00,91.40,68.00,46.41,280.00,8.00,0.00,29.88,,6.21,,BKN,FEW,,,3500.00,4000.00,,,,,,,,,,95.55,SBMT 171900Z 28008KT 230V320 9999 BKN035 FEW040TCU 33/20 Q1012,
SBMT,2024-03-17 20:00,86.00,69.80,58.55,250.00,13.00,0.00,29.91,,6.21,,BKN,FEW,,,3500.00,4000.00,,,,,,,,,,90.58,SBMT 172000Z 25013KT 220V300 9999 BKN035 FEW040TCU 30/21 Q1013,
SBMT,2024-03-17 21:00,82.40,69.80,65.74,310.00,10.00,0.00,29.94,,6.21,,BKN,FEW,,,3500.00,4000.00,,,,,,,,,,86.22,SBMT 172100Z 31010KT 270V350 9999 BKN035 FEW040TCU 28/21 Q1014,
SBMT,2024-03-17 22:00,78.80,69.80,73.95,140.00,9.00,0.00,30.00,,6.21,,SCT,BKN,FEW,,2000.00,3500.00,4000.00,,VCSH,,,,,,,78.80,SBMT 172200Z 14009KT 090V170 9999 VCSH SCT020 BKN035 FEW040TCU 26/21 Q1016,
SBMT,2024-03-17 23:00,77.00,69.80,78.48,130.00,7.00,0.00,30.00,,6.21,,BKN,FEW,,,3500.00,4000.00,,,,,,,,,,77.00,SBMT 172300Z 13007KT 100V170 9999 BKN035 FEW040TCU 25/21 Q1016,
SBMT,2024-03-18 00:00,77.00,69.80,78.48,130.00,4.00,0.00,30.00,,6.21,,SCT,FEW,,,3500.00,4000.00,,,,,,,,,,77.00,SBMT 180000Z 13004KT 100V180 9999 SCT035 FEW040TCU 25/21 Q1016,
SBMT,2024-03-18 01:00,75.20,68.00,78.34,100.00,8.00,0.00,30.03,,6.21,,SCT,FEW,,,3500.00,4000.00,,,,,,,,,,75.20,SBMT 180100Z 10008KT 9999 SCT035 FEW040TCU 24/20 Q1017,
SBMT,2024-03-18 02:00,75.20,68.00,78.34,70.00,6.00,0.00,30.03,,6.21,,SCT,FEW,,,3500.00,4000.00,,,,,,,,,,75.20,SBMT 180200Z 07006KT 9999 SCT035 FEW040TCU 24/20 Q1017,
SBMT,2024-03-18 09:00,71.60,68.00,88.43,80.00,4.00,0.00,30.00,,4.35,,SCT,,,,1200.00,,,,,,,,,,,71.60,SBMT 180900Z 08004KT 7000 SCT012 22/20 Q1016,
SBMT,2024-03-18 10:00,71.60,68.00,88.43,80.00,4.00,0.00,30.00,,4.35,,BKN,,,,1300.00,,,,,,,,,,,71.60,SBMT 181000Z 08004KT 7000 BKN013 22/20 Q1016,
SBMT,2024-03-18 11:00,73.40,69.80,88.51,100.00,5.00,0.00,30.03,,6.21,,,,,,,,,,,,,,,,,73.40,SBMT 181100Z 10005KT CAVOK 23/21 Q1017,
SBMT,2024-03-18 12:00,78.80,68.00,69.52,110.00,3.00,0.00,30.03,,6.21,,,,,,,,,,,,,,,,,78.80,SBMT 181200Z 11003KT CAVOK 26/20 Q1017,
SBMT,2024-03-18 13:00,82.40,68.00,61.81,320.00,2.00,0.00,30.03,,6.21,,,,,,,,,,,,,,,,,85.38,SBMT 181300Z 32002KT CAVOK 28/20 Q1017,
SBMT,2024-03-18 14:00,84.20,68.00,58.32,290.00,3.00,0.00,30.00,,6.21,,,,,,,,,,,,,,,,,87.40,SBMT 181400Z 29003KT CAVOK 29/20 Q1016,
SBMT,2024-03-18 15:00,87.80,68.00,51.98,330.00,6.00,0.00,30.00,,6.21,,SCT,,,,4000.00,,,,,,,,,,,91.43,SBMT 181500Z 33006KT 9999 SCT040 31/20 Q1016,
SBMT,2024-03-18 16:00,87.80,68.00,51.98,310.00,7.00,0.00,29.97,,6.21,,SCT,,,,4000.00,,,,,,,,,,,91.43,SBMT 181600Z 31007KT 9999 SCT040 31/20 Q1015,
SBMT,2024-03-18 17:00,86.00,71.60,62.25,180.00,10.00,0.00,29.94,,4.35,,BKN,,,,4200.00,,,,,,,,,,,91.92,SBMT 181700Z 18010KT 7000 BKN042 30/22 Q1014,
SBMT,2024-03-18 18:00,78.80,71.60,78.62,110.00,10.00,0.00,29.94,,3.73,,FEW,BKN,BKN,,2000.00,3300.00,4900.00,,,,,,,,,78.80,SBMT 181800Z 11010KT 6000 FEW020 BKN033 BKN049 26/22 Q1014,
SBMT,2024-03-18 19:00,73.40,69.80,88.51,80.00,11.00,0.00,29.94,,4.97,,SCT,BKN,BKN,FEW,1500.00,1700.00,2600.00,4200.00,TS,,,,,,,73.40,SBMT 181900Z 08011KT 8000 TS SCT015 BKN017 BKN026 FEW042CB 23/21 Q1014,
SBMT,2024-03-18 20:00,77.00,73.40,88.67,120.00,4.00,0.00,29.94,,0.93,,FEW,SCT,BKN,,900.00,3300.00,4900.00,,BR,,,,,,,77.00,SBMT 182000Z 12004KT 1500 BR FEW009 SCT033 BKN049 25/23 Q1014,
SBMT,2024-03-18 21:00,75.20,71.60,88.59,110.00,7.00,0.00,29.97,,3.73,,SCT,BKN,,,1300.00,1500.00,,,,,,,,,,75.20,SBMT 182100Z 11007KT 6000 SCT013 BKN015 24/22 Q1015,
SBMT,2024-03-18 22:00,75.20,71.60,88.59,120.00,7.00,0.00,29.97,,1.86,,SCT,BKN,,,1100.00,2300.00,,,BR,,,,,,,75.20,SBMT 182200Z 12007KT 3000 BR SCT011 BKN023 24/22 Q1015,
SBMT,2024-03-18 23:00,75.20,71.60,88.59,120.00,6.00,0.00,30.00,,6.21,,BKN,BKN,,,1300.00,1700.00,,,,,,,,,,75.20,SBMT 182300Z 12006KT 9999 BKN013 BKN017 24/22 Q1016,
SBMT,2024-03-19 00:00,75.20,71.60,88.59,90.00,6.00,0.00,30.03,,4.35,,SCT,BKN,,,1100.00,1300.00,,,,,,,,,,75.20,SBMT 190000Z 09006KT 7000 SCT011 BKN013 24/22 Q1017,
SBMT,2024-03-19 01:00,73.40,71.60,94.10,80.00,5.00,0.00,30.03,,3.73,,SCT,BKN,,,1500.00,1700.00,,,,,,,,,,73.40,SBMT 190100Z 08005KT 6000 SCT015 BKN017 23/22 Q1017,
SBMT,2024-03-19 02:00,73.40,69.80,88.51,100.00,4.00,0.00,30.00,,4.97,,NSC,,,,,,,,,,,,,,,73.40,SBMT 190200Z 10004KT 8000 NSC 23/21 Q1016,
SBMT,2024-03-19 09:00,71.60,69.80,94.06,90.00,3.00,0.00,29.97,,3.11,,OVC,,,,900.00,,,,BR,,,,,,,71.60,SBMT 190900Z 09003KT 5000 BR OVC009 22/21 Q1015,
SBMT,2024-03-19 10:00,73.40,69.80,88.51,70.00,3.00,0.00,29.97,,3.73,,SCT,BKN,,,800.00,1300.00,,,,,,,,,,73.40,SBMT 191000Z 07003KT 030V120 6000 SCT008 BKN013 23/21 Q1015,
SBMT,2024-03-19 11:00,73.40,69.80,88.51,90.00,5.00,0.00,30.00,,4.35,,BKN,,,,1300.00,,,,,,,,,,,73.40,SBMT 191100Z 09005KT 7000 BKN013 23/21 Q1016,
SBMT,2024-03-19 12:00,77.00,71.60,83.44,20.00,3.00,0.00,30.00,,6.21,,,,,,,,,,,,,,,,,77.00,SBMT 191200Z 02003KT CAVOK 25/22 Q1016,
SBMT,2024-03-19 13:00,80.60,69.80,69.71,130.00,2.00,0.00,30.00,,6.21,,,,,,,,,,,,,,,,,83.90,SBMT 191300Z 13002KT CAVOK 27/21 Q1016,
SBMT,2024-03-19 14:00,84.20,71.60,65.95,160.00,2.00,0.00,30.00,,6.21,,SCT,,,,4000.00,,,,,,,,,,,89.60,SBMT 191400Z 16002KT 9999 SCT040 29/22 Q1016,
SBMT,2024-03-19 15:00,84.20,69.80,62.03,270.00,3.00,0.00,29.97,,6.21,,SCT,,,,4000.00,,,,,,,,,,,88.43,SBMT 191500Z 27003KT 9999 SCT040 29/21 Q1015,
SBMT,2024-03-19 16:00,87.80,69.80,55.29,250.00,4.00,0.00,29.94,,6.21,,SCT,,,,4000.00,,,,,,,,,,,92.71,SBMT 191600Z 25004KT 9999 SCT040 31/21 Q1014,
SBMT,2024-03-19 17:00,80.60,73.40,78.76,270.00,5.00,0.00,29.91,,6.21,,FEW,BKN,FEW,BKN,2100.00,2600.00,4200.00,5000.00,,,,,,,,85.32,SBMT 191700Z 27005KT 9999 FEW021 BKN026 FEW042TCU BKN050 27/23 Q1013,
SBMT,2024-03-19 18:00,78.80,69.80,73.95,320.00,10.00,0.00,29.88,,6.21,,BKN,,,,4900.00,,,,,,,,,,,78.80,SBMT 191800Z 32010KT 9999 BKN049 26/21 Q1012,
SBMT,2024-03-19 19:00,73.40,71.60,94.10,140.00,8.00,0.00,29.91,,0.06,19.00,SCT,BKN,BKN,FEW,1500.00,2300.00,4000.00,4200.00,+TSRA FG,,,,,,,73.40,SBMT 191900Z 14008G19KT 0100 +TSRA FG SCT015 BKN023 BKN040 FEW042CB 23/22 Q1013,
SBMT,2024-03-19 20:00,75.20,71.60,88.59,80.00,3.00,0.00,29.88,,6.21,,,,,,,,,,,,,,,,,75.20,SBMT 192000Z 08003KT CAVOK 24/22 Q1012 RETS,
SBMT,2024-03-19 21:00,75.20,71.60,88.59,80.00,3.00,0.00,29.91,,3.11,,NSC,,,,,,,,BR,,,,,,,75.20,SBMT 192100Z 08003KT 5000 BR NSC 24/22 Q1013,
SBMT,2024-03-19 22:00,75.20,71.60,88.59,90.00,3.00,0.00,29.91,,6.21,,,,,,,,,,,,,,,,,75.20,SBMT 192200Z 09003KT CAVOK 24/22 Q1013,
SBMT,2024-03-19 23:00,75.20,71.60,88.59,90.00,2.00,0.00,29.94,,6.21,,,,,,,,,,,,,,,,,75.20,SBMT 192300Z 09002KT CAVOK 24/22 Q1014,
SBMT,2024-03-20 00:00,75.20,71.60,88.59,130.00,4.00,0.00,29.97,,6.21,,BKN,,,,2000.00,,,,,,,,,,,75.20,SBMT 200000Z 13004KT 9999 BKN020 24/22 Q1015,
SBMT,2024-03-20 01:00,75.20,69.80,83.32,90.00,3.00,0.00,29.97,,6.21,,SCT,,,,1700.00,,,,,,,,,,,75.20,SBMT 200100Z 09003KT 9999 SCT017 24/21 Q1015,
SBMT,2024-03-20 02:00,73.40,69.80,88.51,70.00,2.00,0.00,29.97,,6.21,,,,,,,,,,,,,,,,,73.40,SBMT 200200Z 07002KT CAVOK 23/21 Q1015,
SBMT,2024-03-20 09:00,69.80,68.00,94.01,170.00,2.00,0.00,29.88,,3.11,,SCT,,,,900.00,,,,BR,,,,,,,69.80,SBMT 200900Z 17002KT 5000 BR SCT009 21/20 Q1012,
SBMT,2024-03-20 10:00,73.40,69.80,88.51,70.00,2.00,0.00,29.91,,4.35,,NSC,,,,,,,,,,,,,,,73.40,SBMT 201000Z 07002KT 7000 NSC 23/21 Q1013,
SBMT,2024-03-20 11:00,75.20,71.60,88.59,90.00,2.00,0.00,29.94,,6.21,,,,,,,,,,,,,,,,,75.20,SBMT 201100Z 09002KT CAVOK 24/22 Q1014,
SBMT,2024-03-20 12:00,78.80,69.80,73.95,360.00,4.00,0.00,29.94,,6.21,,FEW,,,,2000.00,,,,,,,,,,,78.80,SBMT 201200Z 36004KT 9999 FEW020 26/21 Q1014,
SBMT,2024-03-20 13:00,78.80,69.80,73.95,310.00,6.00,0.00,29.94,,6.21,,SCT,,,,2500.00,,,,,,,,,,,78.80,SBMT 201300Z 31006KT 9999 SCT025 26/21 Q1014,
SBMT,2024-03-20 14:00,84.20,69.80,62.03,350.00,3.00,0.00,29.94,,6.21,,FEW,,,,2500.00,,,,,,,,,,,88.43,SBMT 201400Z 35003KT 9999 FEW025 29/21 Q1014,
SBMT,2024-03-20 15:00,84.20,69.80,62.03,330.00,4.00,0.00,29.91,,6.21,,SCT,,,,2500.00,,,,,,,,,,,88.43,SBMT 201500Z 33004KT 9999 SCT025 29/21 Q1013,
SBMT,2024-03-20 16:00,86.00,71.60,62.25,260.00,6.00,0.00,29.88,,6.21,,SCT,,,,3000.00,,,,,,,,,,,91.92,SBMT 201600Z 26006KT 9999 SCT030 30/22 Q1012,
SBMT,2024-03-20 17:00,86.00,66.20,51.72,300.00,6.00,0.00,29.85,,6.21,,,,,,,,,,,,,,,,,88.39,SBMT 201700Z 30006KT 220V350 CAVOK 30/19 Q1011,
SBMT,2024-03-20 18:00,89.60,66.20,46.14,,5.00,0.00,29.83,,6.21,,,,,,,,,,,,,,,,,92.27,SBMT 201800Z VRB05KT CAVOK 32/19 Q1010,
SBMT,2024-03-20 19:00,87.80,64.40,45.88,300.00,6.00,0.00,29.83,,6.21,,,,,,,,,,,,,,,,,89.33,SBMT 201900Z 30006KT 240V340 CAVOK 31/18 Q1010,
SBMT,2024-03-20 20:00,87.80,66.20,48.84,280.00,6.00,0.00,29.83,,6.21,,BKN,FEW,,,5000.00,5300.00,,,,,,,,,,90.31,SBMT 202000Z 28006KT 200V360 9999 BKN050 FEW053TCU 31/19 Q1010,
SBMT,2024-03-20 21:00,80.60,71.60,74.11,110.00,7.00,0.00,29.83,,4.35,,BKN,FEW,,,5000.00,5300.00,,,,,,,,,,84.57,SBMT 202100Z 11007KT 7000 BKN050 FEW053TCU 27/22 Q1010,
SBMT,2024-03-20 22:00,78.80,69.80,73.95,100.00,5.00,0.00,29.85,,4.97,,SCT,FEW,,,4600.00,5000.00,,,,,,,,,,78.80,SBMT 202200Z 10005KT 050V120 8000 SCT046 FEW050TCU 26/21 Q1011,
SBMT,2024-03-20 23:00,78.80,69.80,73.95,90.00,3.00,0.00,29.88,,6.21,,,,,,,,,,,,,,,,,78.80,SBMT 202300Z 09003KT 020V120 CAVOK 26/21 Q1012,
SBMT,2024-03-21 00:00,78.80,69.80,73.95,100.00,6.00,0.00,29.91,,6.21,,,,,,,,,,,,,,,,,78.80,SBMT 210000Z 10006KT CAVOK 26/21 Q1013,
SBMT,2024-03-21 01:00,77.00,69.80,78.48,100.00,4.00,0.00,29.94,,6.21,,,,,,,,,,,,,,,,,77.00,SBMT 210100Z 10004KT CAVOK 25/21 Q1014,
SBMT,2024-03-21 02:00,77.00,69.80,78.48,90.00,6.00,0.00,29.94,,6.21,,,,,,,,,,,,,,,,,77.00,SBMT 210200Z 09006KT CAVOK 25/21 Q1014,
SBMT,2024-03-21 09:00,75.20,68.00,78.34,340.00,5.00,0.00,29.88,,6.21,,,,,,,,,,,,,,,,,75.20,SBMT 210900Z 34005KT CAVOK 24/20 Q1012,
SBMT,2024-03-21 10:00,75.20,69.80,83.32,340.00,4.00,0.00,29.88,,6.21,,,,,,,,,,,,,,,,,75.20,SBMT 211000Z 34004KT CAVOK 24/21 Q1012,
SBMT,2024-03-21 11:00,78.80,69.80,73.95,340.00,5.00,0.00,29.91,,6.21,,,,,,,,,,,,,,,,,78.80,SBMT 211100Z 34005KT CAVOK 26/21 Q1013,
SBMT,2024-03-21 12:00,80.60,68.00,65.54,320.00,6.00,0.00,29.91,,6.21,,,,,,,,,,,,,,,,,83.29,SBMT 211200Z 32006KT CAVOK 27/20 Q1013,
SBMT,2024-03-21 13:00,82.40,71.60,69.90,300.00,10.00,0.00,29.91,,6.21,,FEW,,,,2500.00,,,,,,,,,,,87.18,SBMT 211300Z 30010KT 9999 FEW025 28/22 Q1013,
SBMT,2024-03-21 14:00,84.20,68.00,58.32,310.00,12.00,0.00,29.91,,6.21,,SCT,,,,3000.00,,,,,,,,,,,87.40,SBMT 211400Z 31012KT 9999 SCT030 29/20 Q1013,
SBMT,2024-03-21 15:00,86.00,69.80,58.55,320.00,11.00,0.00,29.91,,6.21,,SCT,,,,3500.00,,,,,,,,,,,90.58,SBMT 211500Z 32011KT 9999 SCT035 30/21 Q1013,
SBMT,2024-03-21 16:00,87.80,69.80,55.29,300.00,9.00,0.00,29.88,,6.21,,SCT,,,,4000.00,,,,,,,,,,,92.71,SBMT 211600Z 30009KT 9999 SCT040 31/21 Q1012,
SBMT,2024-03-21 17:00,87.80,68.00,51.98,300.00,11.00,0.00,29.85,,6.21,21.00,SCT,,,,4000.00,,,,,,,,,,,91.43,SBMT 211700Z 30011G21KT 260V350 9999 SCT040 31/20 Q1011,
SBMT,2024-03-21 18:00,87.80,68.00,51.98,320.00,11.00,0.00,29.83,,6.21,,SCT,,,,4000.00,,,,,,,,,,,91.43,SBMT 211800Z 32011KT 270V010 9999 SCT040 31/20 Q1010,
SBMT,2024-03-21 19:00,87.80,68.00,51.98,330.00,8.00,0.00,29.83,,6.21,,SCT,,,,4000.00,,,,,,,,,,,91.43,SBMT 211900Z 33008KT 280V360 9999 SCT040 31/20 Q1010,
SBMT,2024-03-21 20:00,87.80,68.00,51.98,300.00,7.00,0.00,29.85,,6.21,,SCT,,,,4000.00,,,,,,,,,,,91.43,SBMT 212000Z 30007KT 240V330 9999 SCT040 31/20 Q1011,
SBMT,2024-03-21 21:00,86.00,68.00,55.04,300.00,8.00,0.00,29.85,,6.21,,SCT,,,,4000.00,,,,,,,,,,,89.41,SBMT 212100Z 30008KT 9999 SCT040 30/20 Q1011,
SBMT,2024-03-21 22:00,84.20,68.00,58.32,300.00,4.00,0.00,29.88,,6.21,,SCT,,,,4000.00,,,,,,,,,,,87.40,SBMT 212200Z 30004KT 260V350 9999 SCT040 29/20 Q1012,
SBMT,2024-03-21 23:00,82.40,66.20,58.08,270.00,11.00,0.00,29.91,,6.21,,SCT,,,,4000.00,,,,,,,,,,,84.63,SBMT 212300Z 27011KT 9999 SCT040 28/19 Q1013,
SBMT,2024-03-22 00:00,75.20,69.80,83.32,210.00,7.00,0.00,29.97,,6.21,,BKN,,,,2000.00,,,,,,,,,,,75.20,SBMT 220000Z 21007KT 170V280 9999 BKN020 24/21 Q1015,
SBMT,2024-03-22 01:00,73.40,69.80,88.51,270.00,4.00,0.00,30.00,,6.21,,BKN,,,,1900.00,,,,,,,,,,,73.40,SBMT 220100Z 27004KT 210V320 9999 BKN019 23/21 Q1016,
SBMT,2024-03-22 02:00,73.40,69.80,88.51,0.00,0.00,0.00,29.97,,6.21,,SCT,BKN,,,1500.00,1900.00,,,,,,,,,,73.40,SBMT 220200Z 00000KT 9999 SCT015 BKN019 23/21 Q1015,
SBMT,2024-03-22 09:00,69.80,66.20,88.34,150.00,6.00,0.00,30.03,,0.62,,SCT,BKN,,,900.00,1100.00,,,RA BR,,,,,,,69.80,SBMT 220900Z 15006KT 1000 RA BR SCT009 BKN011 21/19 Q1017,
SBMT,2024-03-22 10:00,68.00,68.00,100.00,140.00,3.00,0.00,30.06,,0.62,,SCT,BKN,BKN,,800.00,900.00,1100.00,,RA BR,,,,,,,68.00,SBMT 221000Z 14003KT 1000 RA BR SCT008 BKN009 BKN011 20/20 Q1018,
SBMT,2024-03-22 11:00,69.80,66.20,88.34,120.00,7.00,0.00,30.09,,3.73,,SCT,BKN,,,900.00,1100.00,,,,,,,,,,69.80,SBMT 221100Z 12007KT 6000 SCT009 BKN011 21/19 Q1019 RERA,
SBMT,2024-03-22 12:00,69.80,68.00,94.01,130.00,5.00,0.00,30.12,,3.73,,SCT,BKN,,,900.00,1100.00,,,,,,,,,,69.80,SBMT 221200Z 13005KT 6000 SCT009 BKN011 21/20 Q1020,
SBMT,2024-03-22 13:00,69.80,66.20,88.34,150.00,6.00,0.00,30.12,,3.73,,SCT,BKN,,,900.00,1100.00,,,-DZ,,,,,,,69.80,SBMT 221300Z 15006KT 6000 -DZ SCT009 BKN011 21/19 Q1020,
SBMT,2024-03-22 14:00,69.80,66.20,88.34,150.00,10.00,0.00,30.15,,1.24,,BKN,BKN,,,1000.00,1700.00,,,DZ,,,,,,,69.80,SBMT 221400Z 15010KT 2000 DZ BKN010 BKN017 21/19 Q1021,
SBMT,2024-03-22 15:00,68.00,66.20,93.97,150.00,8.00,0.00,30.15,,0.62,,BKN,BKN,,,900.00,1100.00,,,-RA,,,,,,,68.00,SBMT 221500Z 15008KT 1000 -RA BKN009 BKN011 20/19 Q1021 REDZ,
SBMT,2024-03-22 16:00,68.00,64.40,88.26,140.00,10.00,0.00,30.15,,6.21,,SCT,BKN,,,1100.00,1300.00,,,,,,,,,,68.00,SBMT 221600Z 14010KT 9999 SCT011 BKN013 20/18 Q1021,
SBMT,2024-03-22 17:00,69.80,62.60,77.90,150.00,10.00,0.00,30.12,,6.21,,SCT,BKN,,,1500.00,1900.00,,,,,,,,,,69.80,SBMT 221700Z 15010KT 100V200 9999 SCT015 BKN019 21/17 Q1020,
SBMT,2024-03-22 18:00,68.00,64.40,88.26,130.00,11.00,0.00,30.12,,3.11,,SCT,BKN,BKN,,1100.00,1300.00,1500.00,,-DZ BR,,,,,,,68.00,SBMT 221800Z 13011KT 100V160 5000 -DZ BR SCT011 BKN013 BKN015 20/18 Q1020,
SBMT,2024-03-22 19:00,68.00,60.80,77.75,140.00,10.00,0.00,30.12,,4.97,,SCT,BKN,BKN,,1100.00,1300.00,1500.00,,-DZ,,,,,,,68.00,SBMT 221900Z 14010KT 100V170 8000 -DZ SCT011 BKN013 BKN015 20/16 Q1020,
SBMT,2024-03-22 20:00,66.20,60.80,82.74,120.00,9.00,0.00,30.15,,4.97,,FEW,BKN,BKN,,1300.00,1500.00,1700.00,,,,,,,,,66.20,SBMT 222000Z 12009KT 090V150 8000 FEW013 BKN015 BKN017 19/16 Q1021,
SBMT,2024-03-22 21:00,66.20,62.60,88.18,120.00,8.00,0.00,30.15,,4.97,,SCT,BKN,,,900.00,1300.00,,,-DZ,,,,,,,66.20,SBMT 222100Z 12008KT 090V150 8000 -DZ SCT009 BKN013 19/17 Q1021,
SBMT,2024-03-22 22:00,64.40,62.60,93.88,120.00,12.00,0.00,30.18,,4.35,22.00,SCT,BKN,,,900.00,1100.00,,,-DZ,,,,,,,64.40,SBMT 222200Z 12012G22KT 090V150 7000 -DZ SCT009 BKN011 18/17 Q1022,
SBMT,2024-03-22 23:00,64.40,60.80,88.09,130.00,11.00,0.00,30.18,,3.11,,BKN,BKN,,,900.00,1100.00,,,-RA BR,,,,,,,64.40,SBMT 222300Z 13011KT 090V150 5000 -RA BR BKN009 BKN011 18/16 Q1022,
SBMT,2024-03-23 00:00,62.60,60.80,93.83,130.00,11.00,0.00,30.21,,3.11,,BKN,BKN,,,900.00,1100.00,,,-RA BR,,,,,,,62.60,SBMT 230000Z 13011KT 100V160 5000 -RA BR BKN009 BKN011 17/16 Q1023,
SBMT,2024-03-23 01:00,64.40,59.00,82.62,120.00,9.00,0.00,30.21,,6.21,,SCT,SCT,,,1500.00,1700.00,,,,,,,,,,64.40,SBMT 230100Z 12009KT 9999 SCT015 SCT017 18/15 Q1023,
SBMT,2024-03-23 02:00,64.40,59.00,82.62,120.00,7.00,0.00,30.21,,4.97,,SCT,SCT,,,1500.00,1700.00,,,,,,,,,,64.40,SBMT 230200Z 12007KT 8000 SCT015 SCT017 18/15 Q1023,
SBMT,2024-03-23 09:00,64.40,60.80,88.09,130.00,2.00,0.00,30.15,,3.11,,BKN,BKN,,,1300.00,2500.00,,,BR,,,,,,,64.40,SBMT 230900Z 13002KT 5000 BR BKN013 BKN025 18/16 Q1021,
SBMT,2024-03-23 10:00,64.40,60.80,88.09,120.00,11.00,0.00,30.18,,3.11,,BKN,BKN,,,1300.00,2000.00,,,BR,,,,,,,64.40,SBMT 231000Z 12011KT 5000 BR BKN013 BKN020 18/16 Q1022,
SBMT,2024-03-23 11:00,64.40,59.00,82.62,120.00,2.00,0.00,30.18,,3.11,,BKN,SCT,,,1300.00,2000.00,,,BR,,,,,,,64.40,SBMT 231100Z 12002KT 5000 BR BKN013 SCT020 18/15 Q1022,
SBMT,2024-03-23 12:00,64.40,55.40,72.56,100.00,12.00,0.00,30.21,,3.73,,BKN,,,,1300.00,,,,,,,,,,,64.40,SBMT 231200Z 10012KT 6000 BKN013 18/13 Q1023,
SBMT,2024-03-23 13:00,64.40,57.20,77.45,110.00,13.00,0.00,30.21,,4.97,,FEW,BKN,,,2000.00,4000.00,,,,,,,,,,64.40,SBMT 231300Z 11013KT 8000 FEW020 BKN040 18/14 Q1023,
SBMT,2024-03-23 14:00,64.40,59.00,82.62,120.00,10.00,0.00,30.21,,3.11,,BKN,,,,1500.00,,,,HZ,,,,,,,64.40,SBMT 231400Z 12010KT 5000 HZ BKN015 18/15 Q1023,
SBMT,2024-03-23 15:00,64.40,60.80,88.09,100.00,9.00,0.00,30.21,,1.86,,BKN,BKN,,,900.00,1500.00,,,-RA,,,,,,,64.40,SBMT 231500Z 10009KT 3000 -RA BKN009 BKN015 18/16 Q1023,
SBMT,2024-03-23 16:00,64.40,59.00,82.62,110.00,9.00,0.00,30.18,,2.49,,BKN,BKN,,,1300.00,2000.00,,,-RA,,,,,,,64.40,SBMT 231600Z 11009KT 4000 -RA BKN013 BKN020 18/15 Q1022,
SBMT,2024-03-23 17:00,64.40,62.60,93.88,100.00,9.00,0.00,30.18,,3.73,,SCT,BKN,BKN,,900.00,1300.00,2000.00,,,,,,,,,64.40,SBMT 231700Z 10009KT 6000 SCT009 BKN013 BKN020 18/17 Q1022,
SBMT,2024-03-23 18:00,64.40,62.60,93.88,140.00,7.00,0.00,30.15,,2.49,,SCT,BKN,,,900.00,1100.00,,,-RA,,,,,,,64.40,SBMT 231800Z 14007KT 4000 -RA SCT009 BKN011 18/17 Q1021,
SBMT,2024-03-23 19:00,64.40,60.80,88.09,120.00,7.00,0.00,30.15,,2.49,,BKN,BKN,,,1100.00,1500.00,,,-RA BR,,,,,,,64.40,SBMT 231900Z 12007KT 4000 -RA BR BKN011 BKN015 18/16 Q1021,
SBMT,2024-03-23 20:00,62.60,60.80,93.83,100.00,7.00,0.00,30.15,,1.86,,BKN,BKN,,,1100.00,1700.00,,,-RA BR,,,,,,,62.60,SBMT 232000Z 10007KT 3000 -RA BR BKN011 BKN017 17/16 Q1021,
SBMT,2024-03-23 21:00,62.60,60.80,93.83,110.00,8.00,0.00,30.18,,4.35,,BKN,BKN,,,1100.00,1700.00,,,-DZ,,,,,,,62.60,SBMT 232100Z 11008KT 7000 -DZ BKN011 BKN017 17/16 Q1022,
SBMT,2024-03-23 22:00,62.60,60.80,93.83,110.00,9.00,0.00,30.18,,6.21,,BKN,BKN,,,1100.00,1700.00,,,,,,,,,,62.60,SBMT 232200Z 11009KT 9999 BKN011 BKN017 17/16 Q1022,
SBMT,2024-03-23 23:00,62.60,60.80,93.83,110.00,8.00,0.00,30.18,,6.21,,BKN,,,,1100.00,,,,,,,,,,,62.60,SBMT 232300Z 11008KT 9999 BKN011 17/16 Q1022,
SBMT,2024-03-24 00:00,62.60,59.00,88.00,110.00,9.00,0.00,30.21,,6.21,,BKN,,,,1300.00,,,,,,,,,,,62.60,SBMT 240000Z 11009KT 9999 BKN013 17/15 Q1023,
SBMT,2024-03-24 01:00,62.60,60.80,93.83,100.00,6.00,0.00,30.21,,6.21,,SCT,BKN,,,900.00,1300.00,,,-RA,,,,,,,62.60,SBMT 240100Z 10006KT 9999 -RA SCT009 BKN013 17/16 Q1023,
SBMT,2024-03-24 02:00,62.60,60.80,93.83,110.00,6.00,0.00,30.21,,6.21,,BKN,,,,900.00,,,,,,,,,,,62.60,SBMT 240200Z 11006KT 9999 BKN009 17/16 Q1023,
SBMT,2024-03-24 09:00,62.60,60.80,93.83,110.00,5.00,0.00,30.12,,3.11,,BKN,,,,800.00,,,,-RA,,,,,,,62.60,SBMT 240900Z 11005KT 5000 -RA BKN008 17/16 Q1020,
SBMT,2024-03-24 10:00,62.60,60.80,93.83,110.00,4.00,0.00,30.12,,3.11,,BKN,,,,700.00,,,,-RA,,,,,,,62.60,SBMT 241000Z 11004KT 5000 -RA BKN007 17/16 Q1020,
SBMT,2024-03-24 11:00,62.60,60.80,93.83,80.00,5.00,0.00,30.12,,3.11,,BKN,BKN,,,700.00,2000.00,,,-RA,,,,,,,62.60,SBMT 241100Z 08005KT 5000 -RA BKN007 BKN020 17/16 Q1020,
SBMT,2024-03-24 12:00,64.40,60.80,88.09,100.00,5.00,0.00,30.15,,4.97,,BKN,,,,800.00,,,,,,,,,,,64.40,SBMT 241200Z 10005KT 8000 BKN008 18/16 Q1021 RERA,
SBMT,2024-03-24 13:00,66.20,60.80,82.74,90.00,8.00,0.00,30.15,,6.21,,BKN,,,,1000.00,,,,,,,,,,,66.20,SBMT 241300Z 09008KT 9999 BKN010 19/16 Q1021,
SBMT,2024-03-24 14:00,68.00,60.80,77.75,90.00,8.00,0.00,30.15,,6.21,,BKN,,,,1200.00,,,,,,,,,,,68.00,SBMT 241400Z 09008KT 9999 BKN012 20/16 Q1021,
SBMT,2024-03-24 15:00,69.80,60.80,73.09,70.00,6.00,0.00,30.12,,6.21,,BKN,,,,2000.00,,,,,,,,,,,69.80,SBMT 241500Z 07006KT 9999 BKN020 21/16 Q1020,
SBMT,2024-03-24 16:00,69.80,60.80,73.09,60.00,6.00,0.00,30.09,,6.21,,BKN,,,,2000.00,,,,,,,,,,,69.80,SBMT 241600Z 06006KT 9999 BKN020 21/16 Q1019,
SBMT,2024-03-24 17:00,71.60,64.40,78.04,70.00,5.00,0.00,30.06,,6.21,,BKN,,,,2000.00,,,,,,,,,,,71.60,SBMT 241700Z 07005KT 9999 BKN020 22/18 Q1018,
SBMT,2024-03-24 18:00,71.60,64.40,78.04,100.00,6.00,0.00,30.06,,6.21,,BKN,,,,2000.00,,,,,,,,,,,71.60,SBMT 241800Z 10006KT 9999 BKN020 22/18 Q1018,
SBMT,2024-03-24 19:00,73.40,64.40,73.44,90.00,6.00,0.00,30.06,,6.21,,BKN,,,,2000.00,,,,,,,,,,,73.40,SBMT 241900Z 09006KT 9999 BKN020 23/18 Q1018,
SBMT,2024-03-24 20:00,73.40,64.40,73.44,120.00,5.00,0.00,30.06,,6.21,,BKN,,,,2000.00,,,,,,,,,,,73.40,SBMT 242000Z 12005KT 9999 BKN020 23/18 Q1018,
SBMT,2024-03-24 21:00,69.80,64.40,82.98,150.00,5.00,0.00,30.06,,6.21,,SCT,BKN,,,1500.00,2000.00,,,,,,,,,,69.80,SBMT 242100Z 15005KT 9999 SCT015 BKN020 21/18 Q1018,
SBMT,2024-03-24 22:00,68.00,64.40,88.26,130.00,8.00,0.00,30.06,,6.21,,SCT,BKN,,,1300.00,1500.00,,,,,,,,,,68.00,SBMT 242200Z 13008KT 9999 SCT013 BKN015 20/18 Q1018,
SBMT,2024-03-24 23:00,68.00,64.40,88.26,130.00,6.00,0.00,30.09,,6.21,,SCT,BKN,,,1100.00,1500.00,,,,,,,,,,68.00,SBMT 242300Z 13006KT 9999 SCT011 BKN015 20/18 Q1019,
SBMT,2024-03-25 00:00,68.00,64.40,88.26,100.00,6.00,0.00,30.09,,6.21,,SCT,BKN,,,1100.00,1300.00,,,,,,,,,,68.00,SBMT 250000Z 10006KT 9999 SCT011 BKN013 20/18 Q1019,
SBMT,2024-03-25 01:00,68.00,64.40,88.26,110.00,7.00,0.00,30.09,,6.21,,SCT,BKN,,,1100.00,1300.00,,,,,,,,,,68.00,SBMT 250100Z 11007KT 9999 SCT011 BKN013 20/18 Q1019,
SBMT,2024-03-25 02:00,68.00,64.40,88.26,120.00,7.00,0.00,30.09,,6.21,,BKN,BKN,,,1100.00,1300.00,,,,,,,,,,68.00,SBMT 250200Z 12007KT 9999 BKN011 BKN013 20/18 Q1019,
SBMT,2024-03-25 09:00,64.40,62.60,93.88,90.00,3.00,0.00,30.00,,6.21,,,,,,,,,,,,,,,,,64.40,SBMT 250900Z 09003KT CAVOK 18/17 Q1016,
SBMT,2024-03-25 10:00,66.20,62.60,88.18,110.00,6.00,0.00,30.03,,6.21,,SCT,,,,800.00,,,,,,,,,,,66.20,SBMT 251000Z 11006KT 9999 SCT008 19/17 Q1017,
SBMT,2024-03-25 11:00,69.80,64.40,82.98,80.00,4.00,0.00,30.03,,6.21,,SCT,,,,1300.00,,,,,,,,,,,69.80,SBMT 251100Z 08004KT 9999 SCT013 21/18 Q1017,
SBMT,2024-03-25 12:00,71.60,64.40,78.04,90.00,6.00,0.00,30.06,,6.21,,FEW,SCT,,,1300.00,1500.00,,,,,,,,,,71.60,SBMT 251200Z 09006KT 9999 FEW013 SCT015 22/18 Q1018,
SBMT,2024-03-25 13:00,73.40,62.60,68.94,80.00,5.00,0.00,30.06,,6.21,,BKN,,,,2500.00,,,,,,,,,,,73.40,SBMT 251300Z 08005KT 9999 BKN025 23/17 Q1018,
SBMT,2024-03-25 14:00,75.20,64.40,69.14,120.00,5.00,0.00,30.06,,6.21,,FEW,SCT,,,2500.00,4000.00,,,,,,,,,,75.20,SBMT 251400Z 12005KT 9999 FEW025 SCT040 24/18 Q1018,
SBMT,2024-03-25 15:00,77.00,64.40,65.12,100.00,5.00,0.00,30.03,,6.21,,BKN,,,,4000.00,,,,,,,,,,,77.00,SBMT 251500Z 10005KT 9999 BKN040 25/18 Q1017,
SBMT,2024-03-25 16:00,77.00,64.40,65.12,180.00,6.00,0.00,30.00,,6.21,,BKN,,,,4000.00,,,,,,,,,,,77.00,SBMT 251600Z 18006KT 140V230 9999 BKN040 25/18 Q1016,
SBMT,2024-03-25 17:00,78.80,60.80,54.05,130.00,4.00,0.00,29.97,,6.21,,SCT,,,,3600.00,,,,,,,,,,,78.80,SBMT 251700Z 13004KT 090V190 9999 SCT036 26/16 Q1015,
SBMT,2024-03-25 18:00,78.80,64.40,61.36,130.00,5.00,0.00,29.94,,6.21,,SCT,,,,3600.00,,,,,,,,,,,78.80,SBMT 251800Z 13005KT 030V160 9999 SCT036 26/18 Q1014,
SBMT,2024-03-25 19:00,78.80,64.40,61.36,130.00,10.00,0.00,29.94,,6.21,,BKN,,,,4000.00,,,,,,,,,,,78.80,SBMT 251900Z 13010KT 100V170 9999 BKN040 26/18 Q1014,
SBMT,2024-03-25 20:00,75.20,64.40,69.14,140.00,9.00,0.00,29.94,,6.21,,BKN,,,,3000.00,,,,,,,,,,,75.20,SBMT 252000Z 14009KT 100V210 9999 BKN030 24/18 Q1014,
SBMT,2024-03-25 21:00,71.60,62.60,73.27,150.00,9.00,0.00,29.97,,4.97,,BKN,,,,1900.00,,,,,,,,,,,71.60,SBMT 252100Z 15009KT 120V180 8000 BKN019 22/17 Q1015,
SBMT,2024-03-25 22:00,69.80,62.60,77.90,150.00,7.00,0.00,30.00,,6.21,,BKN,,,,1300.00,,,,,,,,,,,69.80,SBMT 252200Z 15007KT 110V180 9999 BKN013 21/17 Q1016,
SBMT,2024-03-25 23:00,69.80,64.40,82.98,130.00,7.00,0.00,30.03,,6.21,,BKN,,,,1400.00,,,,,,,,,,,69.80,SBMT 252300Z 13007KT 100V170 9999 BKN014 21/18 Q1017,
SBMT,2024-03-26 00:00,69.80,64.40,82.98,130.00,6.00,0.00,30.06,,6.21,,BKN,,,,1600.00,,,,,,,,,,,69.80,SBMT 260000Z 13006KT 100V170 9999 BKN016 21/18 Q1018,
SBMT,2024-03-26 01:00,69.80,64.40,82.98,100.00,7.00,0.00,30.06,,6.21,,BKN,,,,1600.00,,,,,,,,,,,69.80,SBMT 260100Z 10007KT 070V150 9999 BKN016 21/18 Q1018,
SBMT,2024-03-26 02:00,68.00,62.60,82.86,140.00,5.00,0.00,30.06,,6.21,,SCT,,,,1700.00,,,,,,,,,,,68.00,SBMT 260200Z 14005KT 110V180 9999 SCT017 20/17 Q1018,
SBMT,2024-03-26 09:00,64.40,60.80,88.09,120.00,3.00,0.00,30.03,,6.21,,,,,,,,,,,,,,,,,64.40,SBMT 260900Z 12003KT CAVOK 18/16 Q1017,
SBMT,2024-03-26 10:00,64.40,62.60,93.88,110.00,2.00,0.00,30.03,,6.21,,,,,,,,,,,,,,,,,64.40,SBMT 261000Z 11002KT CAVOK 18/17 Q1017,
SBMT,2024-03-26 11:00,68.00,62.60,82.86,100.00,5.00,0.00,30.06,,6.21,,,,,,,,,,,,,,,,,68.00,SBMT 261100Z 10005KT CAVOK 20/17 Q1018,
SBMT,2024-03-26 12:00,71.60,62.60,73.27,90.00,6.00,0.00,30.09,,6.21,,,,,,,,,,,,,,,,,71.60,SBMT 261200Z 09006KT 050V130 CAVOK 22/17 Q1019,
SBMT,2024-03-26 13:00,73.40,62.60,68.94,120.00,6.00,0.00,30.09,,6.21,,FEW,,,,2500.00,,,,,,,,,,,73.40,SBMT 261300Z 12006KT 070V190 9999 FEW025 23/17 Q1019,
SBMT,2024-03-26 14:00,75.20,62.60,64.91,,5.00,0.00,30.09,,6.21,,SCT,,,,3000.00,,,,,,,,,,,75.20,SBMT 261400Z VRB05KT 9999 SCT030 24/17 Q1019,
SBMT,2024-03-26 15:00,77.00,60.80,57.36,140.00,3.00,0.00,30.09,,6.21,,BKN,,,,3000.00,,,,,,,,,,,77.00,SBMT 261500Z 14003KT 080V200 9999 BKN030 25/16 Q1019,
SBMT,2024-03-26 16:00,75.20,62.60,64.91,140.00,7.00,0.00,30.06,,6.21,,BKN,BKN,,,3000.00,4500.00,,,,,,,,,,75.20,SBMT 261600Z 14007KT 110V190 9999 BKN030 BKN045 24/17 Q1018,
SBMT,2024-03-26 17:00,73.40,62.60,68.94,130.00,10.00,0.00,30.06,,6.21,,BKN,BKN,,,2600.00,4900.00,,,,,,,,,,73.40,SBMT 261700Z 13010KT 9999 BKN026 BKN049 23/17 Q1018,
SBMT,2024-03-26 18:00,73.40,62.60,68.94,130.00,9.00,0.00,30.06,,6.21,,BKN,BKN,,,3300.00,4900.00,,,,,,,,,,73.40,SBMT 261800Z 13009KT 9999 BKN033 BKN049 23/17 Q1018,
SBMT,2024-03-26 19:00,71.60,64.40,78.04,150.00,10.00,0.00,30.06,,6.21,,SCT,BKN,,,1700.00,1900.00,,,,,,,,,,71.60,SBMT 261900Z 15010KT 9999 SCT017 BKN019 22/18 Q1018,
SBMT,2024-03-26 20:00,69.80,62.60,77.90,130.00,9.00,0.00,30.06,,6.21,,BKN,BKN,,,1700.00,2000.00,,,,,,,,,,69.80,SBMT 262000Z 13009KT 9999 BKN017 BKN020 21/17 Q1018,
SBMT,2024-03-26 21:00,68.00,62.60,82.86,160.00,8.00,0.00,30.06,,4.97,,BKN,BKN,,,1500.00,1700.00,,,,,,,,,,68.00,SBMT 262100Z 16008KT 8000 BKN015 BKN017 20/17 Q1018,
SBMT,2024-03-26 22:00,68.00,62.60,82.86,140.00,8.00,0.00,30.09,,6.21,,BKN,BKN,,,1500.00,2000.00,,,,,,,,,,68.00,SBMT 262200Z 14008KT 9999 BKN015 BKN020 20/17 Q1019,
SBMT,2024-03-26 23:00,68.00,62.60,82.86,130.00,10.00,0.00,30.09,,4.35,,BKN,,,,1500.00,,,,,,,,,,,68.00,SBMT 262300Z 13010KT 7000 BKN015 20/17 Q1019,
SBMT,2024-03-27 00:00,68.00,62.60,82.86,100.00,6.00,0.00,30.12,,6.21,,SCT,BKN,,,1500.00,1700.00,,,,,,,,,,68.00,SBMT 270000Z 10006KT 9999 SCT015 BKN017 20/17 Q1020,
SBMT,2024-03-27 01:00,68.00,62.60,82.86,100.00,7.00,0.00,30.12,,6.21,,SCT,BKN,,,1500.00,1700.00,,,,,,,,,,68.00,SBMT 270100Z 10007KT 9999 SCT015 BKN017 20/17 Q1020,
SBMT,2024-03-27 02:00,66.20,62.60,88.18,100.00,9.00,0.00,30.12,,6.21,,SCT,BKN,,,1100.00,1300.00,,,,,,,,,,66.20,SBMT 270200Z 10009KT 9999 SCT011 BKN013 19/17 Q1020,
SBMT,2024-03-27 09:00,66.20,60.80,82.74,100.00,7.00,0.00,30.12,,6.21,,FEW,BKN,,,1100.00,1500.00,,,,,,,,,,66.20,SBMT 270900Z 10007KT 9999 FEW011 BKN015 19/16 Q1020,
SBMT,2024-03-27 10:00,66.20,60.80,82.74,100.00,7.00,0.00,30.12,,6.21,,BKN,BKN,,,1500.00,1900.00,,,,,,,,,,66.20,SBMT 271000Z 10007KT 9999 BKN015 BKN019 19/16 Q1020,
SBMT,2024-03-27 11:00,66.20,60.80,82.74,100.00,7.00,0.00,30.15,,6.21,,BKN,BKN,,,3600.00,4900.00,,,,,,,,,,66.20,SBMT 271100Z 10007KT 9999 BKN036 BKN049 19/16 Q1021,
SBMT,2024-03-27 12:00,68.00,60.80,77.75,100.00,9.00,0.00,30.18,,6.21,,BKN,BKN,,,1900.00,4000.00,,,,,,,,,,68.00,SBMT 271200Z 10009KT 9999 BKN019 BKN040 20/16 Q1022,
SBMT,2024-03-27 13:00,69.80,60.80,73.09,100.00,9.00,0.00,30.18,,6.21,,SCT,BKN,,,2100.00,4900.00,,,,,,,,,,69.80,SBMT 271300Z 10009KT 9999 SCT021 BKN049 21/16 Q1022,
SBMT,2024-03-27 14:00,69.80,59.00,68.55,100.00,6.00,0.00,30.18,,6.21,,SCT,BKN,BKN,,2900.00,3600.00,4900.00,,,,,,,,,69.80,SBMT 271400Z 10006KT 9999 SCT029 BKN036 BKN049 21/15 Q1022,
SBMT,2024-03-27 15:00,69.80,60.80,73.09,140.00,7.00,0.00,30.18,,6.21,,SCT,BKN,BKN,,2300.00,2900.00,4500.00,,,,,,,,,69.80,SBMT 271500Z 14007KT 9999 SCT023 BKN029 BKN045 21/16 Q1022,
SBMT,2024-03-27 16:00,66.20,62.60,88.18,80.00,6.00,0.00,30.15,,1.24,,SCT,BKN,,,2000.00,2300.00,,,-RA BR,,,,,,,66.20,SBMT 271600Z 08006KT 2000 -RA BR SCT020 BKN023 19/17 Q1021,
SBMT,2024-03-27 17:00,66.20,64.40,93.92,150.00,5.00,0.00,30.12,,2.49,,SCT,BKN,,,1700.00,2000.00,,,-DZ BR,,,,,,,66.20,SBMT 271700Z 15005KT 100V190 4000 -DZ BR SCT017 BKN020 19/18 Q1020,
SBMT,2024-03-27 18:00,66.20,62.60,88.18,160.00,6.00,0.00,30.12,,3.11,,SCT,BKN,,,1700.00,2000.00,,,-DZ BR,,,,,,,66.20,SBMT 271800Z 16006KT 130V190 5000 -DZ BR SCT017 BKN020 19/17 Q1020,
SBMT,2024-03-27 19:00,68.00,62.60,82.86,130.00,6.00,0.00,30.09,,4.35,,BKN,,,,2300.00,,,,,,,,,,,68.00,SBMT 271900Z 13006KT 7000 BKN023 20/17 Q1019,
SBMT,2024-03-27 20:00,68.00,62.60,82.86,140.00,7.00,0.00,30.09,,3.73,,SCT,BKN,,,1700.00,2300.00,,,,,,,,,,68.00,SBMT 272000Z 14007KT 6000 SCT017 BKN023 20/17 Q1019,
SBMT,2024-03-27 21:00,68.00,62.60,82.86,130.00,8.00,0.00,30.12,,4.97,,SCT,BKN,,,1900.00,2300.00,,,,,,,,,,68.00,SBMT 272100Z 13008KT 100V160 8000 SCT019 BKN023 20/17 Q1020,
SBMT,2024-03-27 22:00,68.00,62.60,82.86,110.00,8.00,0.00,30.12,,4.97,,SCT,BKN,,,1900.00,2300.00,,,,,,,,,,68.00,SBMT 272200Z 11008KT 8000 SCT019 BKN023 20/17 Q1020,
SBMT,2024-03-27 23:00,66.20,62.60,88.18,110.00,7.00,0.00,30.15,,4.97,,SCT,BKN,,,1900.00,2300.00,,,,,,,,,,66.20,SBMT 272300Z 11007KT 080V140 8000 SCT019 BKN023 19/17 Q1021,
SBMT,2024-03-28 00:00,66.20,62.60,88.18,90.00,5.00,0.00,30.15,,4.97,,BKN,BKN,,,1500.00,2300.00,,,-DZ,,,,,,,66.20,SBMT 280000Z 09005KT 060V120 8000 -DZ BKN015 BKN023 19/17 Q1021,
SBMT,2024-03-28 01:00,64.40,62.60,93.88,100.00,6.00,0.00,30.18,,4.97,,BKN,BKN,,,1100.00,2300.00,,,,,,,,,,64.40,COR SBMT 280100Z 10006KT 8000 BKN011 BKN023 18/17 Q1022,
SBMT,2024-03-28 02:00,64.40,64.40,100.00,100.00,4.00,0.00,30.18,,3.11,,BKN,BKN,,,800.00,1100.00,,,-RA,,,,,,,64.40,SBMT 280200Z 10004KT 5000 -RA BKN008 BKN011 18/18 Q1022,
SBMT,2024-03-28 09:00,64.40,62.60,93.88,100.00,4.00,0.00,30.12,,4.97,,BKN,BKN,,,900.00,1100.00,,,,,,,,,,64.40,SBMT 280900Z 10004KT 8000 BKN009 BKN011 18/17 Q1020,
SBMT,2024-03-28 10:00,64.40,64.40,100.00,90.00,4.00,0.00,30.15,,3.73,,BKN,BKN,,,700.00,800.00,,,,,,,,,,64.40,SBMT 281000Z 09004KT 050V140 6000 BKN007 BKN008 18/18 Q1021,
SBMT,2024-03-28 11:00,66.20,64.40,93.92,100.00,5.00,0.00,30.15,,3.73,,BKN,BKN,,,800.00,900.00,,,,,,,,,,66.20,SBMT 281100Z 10005KT 060V120 6000 BKN008 BKN009 19/18 Q1021,
SBMT,2024-03-28 12:00,66.20,64.40,93.92,110.00,4.00,0.00,30.18,,3.73,,BKN,BKN,,,800.00,900.00,,,,,,,,,,66.20,SBMT 281200Z 11004KT 080V140 6000 BKN008 BKN009 19/18 Q1022,
SBMT,2024-03-28 13:00,68.00,64.40,88.26,100.00,4.00,0.00,30.18,,3.11,,BKN,BKN,,,900.00,1000.00,,,-RA,,,,,,,68.00,SBMT 281300Z 10004KT 5000 -RA BKN009 BKN010 20/18 Q1022,
SBMT,2024-03-28 14:00,68.00,66.20,93.97,90.00,5.00,0.00,30.18,,2.17,,BKN,OVC,,,700.00,800.00,,,-RA,,,,,,,68.00,SBMT 281400Z 09005KT 050V110 3500 -RA BKN007 OVC008 20/19 Q1022,
SBMT,2024-03-28 15:00,68.00,64.40,88.26,110.00,6.00,0.00,30.15,,2.49,,BKN,OVC,,,700.00,800.00,,,-RA,,,,,,,68.00,SBMT 281500Z 11006KT 080V150 4000 -RA BKN007 OVC008 20/18 Q1021,
SBMT,2024-03-28 16:00,68.00,64.40,88.26,90.00,6.00,0.00,30.15,,2.49,,BKN,BKN,,,800.00,900.00,,,-RA,,,,,,,68.00,SBMT 281600Z 09006KT 040V120 4000 -RA BKN008 BKN009 20/18 Q1021,
SBMT,2024-03-28 17:00,68.00,64.40,88.26,80.00,5.00,0.00,30.12,,2.49,,BKN,BKN,,,800.00,1500.00,,,-RA,,,,,,,68.00,SBMT 281700Z 08005KT 4000 -RA BKN008 BKN015 20/18 Q1020,
SBMT,2024-03-28 18:00,68.00,64.40,88.26,90.00,3.00,0.00,30.12,,2.49,,BKN,BKN,,,800.00,1500.00,,,-RA,,,,,,,68.00,SBMT 281800Z 09003KT 4000 -RA BKN008 BKN015 20/18 Q1020,
SBMT,2024-03-28 19:00,69.80,62.60,77.90,90.00,5.00,0.00,30.12,,3.11,,BKN,SCT,,,1300.00,4000.00,,,HZ,,,,,,,69.80,SBMT 281900Z 09005KT 5000 HZ BKN013 SCT040 21/17 Q1020,
SBMT,2024-03-28 20:00,68.00,64.40,88.26,150.00,5.00,0.00,30.12,,1.86,,BKN,BKN,,,800.00,1500.00,,,-DZ,,,,,,,68.00,SBMT 282000Z 15005KT 3000 -DZ BKN008 BKN015 20/18 Q1020,
SBMT,2024-03-28 21:00,68.00,64.40,88.26,120.00,3.00,0.00,30.12,,1.24,,BKN,BKN,,,700.00,2000.00,,,-DZ,,,,,,,68.00,SBMT 282100Z 12003KT 2000 -DZ BKN007 BKN020 20/18 Q1020,
SBMT,2024-03-28 22:00,68.00,64.40,88.26,140.00,3.00,0.00,30.12,,2.49,,BKN,BKN,,,900.00,1500.00,,,-DZ,,,,,,,68.00,COR SBMT 282200Z 14003KT 4000 -DZ BKN009 BKN015 20/18 Q1020,
SBMT,2024-03-28 23:00,68.00,64.40,88.26,130.00,5.00,0.00,30.15,,3.11,,BKN,,,,1300.00,,,,BR,,,,,,,68.00,SBMT 282300Z 13005KT 5000 BR BKN013 20/18 Q1021,
SBMT,2024-03-29 00:00,68.00,62.60,82.86,150.00,4.00,0.00,30.15,,3.11,,BKN,BKN,,,1500.00,2500.00,,,BR,,,,,,,68.00,SBMT 290000Z 15004KT 5000 BR BKN015 BKN025 20/17 Q1021,
SBMT,2024-03-29 01:00,68.00,66.20,93.97,120.00,3.00,0.00,30.15,,3.11,,BKN,BKN,,,900.00,2000.00,,,BR,,,,,,,68.00,SBMT 290100Z 12003KT 5000 BR BKN009 BKN020 20/19 Q1021,
SBMT,2024-03-29 02:00,68.00,64.40,88.26,160.00,4.00,0.00,30.15,,3.11,,BKN,BKN,,,900.00,1500.00,,,BR,,,,,,,68.00,SBMT 290200Z 16004KT 5000 BR BKN009 BKN015 20/18 Q1021,
SBMT,2024-03-29 09:00,66.20,64.40,93.92,0.00,0.00,0.00,30.12,,3.73,,BKN,BKN,,,800.00,2000.00,,,,,,,,,,66.20,SBMT 290900Z 00000KT 6000 BKN008 BKN020 19/18 Q1020,
SBMT,2024-03-29 10:00,68.00,64.40,88.26,0.00,0.00,0.00,30.12,,4.97,,BKN,,,,2500.00,,,,,,,,,,,68.00,SBMT 291000Z 00000KT 8000 BKN025 20/18 Q1020,
SBMT,2024-03-29 11:00,69.80,64.40,82.98,70.00,2.00,0.00,30.15,,4.35,,SCT,BKN,,,800.00,2000.00,,,,,,,,,,69.80,SBMT 291100Z 07002KT 7000 SCT008 BKN020 21/18 Q1021,
SBMT,2024-03-29 12:00,69.80,66.20,88.34,10.00,2.00,0.00,30.15,,1.86,,BKN,BKN,,,800.00,2000.00,,,BR,,,,,,,69.80,SBMT 291200Z 01002KT 3000 BR BKN008 BKN020 21/19 Q1021,
SBMT,2024-03-29 13:00,71.60,64.40,78.04,330.00,2.00,0.00,30.15,,3.73,,SCT,SCT,,,1300.00,2500.00,,,,,,,,,,71.60,SBMT 291300Z 33002KT 6000 SCT013 SCT025 22/18 Q1021,
SBMT,2024-03-29 14:00,73.40,64.40,73.44,350.00,4.00,0.00,30.15,,6.21,,BKN,SCT,,,1700.00,2500.00,,,,,,,,,,73.40,SBMT 291400Z 35004KT 9999 BKN017 SCT025 23/18 Q1021,
SBMT,2024-03-29 15:00,75.20,64.40,69.14,310.00,6.00,0.00,30.12,,6.21,,BKN,SCT,,,2000.00,2500.00,,,,,,,,,,75.20,SBMT 291500Z 31006KT 9999 BKN020 SCT025 24/18 Q1020,
SBMT,2024-03-29 16:00,77.00,66.20,69.33,290.00,6.00,0.00,30.09,,6.21,,BKN,,,,2000.00,,,,,,,,,,,77.00,SBMT 291600Z 29006KT 9999 BKN020 25/19 Q1019,
SBMT,2024-03-29 17:00,77.00,68.00,73.78,260.00,4.00,0.00,30.09,,6.21,,BKN,,,,2500.00,,,,,,,,,,,77.00,SBMT 291700Z 26004KT 9999 BKN025 25/20 Q1019,
SBMT,2024-03-29 18:00,77.00,66.20,69.33,320.00,5.00,0.00,30.06,,6.21,,BKN,,,,2500.00,,,,,,,,,,,77.00,SBMT 291800Z 32005KT 9999 BKN025 25/19 Q1018,
SBMT,2024-03-29 19:00,77.00,66.20,69.33,270.00,4.00,0.00,30.06,,6.21,,BKN,,,,3000.00,,,,,,,,,,,77.00,SBMT 291900Z 27004KT 9999 BKN030 25/19 Q1018,
SBMT,2024-03-29 20:00,78.80,66.20,65.33,260.00,5.00,0.00,30.03,,6.21,,SCT,,,,3000.00,,,,,,,,,,,78.80,SBMT 292000Z 26005KT 9999 SCT030 26/19 Q1017,
SBMT,2024-03-29 21:00,75.20,66.20,73.61,280.00,4.00,0.00,30.03,,6.21,,SCT,,,,3000.00,,,,,,,,,,,75.20,SBMT 292100Z 28004KT 9999 SCT030 24/19 Q1017,
SBMT,2024-03-29 22:00,73.40,68.00,83.21,150.00,5.00,0.00,30.06,,6.21,,SCT,,,,2000.00,,,,,,,,,,,73.40,SBMT 292200Z 15005KT 120V190 9999 SCT020 23/20 Q1018,
SBMT,2024-03-29 23:00,71.60,68.00,88.43,130.00,7.00,0.00,30.06,,6.21,,FEW,SCT,,,1300.00,2000.00,,,,,,,,,,71.60,SBMT 292300Z 13007KT 100V170 9999 FEW013 SCT020 22/20 Q1018,
SBMT,2024-03-30 00:00,71.60,66.20,83.09,160.00,6.00,0.00,30.09,,6.21,,FEW,SCT,,,1500.00,2000.00,,,,,,,,,,71.60,SBMT 300000Z 16006KT 130V200 9999 FEW015 SCT020 22/19 Q1019,
SBMT,2024-03-30 01:00,71.60,66.20,83.09,160.00,5.00,0.00,30.09,,6.21,,FEW,SCT,,,1500.00,2000.00,,,,,,,,,,71.60,SBMT 300100Z 16005KT 9999 FEW015 SCT020 22/19 Q1019,
SBMT,2024-03-30 02:00,69.80,66.20,88.34,140.00,3.00,0.00,30.09,,6.21,,SCT,,,,2000.00,,,,,,,,,,,69.80,SBMT 300200Z 14003KT 110V170 9999 SCT020 21/19 Q1019,
SBMT,2024-03-30 09:00,66.20,64.40,93.92,260.00,4.00,0.00,30.06,,6.21,,BKN,,,,1500.00,,,,,,,,,,,66.20,SBMT 300900Z 26004KT 9999 BKN015 19/18 Q1018,
SBMT,2024-03-30 10:00,68.00,64.40,88.26,0.00,0.00,0.00,30.06,,6.21,,FEW,BKN,,,1100.00,1500.00,,,,,,,,,,68.00,SBMT 301000Z 00000KT 9999 FEW011 BKN015 20/18 Q1018,
SBMT,2024-03-30 11:00,69.80,66.20,88.34,110.00,3.00,0.00,30.09,,6.21,,FEW,BKN,,,1100.00,1500.00,,,,,,,,,,69.80,SBMT 301100Z 11003KT 9999 FEW011 BKN015 21/19 Q1019,
SBMT,2024-03-30 12:00,73.40,66.20,78.19,20.00,2.00,0.00,30.12,,6.21,,BKN,,,,2000.00,,,,,,,,,,,73.40,SBMT 301200Z 02002KT 9999 BKN020 23/19 Q1020,
SBMT,2024-03-30 13:00,73.40,66.20,78.19,260.00,3.00,0.00,30.09,,6.21,,BKN,,,,2000.00,,,,,,,,,,,73.40,SBMT 301300Z 26003KT 9999 BKN020 23/19 Q1019,
SBMT,2024-03-30 14:00,77.00,64.40,65.12,250.00,4.00,0.00,30.09,,6.21,,SCT,,,,2000.00,,,,,,,,,,,77.00,SBMT 301400Z 25004KT 9999 SCT020 25/18 Q1019,
SBMT,2024-03-30 15:00,80.60,66.20,61.58,230.00,4.00,0.00,30.09,,6.21,,SCT,,,,3000.00,,,,,,,,,,,82.75,SBMT 301500Z 23004KT 9999 SCT030 27/19 Q1019,
SBMT,2024-03-30 16:00,80.60,64.40,57.84,280.00,6.00,0.00,30.06,,6.21,,SCT,,,,3000.00,,,,,,,,,,,82.27,SBMT 301600Z 28006KT 9999 SCT030 27/18 Q1018,
SBMT,2024-03-30 17:00,82.40,62.60,51.21,180.00,5.00,0.00,30.03,,6.21,,SCT,,,,4000.00,,,,,,,,,,,83.41,SBMT 301700Z 18005KT 110V230 9999 SCT040 28/17 Q1017,
SBMT,2024-03-30 18:00,80.60,62.60,54.30,200.00,10.00,0.00,30.00,,6.21,,SCT,,,,4300.00,,,,,,,,,,,81.84,SBMT 301800Z 20010KT 170V230 9999 SCT043 27/17 Q1016,
SBMT,2024-03-30 19:00,78.80,66.20,65.33,160.00,9.00,0.00,30.00,,6.21,,,,,,,,,,,,,,,,,78.80,SBMT 301900Z 16009KT 100V210 CAVOK 26/19 Q1016,
SBMT,2024-03-30 20:00,75.20,64.40,69.14,140.00,8.00,0.00,30.00,,6.21,,FEW,SCT,,,2300.00,5000.00,,,,,,,,,,75.20,SBMT 302000Z 14008KT 080V180 9999 FEW023 SCT050 24/18 Q1016,
SBMT,2024-03-30 21:00,73.40,64.40,73.44,130.00,8.00,0.00,30.00,,6.21,,SCT,,,,2300.00,,,,,,,,,,,73.40,SBMT 302100Z 13008KT 9999 SCT023 23/18 Q1016,
SBMT,2024-03-30 22:00,69.80,62.60,77.90,140.00,6.00,0.00,30.03,,6.21,,SCT,,,,1900.00,,,,,,,,,,,69.80,SBMT 302200Z 14006KT 090V190 9999 SCT019 21/17 Q1017,
SBMT,2024-03-30 23:00,68.00,60.80,77.75,110.00,5.00,0.00,30.03,,6.21,,SCT,,,,1900.00,,,,,,,,,,,68.00,SBMT 302300Z 11005KT 080V140 9999 SCT019 20/16 Q1017,
SBMT,2024-03-31 00:00,68.00,62.60,82.86,140.00,5.00,0.00,30.06,,6.21,,FEW,,,,2000.00,,,,,,,,,,,68.00,SBMT 310000Z 14005KT 9999 FEW020 20/17 Q1018,
SBMT,2024-03-31 01:00,68.00,62.60,82.86,130.00,4.00,0.00,30.06,,6.21,,FEW,,,,2000.00,,,,,,,,,,,68.00,SBMT 310100Z 13004KT 9999 FEW020 20/17 Q1018,
SBMT,2024-03-31 02:00,68.00,62.60,82.86,80.00,3.00,0.00,30.06,,6.21,,FEW,,,,2000.00,,,,,,,,,,,68.00,SBMT 310200Z 08003KT 9999 FEW020 20/17 Q1018,
SBMT,2024-03-31 09:00,60.80,59.00,93.79,0.00,0.00,0.00,30.03,,4.97,,NSC,,,,,,,,,,,,,,,60.80,SBMT 310900Z 00000KT 8000 NSC 16/15 Q1017,
SBMT,2024-03-31 10:00,60.80,59.00,93.79,0.00,0.00,0.00,30.03,,6.21,,,,,,,,,,,,,,,,,60.80,SBMT 311000Z 00000KT CAVOK 16/15 Q1017,
SBMT,2024-03-31 11:00,68.00,64.40,88.26,0.00,0.00,0.00,30.06,,6.21,,,,,,,,,,,,,,,,,68.00,SBMT 311100Z 00000KT CAVOK 20/18 Q1018,
SBMT,2024-03-31 12:00,71.60,62.60,73.27,100.00,3.00,0.00,30.09,,6.21,,,,,,,,,,,,,,,,,71.60,SBMT 311200Z 10003KT 030V160 CAVOK 22/17 Q1019,
SBMT,2024-03-31 13:00,78.80,60.80,54.05,,2.00,0.00,30.09,,6.21,,,,,,,,,,,,,,,,,78.80,SBMT 311300Z VRB02KT CAVOK 26/16 Q1019,
SBMT,2024-03-31 14:00,78.80,59.00,50.69,100.00,4.00,0.00,30.06,,6.21,,,,,,,,,,,,,,,,,78.80,SBMT 311400Z 10004KT 050V180 CAVOK 26/15 Q1018,
SBMT,2024-03-31 15:00,80.60,53.60,39.30,110.00,4.00,0.00,30.06,,6.21,,,,,,,,,,,,,,,,,80.29,SBMT 311500Z 11004KT 060V200 CAVOK 27/12 Q1018,
SBMT,2024-03-31 16:00,82.40,53.60,37.07,,2.00,0.00,30.03,,6.21,,,,,,,,,,,,,,,,,81.46,SBMT 311600Z VRB02KT CAVOK 28/12 Q1017,
SBMT,2024-03-31 17:00,84.20,53.60,34.97,,4.00,0.00,30.00,,6.21,,,,,,,,,,,,,,,,,82.76,SBMT 311700Z VRB04KT CAVOK 29/12 Q1016,
SBMT,2024-03-31 18:00,84.20,55.40,37.35,270.00,5.00,0.00,29.97,,6.21,,,,,,,,,,,,,,,,,83.09,SBMT 311800Z 27005KT 230V310 CAVOK 29/13 Q1015,
SBMT,2024-03-31 19:00,82.40,51.80,34.69,,5.00,0.00,29.97,,6.21,,,,,,,,,,,,,,,,,81.20,SBMT 311900Z VRB05KT CAVOK 28/11 Q1015,
SBMT,2024-03-31 20:00,82.40,60.80,48.05,180.00,7.00,0.00,29.97,,6.21,,,,,,,,,,,,,,,,,82.90,SBMT 312000Z 18007KT 130V240 CAVOK 28/16 Q1015,
SBMT,2024-03-31 21:00,78.80,59.00,50.69,150.00,7.00,0.00,29.97,,6.21,,,,,,,,,,,,,,,,,78.80,SBMT 312100Z 15007KT 100V190 CAVOK 26/15 Q1015,
SBMT,2024-03-31 22:00,75.20,59.00,57.12,140.00,6.00,0.00,30.00,,6.21,,,,,,,,,,,,,,,,,75.20,SBMT 312200Z 14006KT 110V170 CAVOK 24/15 Q1016,
SBMT,2024-03-31 23:00,71.60,60.80,68.75,100.00,4.00,0.00,30.03,,6.21,,,,,,,,,,,,,,,,,71.60,SBMT 312300Z 10004KT CAVOK 22/16 Q1017,
SBMT,2024-04-01 00:00,71.60,62.60,73.27,130.00,3.00,0.00,30.06,,6.21,,,,,,,,,,,,,,,,,71.60,SBMT 010000Z 13003KT CAVOK 22/17 Q1018,
SBMT,2024-04-01 01:00,71.60,60.80,68.75,90.00,4.00,0.00,30.06,,6.21,,,,,,,,,,,,,,,,,71.60,SBMT 010100Z 09004KT CAVOK 22/16 Q1018,
SBMT,2024-04-01 02:00,68.00,60.80,77.75,110.00,3.00,0.00,30.06,,6.21,,,,,,,,,,,,,,,,,68.00,SBMT 010200Z 11003KT CAVOK 20/16 Q1018,
SBMT,2024-04-01 09:00,62.60,59.00,88.00,100.00,3.00,0.00,30.00,,6.21,,,,,,,,,,,,,,,,,62.60,SBMT 010900Z 10003KT CAVOK 17/15 Q1016,
SBMT,2024-04-01 10:00,64.40,60.80,88.09,110.00,5.00,0.00,30.03,,6.21,,,,,,,,,,,,,,,,,64.40,SBMT 011000Z 11005KT CAVOK 18/16 Q1017,
SBMT,2024-04-01 11:00,66.20,60.80,82.74,100.00,7.00,0.00,30.03,,6.21,,,,,,,,,,,,,,,,,66.20,SBMT 011100Z 10007KT CAVOK 19/16 Q1017,
SBMT,2024-04-01 12:00,66.20,60.80,82.74,80.00,5.00,0.00,30.06,,6.21,,,,,,,,,,,,,,,,,66.20,SBMT 011200Z 08005KT CAVOK 19/16 Q1018,
SBMT,2024-04-01 13:00,69.80,62.60,77.90,90.00,5.00,0.00,30.06,,6.21,,,,,,,,,,,,,,,,,69.80,SBMT 011300Z 09005KT CAVOK 21/17 Q1018,
SBMT,2024-04-01 14:00,75.20,60.80,60.90,30.00,4.00,0.00,30.03,,6.21,,,,,,,,,,,,,,,,,75.20,SBMT 011400Z 03004KT CAVOK 24/16 Q1017,
SBMT,2024-04-01 15:00,78.80,60.80,54.05,80.00,5.00,0.00,30.03,,6.21,,,,,,,,,,,,,,,,,78.80,SBMT 011500Z 08005KT CAVOK 26/16 Q1017,
SBMT,2024-04-01 16:00,80.60,53.60,39.30,90.00,5.00,0.00,30.00,,6.21,,,,,,,,,,,,,,,,,80.29,SBMT 011600Z 09005KT CAVOK 27/12 Q1016,
SBMT,2024-04-01 17:00,80.60,50.00,34.41,30.00,2.00,0.00,30.00,,6.21,,,,,,,,,,,,,,,,,79.88,SBMT 011700Z 03002KT CAVOK 27/10 Q1016,
SBMT,2024-04-01 18:00,84.20,46.40,26.76,40.00,4.00,0.00,29.97,,6.21,,,,,,,,,,,,,,,,,81.87,SBMT 011800Z 04004KT CAVOK 29/08 Q1015,
SBMT,2024-04-01 19:00,84.20,42.80,23.33,160.00,2.00,0.00,29.97,,6.21,,,,,,,,,,,,,,,,,81.61,SBMT 011900Z 16002KT CAVOK 29/06 Q1015,
SBMT,2024-04-01 20:00,77.00,64.40,65.12,150.00,10.00,0.00,29.97,,6.21,,,,,,,,,,,,,,,,,77.00,SBMT 012000Z 15010KT CAVOK 25/18 Q1015,
SBMT,2024-04-01 21:00,73.40,62.60,68.94,150.00,8.00,0.00,29.97,,6.21,,,,,,,,,,,,,,,,,73.40,SBMT 012100Z 15008KT CAVOK 23/17 Q1015,
SBMT,2024-04-01 22:00,69.80,62.60,77.90,120.00,5.00,0.00,30.00,,6.21,,,,,,,,,,,,,,,,,69.80,SBMT 012200Z 12005KT CAVOK 21/17 Q1016,
SBMT,2024-04-01 23:00,69.80,62.60,77.90,120.00,5.00,0.00,30.00,,6.21,,,,,,,,,,,,,,,,,69.80,SBMT 012300Z 12005KT CAVOK 21/17 Q1016,
SBMT,2024-04-02 00:00,69.80,59.00,68.55,150.00,5.00,0.00,30.03,,6.21,,,,,,,,,,,,,,,,,69.80,SBMT 020000Z 15005KT CAVOK 21/15 Q1017,
SBMT,2024-04-02 01:00,69.80,59.00,68.55,150.00,4.00,0.00,30.03,,6.21,,,,,,,,,,,,,,,,,69.80,SBMT 020100Z 15004KT CAVOK 21/15 Q1017,
SBMT,2024-04-02 02:00,68.00,59.00,72.92,80.00,4.00,0.00,30.00,,6.21,,,,,,,,,,,,,,,,,68.00,SBMT 020200Z 08004KT CAVOK 20/15 Q1016,
SBMT,2024-04-02 09:00,66.20,64.40,93.92,110.00,5.00,0.00,29.97,,6.21,,,,,,,,,,,,,,,,,66.20,SBMT 020900Z 11005KT CAVOK 19/18 Q1015,
SBMT,2024-04-02 10:00,66.20,64.40,93.92,100.00,4.00,0.00,30.00,,6.21,,,,,,,,,,,,,,,,,66.20,SBMT 021000Z 10004KT CAVOK 19/18 Q1016,
SBMT,2024-04-02 11:00,68.00,64.40,88.26,70.00,5.00,0.00,30.00,,6.21,,,,,,,,,,,,,,,,,68.00,SBMT 021100Z 07005KT CAVOK 20/18 Q1016,
SBMT,2024-04-02 12:00,69.80,64.40,82.98,70.00,4.00,0.00,30.00,,6.21,,,,,,,,,,,,,,,,,69.80,SBMT 021200Z 07004KT CAVOK 21/18 Q1016,
SBMT,2024-04-02 13:00,73.40,66.20,78.19,100.00,3.00,0.00,30.03,,6.21,,,,,,,,,,,,,,,,,73.40,SBMT 021300Z 10003KT CAVOK 23/19 Q1017,
SBMT,2024-04-02 14:00,80.60,66.20,61.58,0.00,0.00,0.00,30.00,,6.21,,,,,,,,,,,,,,,,,82.75,SBMT 021400Z 00000KT CAVOK 27/19 Q1016,
SBMT,2024-04-02 15:00,80.60,59.00,47.79,220.00,4.00,0.00,29.97,,6.21,,,,,,,,,,,,,,,,,81.11,SBMT 021500Z 22004KT CAVOK 27/15 Q1015,
SBMT,2024-04-02 16:00,82.40,57.20,42.25,240.00,4.00,0.00,29.97,,6.21,,FEW,BKN,,,4000.00,10000.00,,,,,,,,,,82.08,SBMT 021600Z 24004KT 9999 FEW040 BKN100 28/14 Q1015,
SBMT,2024-04-02 17:00,82.40,59.00,45.07,330.00,5.00,0.00,29.94,,6.21,,BKN,BKN,,,4900.00,6500.00,,,,,,,,,,82.46,SBMT 021700Z 33005KT 9999 BKN049 BKN065 28/15 Q1014,
SBMT,2024-04-02 18:00,82.40,59.00,45.07,340.00,6.00,0.00,29.91,,6.21,,BKN,,,,4900.00,,,,,,,,,,,82.46,SBMT 021800Z 34006KT 9999 BKN049 28/15 Q1013,
SBMT,2024-04-02 19:00,82.40,59.00,45.07,330.00,5.00,0.00,29.91,,6.21,,,,,,,,,,,,,,,,,82.46,SBMT 021900Z 33005KT CAVOK 28/15 Q1013,
SBMT,2024-04-02 20:00,82.40,59.00,45.07,300.00,3.00,0.00,29.91,,6.21,,,,,,,,,,,,,,,,,82.46,SBMT 022000Z 30003KT CAVOK 28/15 Q1013,
SBMT,2024-04-02 21:00,77.00,62.60,61.13,280.00,2.00,0.00,29.91,,6.21,,,,,,,,,,,,,,,,,77.00,SBMT 022100Z 28002KT CAVOK 25/17 Q1013,
SBMT,2024-04-02 22:00,78.80,62.60,57.60,150.00,5.00,0.00,29.94,,6.21,,BKN,,,,4900.00,,,,,,,,,,,78.80,SBMT 022200Z 15005KT 9999 BKN049 26/17 Q1014,
SBMT,2024-04-02 23:00,75.20,60.80,60.90,120.00,6.00,0.00,29.97,,6.21,,,,,,,,,,,,,,,,,75.20,SBMT 022300Z 12006KT CAVOK 24/16 Q1015,
SBMT,2024-04-03 00:00,75.20,59.00,57.12,120.00,5.00,0.00,30.00,,6.21,,BKN,,,,4900.00,,,,,,,,,,,75.20,SBMT 030000Z 12005KT 9999 BKN049 24/15 Q1016,
SBMT,2024-04-03 01:00,75.20,57.20,53.55,40.00,2.00,0.00,30.00,,6.21,,,,,,,,,,,,,,,,,75.20,SBMT 030100Z 04002KT CAVOK 24/14 Q1016,
SBMT,2024-04-03 02:00,69.80,60.80,73.09,90.00,1.00,0.00,30.03,,6.21,,,,,,,,,,,,,,,,,69.80,SBMT 030200Z 09001KT CAVOK 21/16 Q1017,
SBMT,2024-04-03 09:00,68.00,62.60,82.86,130.00,5.00,0.00,30.03,,3.73,,BKN,,,,1000.00,,,,,,,,,,,68.00,SBMT 030900Z 13005KT 6000 BKN010 20/17 Q1017,
SBMT,2024-04-03 10:00,68.00,62.60,82.86,160.00,4.00,0.00,30.03,,4.35,,BKN,,,,1300.00,,,,,,,,,,,68.00,SBMT 031000Z 16004KT 7000 BKN013 20/17 Q1017,
SBMT,2024-04-03 11:00,69.80,62.60,77.90,140.00,5.00,0.00,30.06,,6.21,,BKN,,,,1700.00,,,,,,,,,,,69.80,SBMT 031100Z 14005KT 9999 BKN017 21/17 Q1018,
SBMT,2024-04-03 12:00,71.60,62.60,73.27,130.00,5.00,0.00,30.06,,6.21,,BKN,,,,1700.00,,,,,,,,,,,71.60,SBMT 031200Z 13005KT 9999 BKN017 22/17 Q1018,
SBMT,2024-04-03 13:00,73.40,62.60,68.94,170.00,6.00,0.00,30.09,,6.21,,BKN,,,,2000.00,,,,,,,,,,,73.40,SBMT 031300Z 17006KT 9999 BKN020 23/17 Q1019,
SBMT,2024-04-03 14:00,77.00,62.60,61.13,150.00,6.00,0.00,30.06,,6.21,,SCT,,,,2500.00,,,,,,,,,,,77.00,SBMT 031400Z 15006KT 9999 SCT025 25/17 Q1018,
SBMT,2024-04-03 15:00,80.60,62.60,54.30,110.00,6.00,0.00,30.03,,6.21,,,,,,,,,,,,,,,,,81.84,SBMT 031500Z 11006KT CAVOK 27/17 Q1017,
SBMT,2024-04-03 16:00,80.60,62.60,54.30,100.00,5.00,0.00,30.00,,6.21,,,,,,,,,,,,,,,,,81.84,SBMT 031600Z 10005KT CAVOK 27/17 Q1016,
SBMT,2024-04-03 17:00,84.20,62.60,48.32,140.00,6.00,0.00,30.00,,6.21,,FEW,,,,4900.00,,,,,,,,,,,85.03,SBMT 031700Z 14006KT 9999 FEW049 29/17 Q1016,
SBMT,2024-04-03 18:00,84.20,62.60,48.32,130.00,7.00,0.00,29.97,,6.21,,FEW,,,,4800.00,,,,,,,,,,,85.03,SBMT 031800Z 13007KT 080V180 9999 FEW048 29/17 Q1015,
SBMT,2024-04-03 19:00,84.20,66.20,54.80,120.00,5.00,0.00,29.97,,6.21,,FEW,,,,4700.00,,,,,,,,,,,86.50,SBMT 031900Z 12005KT 9999 FEW047 29/19 Q1015,
SBMT,2024-04-03 20:00,78.80,68.00,69.52,130.00,7.00,0.00,29.97,,6.21,,,,,,,,,,,,,,,,,78.80,SBMT 032000Z 13007KT CAVOK 26/20 Q1015,
SBMT,2024-04-03 21:00,75.20,68.00,78.34,130.00,9.00,0.00,30.00,,5.59,,NSC,,,,,,,,,,,,,,,75.20,SBMT 032100Z 13009KT 9000 NSC 24/20 Q1016,
SBMT,2024-04-03 22:00,73.40,68.00,83.21,120.00,6.00,0.00,30.00,,5.59,,NSC,,,,,,,,,,,,,,,73.40,SBMT 032200Z 12006KT 9000 NSC 23/20 Q1016,
SBMT,2024-04-03 23:00,71.60,68.00,88.43,120.00,6.00,0.00,30.03,,5.59,,FEW,,,,1300.00,,,,,,,,,,,71.60,SBMT 032300Z 12006KT 9000 FEW013 22/20 Q1017,
SBMT,2024-04-04 00:00,71.60,66.20,83.09,150.00,6.00,0.00,30.03,,5.59,,SCT,,,,1300.00,,,,,,,,,,,71.60,SBMT 040000Z 15006KT 9000 SCT013 22/19 Q1017,
SBMT,2024-04-04 01:00,69.80,64.40,82.98,130.00,6.00,0.00,30.06,,5.59,,SCT,,,,1400.00,,,,,,,,,,,69.80,SBMT 040100Z 13006KT 9000 SCT014 21/18 Q1018,
SBMT,2024-04-04 02:00,69.80,64.40,82.98,140.00,3.00,0.00,30.06,,6.21,,FEW,,,,1300.00,,,,,,,,,,,69.80,SBMT 040200Z 14003KT 9999 FEW013 21/18 Q1018,
SBMT,2024-04-04 09:00,66.20,64.40,93.92,110.00,5.00,0.00,30.06,,6.21,,,,,,,,,,,,,,,,,66.20,SBMT 040900Z 11005KT CAVOK 19/18 Q1018,
SBMT,2024-04-04 10:00,68.00,64.40,88.26,100.00,5.00,0.00,30.09,,4.97,,FEW,,,,1100.00,,,,,,,,,,,68.00,SBMT 041000Z 10005KT 8000 FEW011 20/18 Q1019,
SBMT,2024-04-04 11:00,69.80,64.40,82.98,100.00,6.00,0.00,30.09,,4.97,,NSC,,,,,,,,,,,,,,,69.80,SBMT 041100Z 10006KT 8000 NSC 21/18 Q1019,
SBMT,2024-04-04 12:00,73.40,66.20,78.19,90.00,5.00,0.00,30.12,,6.21,,,,,,,,,,,,,,,,,73.40,SBMT 041200Z 09005KT CAVOK 23/19 Q1020,
SBMT,2024-04-04 13:00,78.80,66.20,65.33,90.00,7.00,0.00,30.09,,6.21,,,,,,,,,,,,,,,,,78.80,SBMT 041300Z 09007KT CAVOK 26/19 Q1019,
SBMT,2024-04-04 14:00,80.60,66.20,61.58,80.00,6.00,0.00,30.09,,6.21,,,,,,,,,,,,,,,,,82.75,SBMT 041400Z 08006KT CAVOK 27/19 Q1019,
SBMT,2024-04-04 15:00,84.20,66.20,54.80,260.00,3.00,0.00,30.06,,6.21,,,,,,,,,,,,,,,,,86.50,SBMT 041500Z 26003KT CAVOK 29/19 Q1018,
SBMT,2024-04-04 16:00,87.80,68.00,51.98,270.00,2.00,0.00,30.03,,6.21,,SCT,,,,4000.00,,,,,,,,,,,91.43,SBMT 041600Z 27002KT 9999 SCT040 31/20 Q1017,
SBMT,2024-04-04 17:00,87.80,62.60,43.07,140.00,3.00,0.00,30.00,,6.21,,,,,,,,,,,,,,,,,88.48,SBMT 041700Z 14003KT 080V210 CAVOK 31/17 Q1016,
SBMT,2024-04-04 18:00,86.00,60.80,42.80,150.00,2.00,0.00,30.00,,6.21,,,,,,,,,,,,,,,,,86.05,SBMT 041800Z 15002KT CAVOK 30/16 Q1016,
SBMT,2024-04-04 19:00,89.60,59.00,35.81,,3.00,0.00,29.97,,6.21,,,,,,,,,,,,,,,,,88.86,SBMT 041900Z VRB03KT CAVOK 32/15 Q1015,
SBMT,2024-04-04 20:00,84.20,66.20,54.80,130.00,8.00,0.00,29.97,,6.21,,,,,,,,,,,,,,,,,86.50,SBMT 042000Z 13008KT 080V160 CAVOK 29/19 Q1015,
SBMT,2024-04-04 21:00,78.80,66.20,65.33,160.00,8.00,0.00,30.00,,6.21,,,,,,,,,,,,,,,,,78.80,SBMT 042100Z 16008KT 130V190 CAVOK 26/19 Q1016,
SBMT,2024-04-04 22:00,73.40,66.20,78.19,140.00,6.00,0.00,30.03,,6.21,,,,,,,,,,,,,,,,,73.40,SBMT 042200Z 14006KT 090V180 CAVOK 23/19 Q1017,
SBMT,2024-04-04 23:00,71.60,66.20,83.09,160.00,3.00,0.00,30.06,,6.21,,,,,,,,,,,,,,,,,71.60,SBMT 042300Z 16003KT 120V190 CAVOK 22/19 Q1018,
SBMT,2024-04-05 00:00,71.60,64.40,78.04,120.00,3.00,0.00,30.06,,6.21,,,,,,,,,,,,,,,,,71.60,SBMT 050000Z 12003KT 090V160 CAVOK 22/18 Q1018,
SBMT,2024-04-05 01:00,71.60,64.40,78.04,100.00,6.00,0.00,30.09,,6.21,,,,,,,,,,,,,,,,,71.60,SBMT 050100Z 10006KT CAVOK 22/18 Q1019,
SBMT,2024-04-05 02:00,69.80,64.40,82.98,110.00,7.00,0.00,30.09,,6.21,,FEW,,,,1300.00,,,,,,,,,,,69.80,SBMT 050200Z 11007KT 9999 FEW013 21/18 Q1019,
SBMT,2024-04-05 09:00,68.00,64.40,88.26,70.00,6.00,0.00,30.09,,1.24,,SCT,BKN,,,800.00,900.00,,,BR,,,,,,,68.00,SBMT 050900Z 07006KT 2000 BR SCT008 BKN009 20/18 Q1019,
SBMT,2024-04-05 10:00,68.00,66.20,93.97,90.00,6.00,0.00,30.09,,3.11,,BKN,,,,900.00,,,,BR,,,,,,,68.00,SBMT 051000Z 09006KT 5000 BR BKN009 20/19 Q1019,
SBMT,2024-04-05 11:00,69.80,64.40,82.98,70.00,7.00,0.00,30.12,,4.35,,BKN,,,,1100.00,,,,,,,,,,,69.80,SBMT 051100Z 07007KT 7000 BKN011 21/18 Q1020,
SBMT,2024-04-05 12:00,73.40,64.40,73.44,50.00,5.00,0.00,30.12,,4.97,,NSC,,,,,,,,,,,,,,,73.40,SBMT 051200Z 05005KT 8000 NSC 23/18 Q1020,
SBMT,2024-04-05 13:00,77.00,66.20,69.33,70.00,4.00,0.00,30.12,,6.21,,,,,,,,,,,,,,,,,77.00,SBMT 051300Z 07004KT CAVOK 25/19 Q1020,
SBMT,2024-04-05 14:00,80.60,64.40,57.84,90.00,5.00,0.00,30.12,,6.21,,,,,,,,,,,,,,,,,82.27,SBMT 051400Z 09005KT CAVOK 27/18 Q1020,
SBMT,2024-04-05 15:00,84.20,60.80,45.34,40.00,3.00,0.00,30.09,,6.21,,,,,,,,,,,,,,,,,84.43,SBMT 051500Z 04003KT CAVOK 29/16 Q1019,
SBMT,2024-04-05 16:00,86.00,57.20,37.62,320.00,3.00,0.00,30.06,,6.21,,,,,,,,,,,,,,,,,84.97,SBMT 051600Z 32003KT CAVOK 30/14 Q1018,
SBMT,2024-04-05 17:00,86.00,53.60,33.01,290.00,3.00,0.00,30.03,,6.21,,,,,,,,,,,,,,,,,84.18,SBMT 051700Z 29003KT 230V010 CAVOK 30/12 Q1017,
SBMT,2024-04-05 18:00,87.80,50.00,27.29,210.00,4.00,0.00,30.00,,6.21,,,,,,,,,,,,,,,,,85.11,SBMT 051800Z 21004KT 110V270 CAVOK 31/10 Q1016,
SBMT,2024-04-05 19:00,87.80,50.00,27.29,190.00,4.00,0.00,30.00,,6.21,,,,,,,,,,,,,,,,,85.11,SBMT 051900Z 19004KT CAVOK 31/10 Q1016,
SBMT,2024-04-05 20:00,84.20,62.60,48.32,150.00,10.00,0.00,30.00,,6.21,,,,,,,,,,,,,,,,,85.03,SBMT 052000Z 15010KT 110V190 CAVOK 29/17 Q1016,
SBMT,2024-04-05 21:00,75.20,64.40,69.14,150.00,8.00,0.00,30.00,,6.21,,,,,,,,,,,,,,,,,75.20,SBMT 052100Z 15008KT 110V190 CAVOK 24/18 Q1016,
SBMT,2024-04-05 22:00,73.40,64.40,73.44,150.00,7.00,0.00,30.03,,6.21,,FEW,,,,1900.00,,,,,,,,,,,73.40,SBMT 052200Z 15007KT 9999 FEW019 23/18 Q1017,
SBMT,2024-04-05 23:00,73.40,64.40,73.44,160.00,7.00,0.00,30.06,,6.21,,BKN,,,,1700.00,,,,,,,,,,,73.40,SBMT 052300Z 16007KT 9999 BKN017 23/18 Q1018,
SBMT,2024-04-06 00:00,71.60,64.40,78.04,110.00,7.00,0.00,30.06,,6.21,,BKN,,,,1700.00,,,,,,,,,,,71.60,SBMT 060000Z 11007KT 9999 BKN017 22/18 Q1018,
SBMT,2024-04-06 01:00,71.60,62.60,73.27,150.00,7.00,0.00,30.09,,6.21,,BKN,,,,1900.00,,,,,,,,,,,71.60,SBMT 060100Z 15007KT 9999 BKN019 22/17 Q1019,
SBMT,2024-04-06 02:00,71.60,62.60,73.27,140.00,8.00,0.00,30.12,,6.21,,BKN,,,,2100.00,,,,,,,,,,,71.60,SBMT 060200Z 14008KT 9999 BKN021 22/17 Q1020,
SBMT,2024-04-06 09:00,68.00,62.60,82.86,130.00,4.00,0.00,30.06,,6.21,,SCT,SCT,,,1700.00,10000.00,,,,,,,,,,68.00,SBMT 060900Z 13004KT 9999 SCT017 SCT100 20/17 Q1018,
SBMT,2024-04-06 10:00,68.00,60.80,77.75,110.00,5.00,0.00,30.06,,6.21,,,,,,,,,,,,,,,,,68.00,SBMT 061000Z 11005KT CAVOK 20/16 Q1018,
SBMT,2024-04-06 11:00,69.80,60.80,73.09,70.00,5.00,0.00,30.09,,6.21,,,,,,,,,,,,,,,,,69.80,SBMT 061100Z 07005KT CAVOK 21/16 Q1019,
SBMT,2024-04-06 12:00,71.60,62.60,73.27,90.00,6.00,0.00,30.12,,6.21,,,,,,,,,,,,,,,,,71.60,SBMT 061200Z 09006KT CAVOK 22/17 Q1020,
SBMT,2024-04-06 13:00,75.20,60.80,60.90,110.00,7.00,0.00,30.12,,6.21,,FEW,BKN,,,2500.00,10000.00,,,,,,,,,,75.20,SBMT 061300Z 11007KT 9999 FEW025 BKN100 24/16 Q1020,
SBMT,2024-04-06 14:00,75.20,60.80,60.90,140.00,8.00,0.00,30.12,,6.21,,BKN,,,,2500.00,,,,,,,,,,,75.20,SBMT 061400Z 14008KT 9999 BKN025 24/16 Q1020,
SBMT,2024-04-06 15:00,75.20,62.60,64.91,140.00,8.00,0.00,30.12,,6.21,,BKN,,,,2500.00,,,,,,,,,,,75.20,SBMT 061500Z 14008KT 9999 BKN025 24/17 Q1020,
SBMT,2024-04-06 16:00,77.00,62.60,61.13,130.00,8.00,0.00,30.09,,6.21,,SCT,SCT,,,3000.00,10000.00,,,,,,,,,,77.00,SBMT 061600Z 13008KT 9999 SCT030 SCT100 25/17 Q1019,
SBMT,2024-04-06 17:00,77.00,64.40,65.12,170.00,8.00,0.00,30.06,,6.21,,SCT,SCT,,,3000.00,10000.00,,,,,,,,,,77.00,SBMT 061700Z 17008KT 9999 SCT030 SCT100 25/18 Q1018,
SBMT,2024-04-06 18:00,77.00,64.40,65.12,180.00,9.00,0.00,30.06,,6.21,,SCT,SCT,,,3000.00,10000.00,,,,,,,,,,77.00,SBMT 061800Z 18009KT 140V210 9999 SCT030 SCT100 25/18 Q1018,
SBMT,2024-04-06 19:00,75.20,64.40,69.14,180.00,10.00,0.00,30.06,,6.21,,SCT,,,,2500.00,,,,,,,,,,,75.20,SBMT 061900Z 18010KT 130V200 9999 SCT025 24/18 Q1018,
SBMT,2024-04-06 20:00,73.40,64.40,73.44,160.00,8.00,0.00,30.06,,6.21,,SCT,SCT,,,2500.00,10000.00,,,,,,,,,,73.40,SBMT 062000Z 16008KT 9999 SCT025 SCT100 23/18 Q1018,
SBMT,2024-04-06 21:00,71.60,64.40,78.04,130.00,10.00,0.00,30.06,,6.21,,BKN,BKN,,,2000.00,10000.00,,,,,,,,,,71.60,SBMT 062100Z 13010KT 9999 BKN020 BKN100 22/18 Q1018,
SBMT,2024-04-06 22:00,69.80,64.40,82.98,150.00,8.00,0.00,30.09,,6.21,,FEW,BKN,BKN,,1300.00,2000.00,10000.00,,,,,,,,,69.80,SBMT 062200Z 15008KT 9999 FEW013 BKN020 BKN100 21/18 Q1019,
SBMT,2024-04-06 23:00,69.80,64.40,82.98,140.00,9.00,0.00,30.12,,6.21,,FEW,BKN,,,1300.00,1500.00,,,,,,,,,,69.80,SBMT 062300Z 14009KT 110V180 9999 FEW013 BKN015 21/18 Q1020,
SBMT,2024-04-07 00:00,69.80,64.40,82.98,130.00,7.00,0.00,30.12,,6.21,,FEW,BKN,,,1300.00,1500.00,,,,,,,,,,69.80,SBMT 070000Z 13007KT 9999 FEW013 BKN015 21/18 Q1020,
SBMT,2024-04-07 01:00,69.80,64.40,82.98,,2.00,0.00,30.12,,6.21,,FEW,BKN,,,1300.00,1500.00,,,,,,,,,,69.80,SBMT 070100Z VRB02KT 9999 FEW013 BKN015 21/18 Q1020,
SBMT,2024-04-07 02:00,69.80,64.40,82.98,110.00,11.00,0.00,30.12,,6.21,,FEW,BKN,,,1300.00,1500.00,,,,,,,,,,69.80,SBMT 070200Z 11011KT 9999 FEW013 BKN015 21/18 Q1020,
SBMT,2024-04-07 09:00,66.20,60.80,82.74,100.00,9.00,0.00,30.09,,6.21,,FEW,BKN,,,1300.00,2100.00,,,,,,,,,,66.20,SBMT 070900Z 10009KT 9999 FEW013 BKN021 19/16 Q1019,
SBMT,2024-04-07 10:00,66.20,62.60,88.18,90.00,8.00,0.00,30.12,,2.49,,SCT,BKN,,,900.00,1500.00,,,BR,,,,,,,66.20,SBMT 071000Z 09008KT 060V120 4000 BR SCT009 BKN015 19/17 Q1020,
SBMT,2024-04-07 11:00,68.00,62.60,82.86,90.00,10.00,0.00,30.12,,6.21,,SCT,BKN,,,1000.00,1600.00,,,,,,,,,,68.00,SBMT 071100Z 09010KT 9999 SCT010 BKN016 20/17 Q1020,
SBMT,2024-04-07 12:00,69.80,62.60,77.90,100.00,9.00,0.00,30.15,,6.21,,SCT,BKN,,,1200.00,1500.00,,,,,,,,,,69.80,SBMT 071200Z 10009KT 9999 SCT012 BKN015 21/17 Q1021,
SBMT,2024-04-07 13:00,71.60,60.80,68.75,60.00,9.00,0.00,30.12,,6.21,,BKN,,,,1700.00,,,,,,,,,,,71.60,SBMT 071300Z 06009KT 030V100 9999 BKN017 22/16 Q1020,
SBMT,2024-04-07 14:00,75.20,62.60,64.91,90.00,8.00,0.00,30.12,,6.21,,BKN,,,,2300.00,,,,,,,,,,,75.20,SBMT 071400Z 09008KT 040V130 9999 BKN023 24/17 Q1020,
SBMT,2024-04-07 15:00,77.00,62.60,61.13,80.00,8.00,0.00,30.09,,6.21,,BKN,,,,2600.00,,,,,,,,,,,77.00,SBMT 071500Z 08008KT 040V120 9999 BKN026 25/17 Q1019,
SBMT,2024-04-07 16:00,78.80,62.60,57.60,90.00,8.00,0.00,30.09,,6.21,,BKN,,,,3300.00,,,,,,,,,,,78.80,SBMT 071600Z 09008KT 030V150 9999 BKN033 26/17 Q1019,
SBMT,2024-04-07 17:00,78.80,62.60,57.60,130.00,5.00,0.00,30.06,,6.21,,BKN,BKN,,,4000.00,5000.00,,,,,,,,,,78.80,SBMT 071700Z 13005KT 9999 BKN040 BKN050 26/17 Q1018,
SBMT,2024-04-07 18:00,69.80,69.80,100.00,130.00,7.00,0.00,30.00,,6.21,,BKN,,,,4900.00,,,,,,,,,,,69.80,SBMT 071800Z 13007KT 9999 BKN049 21/21 Q1016,
SBMT,2024-04-07 19:00,77.00,66.20,69.33,160.00,8.00,0.00,30.03,,6.21,,BKN,,,,4900.00,,,,,,,,,,,77.00,SBMT 071900Z 16008KT 9999 BKN049 25/19 Q1017,
SBMT,2024-04-07 20:00,75.20,66.20,73.61,130.00,7.00,0.00,30.06,,6.21,,,,,,,,,,,,,,,,,75.20,SBMT 072000Z 13007KT CAVOK 24/19 Q1018,
SBMT,2024-04-07 21:00,71.60,66.20,83.09,140.00,7.00,0.00,30.06,,6.21,,,,,,,,,,,,,,,,,71.60,SBMT 072100Z 14007KT CAVOK 22/19 Q1018,
SBMT,2024-04-07 22:00,71.60,66.20,83.09,130.00,5.00,0.00,30.06,,6.21,,BKN,,,,1500.00,,,,,,,,,,,71.60,SBMT 072200Z 13005KT 9999 BKN015 22/19 Q1018,
SBMT,2024-04-07 23:00,69.80,66.20,88.34,110.00,8.00,0.00,30.06,,6.21,,FEW,,,,1300.00,,,,,,,,,,,69.80,SBMT 072300Z 11008KT 9999 FEW013 21/19 Q1018,
SBMT,2024-04-08 00:00,71.60,64.40,78.04,100.00,7.00,0.00,30.09,,6.21,,BKN,,,,1300.00,,,,,,,,,,,71.60,SBMT 080000Z 10007KT 9999 BKN013 22/18 Q1019,
SBMT,2024-04-08 01:00,69.80,64.40,82.98,100.00,7.00,0.00,30.09,,6.21,,BKN,,,,1500.00,,,,,,,,,,,69.80,SBMT 080100Z 10007KT 9999 BKN015 21/18 Q1019,
SBMT,2024-04-08 02:00,69.80,64.40,82.98,100.00,7.00,0.00,30.09,,6.21,,,,,,,,,,,,,,,,,69.80,SBMT 080200Z 10007KT CAVOK 21/18 Q1019,
SBMT,2024-04-08 09:00,66.20,64.40,93.92,70.00,7.00,0.00,30.06,,4.97,,BKN,,,,800.00,,,,,,,,,,,66.20,COR SBMT 080900Z 07007KT 8000 BKN008 19/18 Q1018,
SBMT,2024-04-08 10:00,66.20,64.40,93.92,90.00,7.00,0.00,30.06,,2.49,,BKN,,,,800.00,,,,BR,,,,,,,66.20,SBMT 081000Z 09007KT 4000 BR BKN008 19/18 Q1018,
SBMT,2024-04-08 11:00,68.00,64.40,88.26,60.00,7.00,0.00,30.06,,3.11,,BKN,,,,900.00,,,,BR,,,,,,,68.00,SBMT 081100Z 06007KT 5000 BR BKN009 20/18 Q1018,
SBMT,2024-04-08 12:00,71.60,64.40,78.04,60.00,6.00,0.00,30.09,,4.97,,NSC,,,,,,,,,,,,,,,71.60,SBMT 081200Z 06006KT 8000 NSC 22/18 Q1019,
SBMT,2024-04-08 13:00,75.20,66.20,73.61,60.00,5.00,0.00,30.06,,4.97,,NSC,,,,,,,,,,,,,,,75.20,SBMT 081300Z 06005KT 8000 NSC 24/19 Q1018,
SBMT,2024-04-08 14:00,77.00,64.40,65.12,50.00,3.00,0.00,30.06,,6.21,,,,,,,,,,,,,,,,,77.00,SBMT 081400Z 05003KT CAVOK 25/18 Q1018,
SBMT,2024-04-08 15:00,78.80,64.40,61.36,50.00,5.00,0.00,30.03,,6.21,,,,,,,,,,,,,,,,,78.80,SBMT 081500Z 05005KT CAVOK 26/18 Q1017,
SBMT,2024-04-08 16:00,80.60,64.40,57.84,320.00,3.00,0.00,30.03,,6.21,,BKN,,,,3600.00,,,,,,,,,,,82.27,SBMT 081600Z 32003KT 9999 BKN036 27/18 Q1017,
SBMT,2024-04-08 17:00,78.80,60.80,54.05,360.00,5.00,0.00,30.00,,6.21,,,,,,,,,,,,,,,,,78.80,SBMT 081700Z 36005KT CAVOK 26/16 Q1016,
SBMT,2024-04-08 18:00,78.80,62.60,57.60,310.00,3.00,0.00,30.00,,6.21,,,,,,,,,,,,,,,,,78.80,SBMT 081800Z 31003KT CAVOK 26/17 Q1016,
SBMT,2024-04-08 19:00,77.00,62.60,61.13,270.00,7.00,0.00,30.00,,6.21,,FEW,BKN,,,4000.00,8000.00,,,,,,,,,,77.00,SBMT 081900Z 27007KT 9999 FEW040 BKN080 25/17 Q1016,
SBMT,2024-04-08 20:00,73.40,66.20,78.19,330.00,4.00,0.00,30.00,,3.73,,BKN,,,,3000.00,,,,,,,,,,,73.40,SBMT 082000Z 33004KT 6000 BKN030 23/19 Q1016,
SBMT,2024-04-08 21:00,69.80,60.80,73.09,70.00,8.00,0.00,30.03,,3.73,,BKN,FEW,,,3000.00,4000.00,,,-RA,,,,,,,69.80,SBMT 082100Z 07008KT 6000 -RA BKN030 FEW040TCU 21/16 Q1017,
SBMT,2024-04-08 22:00,68.00,60.80,77.75,70.00,4.00,0.00,30.03,,3.73,,SCT,BKN,,,4000.00,8000.00,,,-RA,,,,,,,68.00,SBMT 082200Z 07004KT 6000 -RA SCT040 BKN080 20/16 Q1017,
SBMT,2024-04-08 23:00,68.00,62.60,82.86,220.00,2.00,0.00,30.03,,4.97,,SCT,BKN,,,2000.00,7000.00,,,,,,,,,,68.00,SBMT 082300Z 22002KT 8000 SCT020 BKN070 20/17 Q1017,
SBMT,2024-04-09 00:00,68.00,62.60,82.86,140.00,2.00,0.00,30.06,,6.21,,BKN,,,,4000.00,,,,-RA,,,,,,,68.00,SBMT 090000Z 14002KT 9999 -RA BKN040 20/17 Q1018,
SBMT,2024-04-09 01:00,69.80,62.60,77.90,60.00,2.00,0.00,30.06,,6.21,,,,,,,,,,,,,,,,,69.80,SBMT 090100Z 06002KT CAVOK 21/17 Q1018,
SBMT,2024-04-09 02:00,68.00,64.40,88.26,220.00,3.00,0.00,30.06,,3.11,,SCT,,,,4000.00,,,,-RA,,,,,,,68.00,SBMT 090200Z 22003KT 5000 -RA SCT040 20/18 Q1018,
SBMT,2024-04-09 09:00,66.20,64.40,93.92,,1.00,0.00,30.00,,3.73,,NSC,,,,,,,,,,,,,,,66.20,SBMT 090900Z VRB01KT 6000 NSC 19/18 Q1016,
SBMT,2024-04-09 10:00,66.20,64.40,93.92,0.00,0.00,0.00,30.03,,6.21,,,,,,,,,,,,,,,,,66.20,SBMT 091000Z 00000KT CAVOK 19/18 Q1017,
SBMT,2024-04-09 11:00,71.60,68.00,88.43,0.00,0.00,0.00,30.06,,6.21,,,,,,,,,,,,,,,,,71.60,SBMT 091100Z 00000KT CAVOK 22/20 Q1018,
SBMT,2024-04-09 12:00,73.40,68.00,83.21,100.00,1.00,0.00,30.06,,6.21,,,,,,,,,,,,,,,,,73.40,SBMT 091200Z 10001KT CAVOK 23/20 Q1018,
SBMT,2024-04-09 13:00,75.20,66.20,73.61,,2.00,0.00,30.09,,6.21,,,,,,,,,,,,,,,,,75.20,SBMT 091300Z VRB02KT CAVOK 24/19 Q1019,
SBMT,2024-04-09 14:00,77.00,66.20,69.33,330.00,4.00,0.00,30.06,,6.21,,SCT,,,,3000.00,,,,,,,,,,,77.00,SBMT 091400Z 33004KT 290V050 9999 SCT030 25/19 Q1018,
SBMT,2024-04-09 15:00,78.80,64.40,61.36,310.00,6.00,0.00,30.03,,6.21,,BKN,,,,3000.00,,,,,,,,,,,78.80,SBMT 091500Z 31006KT 270V360 9999 BKN030 26/18 Q1017,
SBMT,2024-04-09 16:00,80.60,64.40,57.84,310.00,9.00,0.00,30.00,,6.21,,BKN,,,,3000.00,,,,,,,,,,,82.27,SBMT 091600Z 31009KT 260V350 9999 BKN030 27/18 Q1016,
SBMT,2024-04-09 17:00,80.60,64.40,57.84,300.00,8.00,0.00,30.00,,6.21,,SCT,BKN,,,3600.00,4000.00,,,,,,,,,,82.27,SBMT 091700Z 30008KT 9999 SCT036 BKN040 27/18 Q1016,
SBMT,2024-04-09 18:00,82.40,64.40,54.55,250.00,9.00,0.00,29.97,,6.21,,BKN,,,,4000.00,,,,,,,,,,,83.98,SBMT 091800Z 25009KT 9999 BKN040 28/18 Q1015,
SBMT,2024-04-09 19:00,84.20,64.40,51.47,260.00,7.00,0.00,29.97,,6.21,,BKN,,,,4900.00,,,,,,,,,,,85.71,SBMT 091900Z 26007KT 9999 BKN049 29/18 Q1015,
SBMT,2024-04-09 20:00,73.40,68.00,83.21,150.00,8.00,0.00,30.00,,2.49,,BKN,BKN,,,1500.00,4500.00,,,BR,,,,,,,73.40,SBMT 092000Z 15008KT 4000 BR BKN015 BKN045 23/20 Q1016,
SBMT,2024-04-09 21:00,73.40,68.00,83.21,140.00,7.00,0.00,30.00,,1.24,,SCT,BKN,,,1300.00,1500.00,,,BR,,,,,,,73.40,SBMT 092100Z 14007KT 2000 BR SCT013 BKN015 23/20 Q1016,
SBMT,2024-04-09 22:00,71.60,66.20,83.09,130.00,6.00,0.00,30.00,,2.49,,SCT,BKN,,,1300.00,2000.00,,,BR,,,,,,,71.60,SBMT 092200Z 13006KT 4000 BR SCT013 BKN020 22/19 Q1016,
SBMT,2024-04-09 23:00,71.60,66.20,83.09,120.00,3.00,0.00,30.03,,1.86,,BKN,,,,1700.00,,,,BR,,,,,,,71.60,SBMT 092300Z 12003KT 3000 BR BKN017 22/19 Q1017,
SBMT,2024-04-10 00:00,71.60,66.20,83.09,90.00,5.00,0.00,30.03,,3.11,,SCT,,,,1700.00,,,,BR,,,,,,,71.60,SBMT 100000Z 09005KT 5000 BR SCT017 22/19 Q1017,
SBMT,2024-04-10 01:00,69.80,64.40,82.98,90.00,5.00,0.00,30.06,,6.21,,,,,,,,,,,,,,,,,69.80,SBMT 100100Z 09005KT CAVOK 21/18 Q1018,
SBMT,2024-04-10 02:00,69.80,64.40,82.98,100.00,5.00,0.00,30.03,,6.21,,,,,,,,,,,,,,,,,69.80,SBMT 100200Z 10005KT CAVOK 21/18 Q1017,
SBMT,2024-04-10 09:00,64.40,62.60,93.88,0.00,0.00,0.00,30.00,,4.97,,NSC,,,,,,,,,,,,,,,64.40,SBMT 100900Z 00000KT 8000 NSC 18/17 Q1016,
SBMT,2024-04-10 10:00,64.40,62.60,93.88,0.00,0.00,0.00,30.00,,5.59,,NSC,,,,,,,,,,,,,,,64.40,SBMT 101000Z 00000KT 9000 NSC 18/17 Q1016,
SBMT,2024-04-10 11:00,71.60,66.20,83.09,,2.00,0.00,30.03,,6.21,,,,,,,,,,,,,,,,,71.60,SBMT 101100Z VRB02KT CAVOK 22/19 Q1017,
SBMT,2024-04-10 12:00,73.40,66.20,78.19,,3.00,0.00,30.06,,6.21,,,,,,,,,,,,,,,,,73.40,SBMT 101200Z VRB03KT CAVOK 23/19 Q1018,
SBMT,2024-04-10 13:00,78.80,66.20,65.33,100.00,3.00,0.00,30.03,,6.21,,,,,,,,,,,,,,,,,78.80,SBMT 101300Z 10003KT CAVOK 26/19 Q1017,
SBMT,2024-04-10 14:00,80.60,66.20,61.58,130.00,3.00,0.00,30.03,,6.21,,SCT,,,,3300.00,,,,,,,,,,,82.75,SBMT 101400Z 13003KT 9999 SCT033 27/19 Q1017,
SBMT,2024-04-10 15:00,78.80,66.20,65.33,140.00,2.00,0.00,30.00,,6.21,,BKN,,,,4000.00,,,,,,,,,,,78.80,SBMT 101500Z 14002KT 9999 BKN040 26/19 Q1016,
SBMT,2024-04-10 16:00,84.20,64.40,51.47,280.00,4.00,0.00,29.94,,6.21,,SCT,FEW,,,4000.00,4500.00,,,,,,,,,,85.71,SBMT 101600Z 28004KT 200V360 9999 SCT040 FEW045TCU 29/18 Q1014,
SBMT,2024-04-10 17:00,86.00,64.40,48.58,330.00,6.00,0.00,29.94,,6.21,,SCT,FEW,,,4000.00,4500.00,,,,,,,,,,87.49,SBMT 101700Z 33006KT 250V030 9999 SCT040 FEW045TCU 30/18 Q1014,
SBMT,2024-04-10 18:00,84.20,62.60,48.32,330.00,5.00,0.00,29.91,,6.21,,SCT,FEW,,,4000.00,4500.00,,,,,,,,,,85.03,SBMT 101800Z 33005KT 270V010 9999 SCT040 FEW045TCU 29/17 Q1013,
SBMT,2024-04-10 19:00,77.00,68.00,73.78,150.00,8.00,0.00,29.94,,3.73,,SCT,FEW,,,4000.00,4500.00,,,,,,,,,,77.00,SBMT 101900Z 15008KT 100V200 6000 SCT040 FEW045TCU 25/20 Q1014,
SBMT,2024-04-10 20:00,73.40,68.00,83.21,170.00,9.00,0.00,29.94,,2.49,,BKN,BKN,,,1100.00,1500.00,,,BR,,,,,,,73.40,SBMT 102000Z 17009KT 120V200 4000 BR BKN011 BKN015 23/20 Q1014,
SBMT,2024-04-10 21:00,71.60,68.00,88.43,160.00,6.00,0.00,29.97,,2.49,,BKN,BKN,,,1100.00,1500.00,,,BR,,,,,,,71.60,SBMT 102100Z 16006KT 120V190 4000 BR BKN011 BKN015 22/20 Q1015,
SBMT,2024-04-10 22:00,71.60,66.20,83.09,170.00,4.00,0.00,29.97,,3.11,,BKN,BKN,,,1300.00,1500.00,,,BR,,,,,,,71.60,SBMT 102200Z 17004KT 140V210 5000 BR BKN013 BKN015 22/19 Q1015,
SBMT,2024-04-10 23:00,71.60,66.20,83.09,140.00,5.00,0.00,30.00,,3.11,,BKN,BKN,,,1300.00,1500.00,,,BR,,,,,,,71.60,SBMT 102300Z 14005KT 5000 BR BKN013 BKN015 22/19 Q1016,
SBMT,2024-04-11 00:00,69.80,66.20,88.34,110.00,6.00,0.00,30.00,,3.11,,BKN,BKN,,,1300.00,1500.00,,,BR,,,,,,,69.80,SBMT 110000Z 11006KT 5000 BR BKN013 BKN015 21/19 Q1016,
SBMT,2024-04-11 01:00,69.80,66.20,88.34,90.00,5.00,0.00,30.03,,3.11,,BKN,BKN,,,1300.00,1500.00,,,BR,,,,,,,69.80,SBMT 110100Z 09005KT 5000 BR BKN013 BKN015 21/19 Q1017,
SBMT,2024-04-11 02:00,69.80,66.20,88.34,120.00,3.00,0.00,30.03,,3.11,,BKN,BKN,,,1300.00,1700.00,,,BR,,,,,,,69.80,SBMT 110200Z 12003KT 080V150 5000 BR BKN013 BKN017 21/19 Q1017,
SBMT,2024-04-11 09:00,68.00,66.20,93.97,90.00,6.00,0.00,30.00,,1.86,,BKN,,,,800.00,,,,BR,,,,,,,68.00,SBMT 110900Z 09006KT 3000 BR BKN008 20/19 Q1016,
SBMT,2024-04-11 10:00,68.00,66.20,93.97,110.00,5.00,0.00,30.03,,2.17,,BKN,,,,800.00,,,,BR,,,,,,,68.00,SBMT 111000Z 11005KT 040V140 3500 BR BKN008 20/19 Q1017,
SBMT,2024-04-11 11:00,69.80,66.20,88.34,120.00,5.00,0.00,30.06,,3.11,,SCT,BKN,,,900.00,1200.00,,,BR,,,,,,,69.80,SBMT 111100Z 12005KT 5000 BR SCT009 BKN012 21/19 Q1018,
SBMT,2024-04-11 12:00,69.80,66.20,88.34,120.00,4.00,0.00,30.09,,4.97,,SCT,BKN,,,1100.00,1300.00,,,,,,,,,,69.80,SBMT 111200Z 12004KT 8000 SCT011 BKN013 21/19 Q1019,
SBMT,2024-04-11 13:00,71.60,66.20,83.09,110.00,4.00,0.00,30.09,,3.11,,SCT,BKN,,,1100.00,1500.00,,,BR,,,,,,,71.60,SBMT 111300Z 11004KT 040V160 5000 BR SCT011 BKN015 22/19 Q1019,
SBMT,2024-04-11 14:00,75.20,66.20,73.61,90.00,4.00,0.00,30.09,,4.35,,FEW,BKN,,,1100.00,2000.00,,,,,,,,,,75.20,SBMT 111400Z 09004KT 030V170 7000 FEW011 BKN020 24/19 Q1019,
SBMT,2024-04-11 15:00,78.80,66.20,65.33,0.00,0.00,0.00,30.06,,4.97,,SCT,,,,2500.00,,,,,,,,,,,78.80,SBMT 111500Z 00000KT 8000 SCT025 26/19 Q1018,
SBMT,2024-04-11 16:00,80.60,66.20,61.58,120.00,4.00,0.00,30.03,,4.97,,SCT,,,,2500.00,,,,,,,,,,,82.75,SBMT 111600Z 12004KT 8000 SCT025 27/19 Q1017,
SBMT,2024-04-11 17:00,78.80,68.00,69.52,150.00,9.00,0.00,30.03,,4.97,,SCT,SCT,,,2600.00,7000.00,,,,,,,,,,78.80,SBMT 111700Z 15009KT 8000 SCT026 SCT070 26/20 Q1017,
SBMT,2024-04-11 18:00,73.40,68.00,83.21,130.00,9.00,0.00,30.03,,3.73,,BKN,,,,1500.00,,,,,,,,,,,73.40,SBMT 111800Z 13009KT 6000 BKN015 23/20 Q1017,
SBMT,2024-04-11 19:00,71.60,66.20,83.09,140.00,8.00,0.00,30.03,,4.35,,OVC,,,,1400.00,,,,,,,,,,,71.60,SBMT 111900Z 14008KT 7000 OVC014 22/19 Q1017,
SBMT,2024-04-11 20:00,69.80,66.20,88.34,170.00,9.00,0.00,30.06,,6.21,,OVC,,,,1300.00,,,,,,,,,,,69.80,SBMT 112000Z 17009KT 9999 OVC013 21/19 Q1018,
SBMT,2024-04-11 21:00,69.80,66.20,88.34,150.00,7.00,0.00,30.06,,6.21,,OVC,,,,1100.00,,,,,,,,,,,69.80,SBMT 112100Z 15007KT 9999 OVC011 21/19 Q1018,
SBMT,2024-04-11 22:00,69.80,64.40,82.98,140.00,6.00,0.00,30.09,,6.21,,BKN,BKN,,,1200.00,2200.00,,,,,,,,,,69.80,SBMT 112200Z 14006KT 9999 BKN012 BKN022 21/18 Q1019,
SBMT,2024-04-11 23:00,69.80,66.20,88.34,140.00,7.00,0.00,30.12,,5.59,,OVC,,,,1000.00,,,,,,,,,,,69.80,SBMT 112300Z 14007KT 9000 OVC010 21/19 Q1020,
SBMT,2024-04-12 00:00,69.80,66.20,88.34,130.00,9.00,0.00,30.12,,5.59,,OVC,,,,1000.00,,,,,,,,,,,69.80,SBMT 120000Z 13009KT 9000 OVC010 21/19 Q1020,
SBMT,2024-04-12 01:00,69.80,64.40,82.98,160.00,8.00,0.00,30.15,,4.97,,OVC,,,,1200.00,,,,,,,,,,,69.80,SBMT 120100Z 16008KT 8000 OVC012 21/18 Q1021,
SBMT,2024-04-12 02:00,69.80,64.40,82.98,100.00,8.00,0.00,30.15,,5.59,,OVC,,,,1300.00,,,,,,,,,,,69.80,SBMT 120200Z 10008KT 9000 OVC013 21/18 Q1021,
SBMT,2024-04-12 09:00,68.00,64.40,88.26,90.00,6.00,0.00,30.12,,6.21,,,,,,,,,,,,,,,,,68.00,SBMT 120900Z 09006KT CAVOK 20/18 Q1020,
SBMT,2024-04-12 10:00,68.00,64.40,88.26,80.00,5.00,0.00,30.12,,6.21,,FEW,,,,1500.00,,,,,,,,,,,68.00,SBMT 121000Z 08005KT 040V100 9999 FEW015 20/18 Q1020,
SBMT,2024-04-12 11:00,69.80,64.40,82.98,100.00,8.00,0.00,30.15,,6.21,,,,,,,,,,,,,,,,,69.80,SBMT 121100Z 10008KT CAVOK 21/18 Q1021,
SBMT,2024-04-12 12:00,71.60,64.40,78.04,70.00,8.00,0.00,30.15,,6.21,,FEW,,,,1900.00,,,,,,,,,,,71.60,SBMT 121200Z 07008KT 9999 FEW019 22/18 Q1021,
SBMT,2024-04-12 13:00,75.20,64.40,69.14,70.00,9.00,0.00,30.15,,6.21,,FEW,,,,2300.00,,,,,,,,,,,75.20,SBMT 121300Z 07009KT 040V100 9999 FEW023 24/18 Q1021,
SBMT,2024-04-12 14:00,77.00,62.60,61.13,90.00,8.00,0.00,30.15,,6.21,,SCT,,,,2600.00,,,,,,,,,,,77.00,SBMT 121400Z 09008KT 060V130 9999 SCT026 25/17 Q1021,
SBMT,2024-04-12 15:00,78.80,60.80,54.05,80.00,9.00,0.00,30.15,,6.21,,SCT,,,,3600.00,,,,,,,,,,,78.80,SBMT 121500Z 08009KT 040V120 9999 SCT036 26/16 Q1021,
SBMT,2024-04-12 16:00,80.60,59.00,47.79,70.00,8.00,0.00,30.12,,6.21,,,,,,,,,,,,,,,,,81.11,SBMT 121600Z 07008KT 350V120 CAVOK 27/15 Q1020,
SBMT,2024-04-12 17:00,84.20,60.80,45.34,100.00,10.00,0.00,30.09,,6.21,,SCT,,,,4000.00,,,,,,,,,,,84.43,SBMT 121700Z 10010KT 9999 SCT040 29/16 Q1019,
SBMT,2024-04-12 18:00,80.60,66.20,61.58,130.00,9.00,0.00,30.09,,6.21,,SCT,,,,4000.00,,,,,,,,,,,82.75,SBMT 121800Z 13009KT 9999 SCT040 27/19 Q1019,
SBMT,2024-04-12 19:00,78.80,66.20,65.33,140.00,10.00,0.00,30.06,,6.21,,SCT,,,,4000.00,,,,,,,,,,,78.80,SBMT 121900Z 14010KT 100V190 9999 SCT040 26/19 Q1018,
SBMT,2024-04-12 20:00,75.20,66.20,73.61,150.00,10.00,0.00,30.06,,6.21,,SCT,,,,3000.00,,,,,,,,,,,75.20,SBMT 122000Z 15010KT 120V190 9999 SCT030 24/19 Q1018,
SBMT,2024-04-12 21:00,71.60,64.40,78.04,140.00,10.00,0.00,30.09,,6.21,,SCT,,,,2000.00,,,,,,,,,,,71.60,SBMT 122100Z 14010KT 9999 SCT020 22/18 Q1019,
SBMT,2024-04-12 22:00,71.60,66.20,83.09,130.00,8.00,0.00,30.09,,6.21,,BKN,,,,2000.00,,,,,,,,,,,71.60,SBMT 122200Z 13008KT 100V170 9999 BKN020 22/19 Q1019,
SBMT,2024-04-12 23:00,71.60,66.20,83.09,130.00,8.00,0.00,30.12,,6.21,,FEW,BKN,,,1700.00,2000.00,,,,,,,,,,71.60,SBMT 122300Z 13008KT 9999 FEW017 BKN020 22/19 Q1020,
SBMT,2024-04-13 00:00,71.60,66.20,83.09,130.00,8.00,0.00,30.12,,6.21,,FEW,BKN,,,1700.00,2000.00,,,,,,,,,,71.60,SBMT 130000Z 13008KT 9999 FEW017 BKN020 22/19 Q1020,
SBMT,2024-04-13 01:00,71.60,64.40,78.04,130.00,7.00,0.00,30.15,,6.21,,FEW,BKN,,,1700.00,2000.00,,,,,,,,,,71.60,SBMT 130100Z 13007KT 100V160 9999 FEW017 BKN020 22/18 Q1021,
SBMT,2024-04-13 02:00,69.80,64.40,82.98,120.00,8.00,0.00,30.15,,6.21,,FEW,BKN,,,1700.00,2000.00,,,,,,,,,,69.80,SBMT 130200Z 12008KT 9999 FEW017 BKN020 21/18 Q1021,
SBMT,2024-04-13 09:00,68.00,60.80,77.75,100.00,8.00,0.00,30.12,,6.21,,SCT,BKN,,,1300.00,1500.00,,,,,,,,,,68.00,SBMT 130900Z 10008KT 9999 SCT013 BKN015 20/16 Q1020,
SBMT,2024-04-13 10:00,68.00,62.60,82.86,90.00,7.00,0.00,30.12,,6.21,,SCT,BKN,,,1300.00,1500.00,,,,,,,,,,68.00,SBMT 131000Z 09007KT 9999 SCT013 BKN015 20/17 Q1020,
SBMT,2024-04-13 11:00,69.80,64.40,82.98,80.00,8.00,0.00,30.15,,6.21,,FEW,,,,1300.00,,,,,,,,,,,69.80,SBMT 131100Z 08008KT 050V120 9999 FEW013 21/18 Q1021,
SBMT,2024-04-13 12:00,73.40,64.40,73.44,,8.00,0.00,30.15,,6.21,,,,,,,,,,,,,,,,,73.40,SBMT 131200Z VRB08KT CAVOK 23/18 Q1021,
SBMT,2024-04-13 13:00,75.20,64.40,69.14,90.00,8.00,0.00,30.15,,6.21,,,,,,,,,,,,,,,,,75.20,SBMT 131300Z 09008KT 040V130 CAVOK 24/18 Q1021,
SBMT,2024-04-13 14:00,77.00,66.20,69.33,100.00,6.00,0.00,30.15,,6.21,,,,,,,,,,,,,,,,,77.00,SBMT 131400Z 10006KT 030V140 CAVOK 25/19 Q1021,
SBMT,2024-04-13 15:00,80.60,62.60,54.30,110.00,7.00,0.00,30.12,,6.21,,,,,,,,,,,,,,,,,81.84,SBMT 131500Z 11007KT 050V140 CAVOK 27/17 Q1020,
SBMT,2024-04-13 16:00,82.40,60.80,48.05,140.00,4.00,0.00,30.09,,6.21,,FEW,,,,4000.00,,,,,,,,,,,82.90,SBMT 131600Z 14004KT 090V200 9999 FEW040 28/16 Q1019,
SBMT,2024-04-13 17:00,82.40,62.60,51.21,120.00,5.00,0.00,30.03,,6.21,,SCT,,,,4500.00,,,,,,,,,,,83.41,SBMT 131700Z 12005KT 9999 SCT045 28/17 Q1017,
SBMT,2024-04-13 18:00,82.40,62.60,51.21,50.00,4.00,0.00,30.03,,6.21,,SCT,,,,4900.00,,,,,,,,,,,83.41,SBMT 131800Z 05004KT 340V110 9999 SCT049 28/17 Q1017,
SBMT,2024-04-13 19:00,80.60,66.20,61.58,160.00,6.00,0.00,30.00,,6.21,,SCT,,,,4900.00,,,,,,,,,,,82.75,SBMT 131900Z 16006KT 9999 SCT049 27/19 Q1016,
SBMT,2024-04-13 20:00,78.80,68.00,69.52,150.00,10.00,0.00,30.00,,6.21,,FEW,SCT,,,4000.00,9000.00,,,,,,,,,,78.80,SBMT 132000Z 15010KT 9999 FEW040 SCT090 26/20 Q1016,
SBMT,2024-04-13 21:00,73.40,66.20,78.19,150.00,9.00,0.00,30.03,,5.59,,FEW,SCT,,,1500.00,8000.00,,,,,,,,,,73.40,SBMT 132100Z 15009KT 9000 FEW015 SCT080 23/19 Q1017,
SBMT,2024-04-13 22:00,71.60,68.00,88.43,150.00,6.00,0.00,30.06,,5.59,,BKN,,,,1400.00,,,,,,,,,,,71.60,SBMT 132200Z 15006KT 9000 BKN014 22/20 Q1018,
SBMT,2024-04-13 23:00,71.60,66.20,83.09,130.00,6.00,0.00,30.06,,6.21,,BKN,,,,1400.00,,,,,,,,,,,71.60,SBMT 132300Z 13006KT 9999 BKN014 22/19 Q1018,
SBMT,2024-04-14 00:00,71.60,66.20,83.09,110.00,7.00,0.00,30.06,,6.21,,BKN,,,,1500.00,,,,,,,,,,,71.60,SBMT 140000Z 11007KT 9999 BKN015 22/19 Q1018,
SBMT,2024-04-14 01:00,71.60,66.20,83.09,110.00,5.00,0.00,30.06,,6.21,,OVC,,,,1500.00,,,,,,,,,,,71.60,SBMT 140100Z 11005KT 9999 OVC015 22/19 Q1018,
SBMT,2024-04-14 02:00,71.60,66.20,83.09,120.00,5.00,0.00,30.06,,6.21,,OVC,,,,1600.00,,,,,,,,,,,71.60,SBMT 140200Z 12005KT 9999 OVC016 22/19 Q1018,
SBMT,2024-04-14 09:00,68.00,66.20,93.97,90.00,4.00,0.00,30.03,,6.21,,,,,,,,,,,,,,,,,68.00,SBMT 140900Z 09004KT CAVOK 20/19 Q1017,
SBMT,2024-04-14 10:00,69.80,66.20,88.34,90.00,5.00,0.00,30.06,,6.21,,,,,,,,,,,,,,,,,69.80,SBMT 141000Z 09005KT CAVOK 21/19 Q1018,
SBMT,2024-04-14 11:00,69.80,66.20,88.34,100.00,7.00,0.00,30.09,,6.21,,,,,,,,,,,,,,,,,69.80,SBMT 141100Z 10007KT CAVOK 21/19 Q1019,
SBMT,2024-04-14 12:00,71.60,66.20,83.09,80.00,7.00,0.00,30.09,,6.21,,FEW,,,,1300.00,,,,,,,,,,,71.60,SBMT 141200Z 08007KT 9999 FEW013 22/19 Q1019,
SBMT,2024-04-14 13:00,73.40,66.20,78.19,60.00,5.00,0.00,30.09,,6.21,,,,,,,,,,,,,,,,,73.40,SBMT 141300Z 06005KT CAVOK 23/19 Q1019,
SBMT,2024-04-14 14:00,75.20,66.20,73.61,60.00,3.00,0.00,30.06,,6.21,,,,,,,,,,,,,,,,,75.20,SBMT 141400Z 06003KT CAVOK 24/19 Q1018,
SBMT,2024-04-14 15:00,78.80,66.20,65.33,70.00,3.00,0.00,30.06,,6.21,,,,,,,,,,,,,,,,,78.80,SBMT 141500Z 07003KT 020V150 CAVOK 26/19 Q1018,
SBMT,2024-04-14 16:00,78.80,66.20,65.33,,2.00,0.00,30.03,,6.21,,,,,,,,,,,,,,,,,78.80,SBMT 141600Z VRB02KT CAVOK 26/19 Q1017,
SBMT,2024-04-14 17:00,78.80,64.40,61.36,,2.00,0.00,30.03,,6.21,,,,,,,,,,,,,,,,,78.80,SBMT 141700Z VRB02KT CAVOK 26/18 Q1017,
SBMT,2024-04-14 18:00,80.60,62.60,54.30,270.00,2.00,0.00,30.00,,6.21,,,,,,,,,,,,,,,,,81.84,SBMT 141800Z 27002KT CAVOK 27/17 Q1016,
SBMT,2024-04-14 19:00,80.60,62.60,54.30,0.00,0.00,0.00,30.03,,6.21,,,,,,,,,,,,,,,,,81.84,SBMT 141900Z 00000KT CAVOK 27/17 Q1017,
SBMT,2024-04-14 20:00,75.20,68.00,78.34,150.00,7.00,0.00,30.03,,4.97,,FEW,SCT,BKN,,1500.00,2500.00,8000.00,,,,,,,,,75.20,SBMT 142000Z 15007KT 110V210 8000 FEW015 SCT025 BKN080 24/20 Q1017,
SBMT,2024-04-14 21:00,73.40,68.00,83.21,140.00,7.00,0.00,30.03,,3.11,,BKN,BKN,,,1500.00,2000.00,,,BR,,,,,,,73.40,SBMT 142100Z 14007KT 100V180 5000 BR BKN015 BKN020 23/20 Q1017,
SBMT,2024-04-14 22:00,73.40,68.00,83.21,130.00,7.00,0.00,30.03,,3.11,,BKN,BKN,,,1500.00,2000.00,,,BR,,,,,,,73.40,SBMT 142200Z 13007KT 100V160 5000 BR BKN015 BKN020 23/20 Q1017,
SBMT,2024-04-14 23:00,71.60,66.20,83.09,130.00,8.00,0.00,30.06,,3.73,,BKN,BKN,,,1700.00,2300.00,,,,,,,,,,71.60,SBMT 142300Z 13008KT 6000 BKN017 BKN023 22/19 Q1018,
SBMT,2024-04-15 00:00,71.60,66.20,83.09,130.00,6.00,0.00,30.06,,3.11,,BKN,BKN,,,1500.00,2300.00,,,BR,,,,,,,71.60,SBMT 150000Z 13006KT 080V150 5000 BR BKN015 BKN023 22/19 Q1018,
SBMT,2024-04-15 01:00,71.60,66.20,83.09,130.00,5.00,0.00,30.09,,3.11,,BKN,BKN,,,1500.00,2300.00,,,BR,,,,,,,71.60,SBMT 150100Z 13005KT 090V160 5000 BR BKN015 BKN023 22/19 Q1019,
SBMT,2024-04-15 02:00,71.60,66.20,83.09,80.00,5.00,0.00,30.06,,3.11,,BKN,BKN,,,1300.00,1700.00,,,BR,,,,,,,71.60,SBMT 150200Z 08005KT 5000 BR BKN013 BKN017 22/19 Q1018,
SBMT,2024-04-15 09:00,69.80,64.40,82.98,90.00,3.00,0.00,30.06,,4.97,,BKN,,,,4500.00,,,,,,,,,,,69.80,SBMT 150900Z 09003KT 8000 BKN045 21/18 Q1018,
SBMT,2024-04-15 10:00,69.80,64.40,82.98,80.00,6.00,0.00,30.06,,4.97,,BKN,,,,4500.00,,,,,,,,,,,69.80,SBMT 151000Z 08006KT 8000 BKN045 21/18 Q1018,
SBMT,2024-04-15 11:00,69.80,64.40,82.98,70.00,4.00,0.00,30.09,,4.97,,FEW,BKN,,,1000.00,10000.00,,,,,,,,,,69.80,SBMT 151100Z 07004KT 8000 FEW010 BKN100 21/18 Q1019,
SBMT,2024-04-15 12:00,71.60,66.20,83.09,70.00,3.00,0.00,30.12,,4.97,,SCT,BKN,,,3500.00,8000.00,,,,,,,,,,71.60,SBMT 151200Z 07003KT 8000 SCT035 BKN080 22/19 Q1020,
SBMT,2024-04-15 13:00,73.40,66.20,78.19,100.00,4.00,0.00,30.09,,4.97,,SCT,SCT,,,1300.00,10000.00,,,,,,,,,,73.40,SBMT 151300Z 10004KT 8000 SCT013 SCT100 23/19 Q1019,
SBMT,2024-04-15 14:00,77.00,64.40,65.12,70.00,3.00,0.00,30.06,,6.21,,,,,,,,,,,,,,,,,77.00,SBMT 151400Z 07003KT CAVOK 25/18 Q1018,
SBMT,2024-04-15 15:00,82.40,62.60,51.21,10.00,4.00,0.00,30.06,,6.21,,,,,,,,,,,,,,,,,83.41,SBMT 151500Z 01004KT CAVOK 28/17 Q1018,
SBMT,2024-04-15 16:00,82.40,60.80,48.05,320.00,5.00,0.00,30.03,,6.21,,FEW,,,,4000.00,,,,,,,,,,,82.90,SBMT 151600Z 32005KT 9999 FEW040 28/16 Q1017,
SBMT,2024-04-15 17:00,82.40,62.60,51.21,50.00,5.00,0.00,30.00,,6.21,,BKN,,,,4500.00,,,,,,,,,,,83.41,SBMT 151700Z 05005KT 9999 BKN045 28/17 Q1016,
SBMT,2024-04-15 18:00,82.40,62.60,51.21,340.00,7.00,0.00,30.00,,6.21,,BKN,,,,4500.00,,,,,,,,,,,83.41,SBMT 151800Z 34007KT 9999 BKN045 28/17 Q1016,
SBMT,2024-04-15 19:00,80.60,64.40,57.84,260.00,4.00,0.00,30.00,,6.21,,BKN,,,,4500.00,,,,,,,,,,,82.27,SBMT 151900Z 26004KT 9999 BKN045 27/18 Q1016,
SBMT,2024-04-15 20:00,75.20,68.00,78.34,150.00,9.00,0.00,30.03,,4.97,,BKN,,,,4300.00,,,,,,,,,,,75.20,SBMT 152000Z 15009KT 8000 BKN043 24/20 Q1017,
SBMT,2024-04-15 21:00,73.40,68.00,83.21,150.00,6.00,0.00,30.06,,4.97,,BKN,,,,1500.00,,,,,,,,,,,73.40,SBMT 152100Z 15006KT 8000 BKN015 23/20 Q1018,
SBMT,2024-04-15 22:00,73.40,68.00,83.21,130.00,4.00,0.00,30.06,,6.21,,BKN,,,,1500.00,,,,,,,,,,,73.40,SBMT 152200Z 13004KT 9999 BKN015 23/20 Q1018,
SBMT,2024-04-15 23:00,71.60,68.00,88.43,130.00,6.00,0.00,30.09,,6.21,,,,,,,,,,,,,,,,,71.60,SBMT 152300Z 13006KT CAVOK 22/20 Q1019,
SBMT,2024-04-16 00:00,71.60,66.20,83.09,100.00,6.00,0.00,30.12,,6.21,,,,,,,,,,,,,,,,,71.60,SBMT 160000Z 10006KT CAVOK 22/19 Q1020,
SBMT,2024-04-16 01:00,71.60,66.20,83.09,90.00,6.00,0.00,30.12,,6.21,,,,,,,,,,,,,,,,,71.60,SBMT 160100Z 09006KT CAVOK 22/19 Q1020,
SBMT,2024-04-16 02:00,71.60,68.00,88.43,80.00,5.00,0.00,30.12,,6.21,,,,,,,,,,,,,,,,,71.60,SBMT 160200Z 08005KT CAVOK 22/20 Q1020,
SBMT,2024-04-16 09:00,69.80,64.40,82.98,80.00,4.00,0.00,30.09,,6.21,,,,,,,,,,,,,,,,,69.80,SBMT 160900Z 08004KT CAVOK 21/18 Q1019,
SBMT,2024-04-16 10:00,69.80,66.20,88.34,90.00,6.00,0.00,30.12,,6.21,,,,,,,,,,,,,,,,,69.80,SBMT 161000Z 09006KT CAVOK 21/19 Q1020,
SBMT,2024-04-16 11:00,71.60,66.20,83.09,80.00,5.00,0.00,30.12,,6.21,,,,,,,,,,,,,,,,,71.60,SBMT 161100Z 08005KT CAVOK 22/19 Q1020,
SBMT,2024-04-16 12:00,77.00,64.40,65.12,90.00,5.00,0.00,30.12,,6.21,,,,,,,,,,,,,,,,,77.00,SBMT 161200Z 09005KT CAVOK 25/18 Q1020,
SBMT,2024-04-16 13:00,80.60,64.40,57.84,30.00,3.00,0.00,30.12,,6.21,,,,,,,,,,,,,,,,,82.27,SBMT 161300Z 03003KT CAVOK 27/18 Q1020,
SBMT,2024-04-16 14:00,82.40,64.40,54.55,340.00,5.00,0.00,30.12,,6.21,,,,,,,,,,,,,,,,,83.98,SBMT 161400Z 34005KT CAVOK 28/18 Q1020,
SBMT,2024-04-16 15:00,84.20,60.80,45.34,320.00,6.00,0.00,30.06,,6.21,,FEW,,,,4000.00,,,,,,,,,,,84.43,SBMT 161500Z 32006KT 9999 FEW040 29/16 Q1018,
SBMT,2024-04-16 16:00,84.20,60.80,45.34,360.00,7.00,0.00,30.06,,6.21,,SCT,,,,4000.00,,,,,,,,,,,84.43,SBMT 161600Z 36007KT 9999 SCT040 29/16 Q1018,
SBMT,2024-04-16 17:00,84.20,62.60,48.32,350.00,7.00,0.00,30.03,,6.21,,BKN,,,,4900.00,,,,,,,,,,,85.03,SBMT 161700Z 35007KT 9999 BKN049 29/17 Q1017,
SBMT,2024-04-16 18:00,84.20,64.40,51.47,340.00,6.00,0.00,30.03,,6.21,,BKN,,,,4900.00,,,,,,,,,,,85.71,SBMT 161800Z 34006KT 9999 BKN049 29/18 Q1017,
SBMT,2024-04-16 19:00,84.20,62.60,48.32,320.00,6.00,0.00,30.00,,6.21,,,,,,,,,,,,,,,,,85.03,SBMT 161900Z 32006KT CAVOK 29/17 Q1016,
SBMT,2024-04-16 20:00,84.20,64.40,51.47,350.00,4.00,0.00,30.00,,6.21,,,,,,,,,,,,,,,,,85.71,SBMT 162000Z 35004KT CAVOK 29/18 Q1016,
SBMT,2024-04-16 21:00,82.40,64.40,54.55,360.00,3.00,0.00,30.03,,6.21,,,,,,,,,,,,,,,,,83.98,SBMT 162100Z 36003KT CAVOK 28/18 Q1017,
SBMT,2024-04-16 22:00,80.60,66.20,61.58,120.00,5.00,0.00,30.03,,6.21,,BKN,,,,4900.00,,,,,,,,,,,82.75,SBMT 162200Z 12005KT 9999 BKN049 27/19 Q1017,
SBMT,2024-04-16 23:00,78.80,68.00,69.52,160.00,4.00,0.00,30.06,,4.97,,BKN,,,,4900.00,,,,-RA,,,,,,,78.80,SBMT 162300Z 16004KT 8000 -RA BKN049 26/20 Q1018,
SBMT,2024-04-17 00:00,75.20,69.80,83.32,130.00,4.00,0.00,30.06,,6.21,,BKN,,,,4000.00,,,,,,,,,,,75.20,SBMT 170000Z 13004KT 9999 BKN040 24/21 Q1018,
SBMT,2024-04-17 01:00,75.20,69.80,83.32,140.00,6.00,0.00,30.09,,6.21,,BKN,,,,4000.00,,,,,,,,,,,75.20,SBMT 170100Z 14006KT 9999 BKN040 24/21 Q1019,
SBMT,2024-04-17 02:00,73.40,69.80,88.51,170.00,3.00,0.00,30.09,,6.21,,BKN,,,,4900.00,,,,,,,,,,,73.40,SBMT 170200Z 17003KT 9999 BKN049 23/21 Q1019,
SBMT,2024-04-17 09:00,69.80,69.80,100.00,0.00,0.00,0.00,29.74,,6.21,,,,,,,,,,,,,,,,,69.80,SBMT 170900Z 00000KT CAVOK 21/21 Q1007,
SBMT,2024-04-17 10:00,69.80,68.00,94.01,0.00,0.00,0.00,30.03,,6.21,,,,,,,,,,,,,,,,,69.80,SBMT 171000Z 00000KT CAVOK 21/20 Q1017,
SBMT,2024-04-17 11:00,73.40,66.20,78.19,340.00,3.00,0.00,30.09,,6.21,,,,,,,,,,,,,,,,,73.40,SBMT 171100Z 34003KT CAVOK 23/19 Q1019,
SBMT,2024-04-17 12:00,77.00,68.00,73.78,20.00,4.00,0.00,30.09,,6.21,,,,,,,,,,,,,,,,,77.00,SBMT 171200Z 02004KT CAVOK 25/20 Q1019,
SBMT,2024-04-17 13:00,77.00,64.40,65.12,330.00,4.00,0.00,30.09,,6.21,,,,,,,,,,,,,,,,,77.00,SBMT 171300Z 33004KT CAVOK 25/18 Q1019,
SBMT,2024-04-17 14:00,78.80,66.20,65.33,340.00,6.00,0.00,30.06,,6.21,,,,,,,,,,,,,,,,,78.80,SBMT 171400Z 34006KT CAVOK 26/19 Q1018,
SBMT,2024-04-17 15:00,82.40,66.20,58.08,310.00,8.00,0.00,30.06,,6.21,,,,,,,,,,,,,,,,,84.63,SBMT 171500Z 31008KT CAVOK 28/19 Q1018,
SBMT,2024-04-17 16:00,80.60,66.20,61.58,330.00,10.00,0.00,30.03,,6.21,,,,,,,,,,,,,,,,,82.75,SBMT 171600Z 33010KT CAVOK 27/19 Q1017,
SBMT,2024-04-17 17:00,82.40,66.20,58.08,310.00,9.00,0.00,30.00,,6.21,,BKN,SCT,,,3300.00,5000.00,,,,,,,,,,84.63,SBMT 171700Z 31009KT 260V350 9999 BKN033 SCT050 28/19 Q1016,
SBMT,2024-04-17 18:00,80.60,66.20,61.58,290.00,9.00,0.00,29.97,,6.21,,BKN,FEW,,,3300.00,4000.00,,,,,,,,,,82.75,SBMT 171800Z 29009KT 260V320 9999 BKN033 FEW040TCU 27/19 Q1015,
SBMT,2024-04-17 19:00,80.60,66.20,61.58,290.00,10.00,0.00,29.97,,6.21,,BKN,FEW,,,3000.00,4000.00,,,,,,,,,,82.75,SBMT 171900Z 29010KT 260V320 9999 BKN030 FEW040TCU 27/19 Q1015,
SBMT,2024-04-17 20:00,78.80,64.40,61.36,310.00,7.00,0.00,29.97,,6.21,,BKN,FEW,,,3000.00,3600.00,,,,,,,,,,78.80,SBMT 172000Z 31007KT 280V350 9999 BKN030 FEW036TCU 26/18 Q1015,
SBMT,2024-04-17 21:00,77.00,64.40,65.12,280.00,8.00,0.00,30.00,,6.21,,BKN,FEW,,,3000.00,3600.00,,,,,,,,,,77.00,SBMT 172100Z 28008KT 9999 BKN030 FEW036TCU 25/18 Q1016,
SBMT,2024-04-17 22:00,75.20,66.20,73.61,280.00,8.00,0.00,30.00,,6.21,,BKN,,,,3300.00,,,,,,,,,,,75.20,SBMT 172200Z 28008KT 9999 BKN033 24/19 Q1016,
SBMT,2024-04-17 23:00,71.60,66.20,83.09,270.00,5.00,0.00,30.00,,6.21,,BKN,SCT,,,3000.00,7000.00,,,,,,,,,,71.60,SBMT 172300Z 27005KT 9999 BKN030 SCT070 22/19 Q1016,
SBMT,2024-04-18 00:00,71.60,66.20,83.09,260.00,7.00,0.00,30.03,,6.21,,BKN,SCT,,,2100.00,7000.00,,,,,,,,,,71.60,SBMT 180000Z 26007KT 9999 BKN021 SCT070 22/19 Q1017,
SBMT,2024-04-18 01:00,73.40,66.20,78.19,170.00,5.00,0.00,30.06,,6.21,,FEW,BKN,,,1300.00,1500.00,,,,,,,,,,73.40,SBMT 180100Z 17005KT 120V200 9999 FEW013 BKN015 23/19 Q1018,
SBMT,2024-04-18 02:00,69.80,66.20,88.34,170.00,8.00,0.00,30.06,,6.21,,BKN,BKN,,,1100.00,1300.00,,,,,,,,,,69.80,SBMT 180200Z 17008KT 120V200 9999 BKN011 BKN013 21/19 Q1018,
SBMT,2024-04-18 09:00,64.40,60.80,88.09,120.00,8.00,0.00,30.09,,6.21,,BKN,BKN,BKN,,1000.00,1300.00,2300.00,,,,,,,,,64.40,SBMT 180900Z 12008KT 9999 BKN010 BKN013 BKN023 18/16 Q1019,
SBMT,2024-04-18 10:00,64.40,60.80,88.09,140.00,9.00,0.00,30.12,,3.11,,BKN,OVC,,,1000.00,1200.00,,,-DZ BR,,,,,,,64.40,SBMT 181000Z 14009KT 5000 -DZ BR BKN010 OVC012 18/16 Q1020,
SBMT,2024-04-18 11:00,64.40,59.00,82.62,130.00,6.00,0.00,30.12,,6.21,,BKN,OVC,,,1300.00,2100.00,,,,,,,,,,64.40,SBMT 181100Z 13006KT 9999 BKN013 OVC021 18/15 Q1020,
SBMT,2024-04-18 12:00,64.40,59.00,82.62,130.00,8.00,0.00,30.15,,6.21,,BKN,OVC,,,1400.00,2100.00,,,,,,,,,,64.40,SBMT 181200Z 13008KT 9999 BKN014 OVC021 18/15 Q1021,
SBMT,2024-04-18 13:00,64.40,59.00,82.62,120.00,9.00,0.00,30.15,,6.21,,BKN,OVC,,,1800.00,2300.00,,,,,,,,,,64.40,SBMT 181300Z 12009KT 9999 BKN018 OVC023 18/15 Q1021,
SBMT,2024-04-18 14:00,64.40,57.20,77.45,140.00,7.00,0.00,30.15,,6.21,,BKN,OVC,,,1700.00,2200.00,,,,,,,,,,64.40,SBMT 181400Z 14007KT 9999 BKN017 OVC022 18/14 Q1021,
SBMT,2024-04-18 15:00,64.40,57.20,77.45,120.00,8.00,0.00,30.15,,6.21,,OVC,,,,1600.00,,,,,,,,,,,64.40,SBMT 181500Z 12008KT 9999 OVC016 18/14 Q1021,
SBMT,2024-04-18 16:00,64.40,57.20,77.45,130.00,9.00,0.00,30.12,,6.21,,OVC,,,,1700.00,,,,,,,,,,,64.40,SBMT 181600Z 13009KT 9999 OVC017 18/14 Q1020,
SBMT,2024-04-18 17:00,64.40,57.20,77.45,150.00,7.00,0.00,30.12,,6.21,,OVC,,,,1900.00,,,,,,,,,,,64.40,SBMT 181700Z 15007KT 110V210 9999 OVC019 18/14 Q1020,
SBMT,2024-04-18 18:00,62.60,59.00,88.00,140.00,7.00,0.00,30.12,,4.35,,SCT,OVC,,,1100.00,1500.00,,,,,,,,,,62.60,SBMT 181800Z 14007KT 110V180 7000 SCT011 OVC015 17/15 Q1020,
SBMT,2024-04-18 19:00,62.60,57.20,82.50,150.00,6.00,0.00,30.12,,6.21,,OVC,,,,1500.00,,,,,,,,,,,62.60,SBMT 181900Z 15006KT 100V200 9999 OVC015 17/14 Q1020,
SBMT,2024-04-18 20:00,64.40,57.20,77.45,120.00,8.00,0.00,30.12,,6.21,,OVC,,,,1500.00,,,,,,,,,,,64.40,SBMT 182000Z 12008KT 090V160 9999 OVC015 18/14 Q1020,
SBMT,2024-04-18 21:00,64.40,57.20,77.45,140.00,8.00,0.00,30.12,,6.21,,OVC,,,,1600.00,,,,,,,,,,,64.40,SBMT 182100Z 14008KT 110V170 9999 OVC016 18/14 Q1020,
SBMT,2024-04-18 22:00,62.60,57.20,82.50,120.00,6.00,0.00,30.12,,6.21,,OVC,,,,1600.00,,,,,,,,,,,62.60,SBMT 182200Z 12006KT 090V150 9999 OVC016 17/14 Q1020,
SBMT,2024-04-18 23:00,62.60,57.20,82.50,130.00,10.00,0.00,30.15,,6.21,,BKN,,,,1900.00,,,,,,,,,,,62.60,SBMT 182300Z 13010KT 9999 BKN019 17/14 Q1021,
SBMT,2024-04-19 00:00,62.60,57.20,82.50,140.00,7.00,0.00,30.15,,6.21,,BKN,,,,2600.00,,,,,,,,,,,62.60,SBMT 190000Z 14007KT 100V180 9999 BKN026 17/14 Q1021,
SBMT,2024-04-19 01:00,62.60,57.20,82.50,140.00,7.00,0.00,30.15,,6.21,,BKN,,,,3300.00,,,,,,,,,,,62.60,SBMT 190100Z 14007KT 110V190 9999 BKN033 17/14 Q1021,
SBMT,2024-04-19 02:00,62.60,55.40,77.29,120.00,6.00,0.00,30.15,,6.21,,BKN,,,,4000.00,,,,,,,,,,,62.60,SBMT 190200Z 12006KT 9999 BKN040 17/13 Q1021,
SBMT,2024-04-19 09:00,57.20,53.60,87.74,90.00,6.00,0.00,30.12,,6.21,,,,,,,,,,,,,,,,,57.20,SBMT 190900Z 09006KT CAVOK 14/12 Q1020,
SBMT,2024-04-19 10:00,57.20,53.60,87.74,90.00,5.00,0.00,30.15,,6.21,,,,,,,,,,,,,,,,,57.20,SBMT 191000Z 09005KT CAVOK 14/12 Q1021,
SBMT,2024-04-19 11:00,60.80,53.60,77.14,90.00,8.00,0.00,30.15,,6.21,,,,,,,,,,,,,,,,,60.80,SBMT 191100Z 09008KT CAVOK 16/12 Q1021,
SBMT,2024-04-19 12:00,64.40,48.20,55.63,90.00,8.00,0.00,30.18,,6.21,,,,,,,,,,,,,,,,,64.40,SBMT 191200Z 09008KT CAVOK 18/09 Q1022,
SBMT,2024-04-19 13:00,66.20,44.60,45.60,120.00,10.00,0.00,30.18,,6.21,,,,,,,,,,,,,,,,,66.20,SBMT 191300Z 12010KT CAVOK 19/07 Q1022,
SBMT,2024-04-19 14:00,69.80,44.60,40.29,110.00,7.00,0.00,30.18,,6.21,,SCT,,,,3600.00,,,,,,,,,,,69.80,SBMT 191400Z 11007KT 9999 SCT036 21/07 Q1022,
SBMT,2024-04-19 15:00,71.60,44.60,37.89,80.00,8.00,0.00,30.15,,6.21,,FEW,,,,3500.00,,,,,,,,,,,71.60,SBMT 191500Z 08008KT 9999 FEW035 22/07 Q1021,
SBMT,2024-04-19 16:00,73.40,46.40,38.18,110.00,7.00,0.00,30.12,,6.21,,SCT,,,,3500.00,,,,,,,,,,,73.40,SBMT 191600Z 11007KT 9999 SCT035 23/08 Q1020,
SBMT,2024-04-19 17:00,73.40,46.40,38.18,120.00,5.00,0.00,30.12,,6.21,,SCT,,,,4000.00,,,,,,,,,,,73.40,SBMT 191700Z 12005KT 080V160 9999 SCT040 23/08 Q1020,
SBMT,2024-04-19 18:00,73.40,50.00,43.69,170.00,10.00,0.00,30.09,,6.21,,,,,,,,,,,,,,,,,73.40,SBMT 191800Z 17010KT 120V200 CAVOK 23/10 Q1019,
SBMT,2024-04-19 19:00,71.60,51.80,49.64,160.00,8.00,0.00,30.12,,6.21,,,,,,,,,,,,,,,,,71.60,SBMT 191900Z 16008KT 130V200 CAVOK 22/11 Q1020,
SBMT,2024-04-19 20:00,68.00,51.80,56.13,140.00,9.00,0.00,30.12,,6.21,,,,,,,,,,,,,,,,,68.00,SBMT 192000Z 14009KT 100V180 CAVOK 20/11 Q1020,
SBMT,2024-04-19 21:00,64.40,51.80,63.60,140.00,9.00,0.00,30.15,,6.21,,,,,,,,,,,,,,,,,64.40,SBMT 192100Z 14009KT 110V170 CAVOK 18/11 Q1021,
SBMT,2024-04-19 22:00,62.60,53.60,72.38,130.00,9.00,0.00,30.15,,6.21,,SCT,,,,3000.00,,,,,,,,,,,62.60,SBMT 192200Z 13009KT 090V170 9999 SCT030 17/12 Q1021,
SBMT,2024-04-19 23:00,62.60,53.60,72.38,110.00,9.00,0.00,30.18,,6.21,,BKN,,,,2600.00,,,,,,,,,,,62.60,SBMT 192300Z 11009KT 9999 BKN026 17/12 Q1022,
SBMT,2024-04-20 00:00,62.60,55.40,77.29,110.00,9.00,0.00,30.18,,6.21,,OVC,,,,1700.00,,,,,,,,,,,62.60,SBMT 200000Z 11009KT 9999 OVC017 17/13 Q1022,
SBMT,2024-04-20 01:00,62.60,55.40,77.29,100.00,12.00,0.00,30.18,,6.21,,BKN,OVC,,,1500.00,1700.00,,,,,,,,,,62.60,SBMT 200100Z 10012KT 9999 BKN015 OVC017 17/13 Q1022,
SBMT,2024-04-20 02:00,62.60,53.60,72.38,110.00,10.00,0.00,30.18,,6.21,,OVC,,,,2100.00,,,,,,,,,,,62.60,SBMT 200200Z 11010KT 9999 OVC021 17/12 Q1022,
SBMT,2024-04-20 09:00,60.80,57.20,87.92,100.00,7.00,0.00,30.15,,6.21,,BKN,,,,1700.00,,,,,,,,,,,60.80,SBMT 200900Z 10007KT 9999 BKN017 16/14 Q1021,
SBMT,2024-04-20 10:00,62.60,57.20,82.50,100.00,7.00,0.00,30.18,,6.21,,BKN,,,,1500.00,,,,,,,,,,,62.60,SBMT 201000Z 10007KT 9999 BKN015 17/14 Q1022,
SBMT,2024-04-20 11:00,62.60,57.20,82.50,90.00,10.00,0.00,30.21,,6.21,,BKN,,,,1500.00,,,,,,,,,,,62.60,SBMT 201100Z 09010KT 9999 BKN015 17/14 Q1023,
SBMT,2024-04-20 12:00,66.20,57.20,72.74,100.00,8.00,0.00,30.21,,6.21,,,,,,,,,,,,,,,,,66.20,SBMT 201200Z 10008KT CAVOK 19/14 Q1023,
SBMT,2024-04-20 14:00,71.60,59.00,64.48,80.00,8.00,0.00,30.18,,6.21,,,,,,,,,,,,,,,,,71.60,SBMT 201400Z 08008KT CAVOK 22/15 Q1022,
SBMT,2024-04-20 15:00,73.40,59.00,60.67,100.00,8.00,0.00,30.18,,6.21,,,,,,,,,,,,,,,,,73.40,SBMT 201500Z 10008KT CAVOK 23/15 Q1022,
SBMT,2024-04-20 16:00,75.20,60.80,60.90,90.00,5.00,0.00,30.15,,6.21,,,,,,,,,,,,,,,,,75.20,SBMT 201600Z 09005KT CAVOK 24/16 Q1021,
SBMT,2024-04-20 17:00,77.00,55.40,47.25,,3.00,0.00,30.12,,6.21,,,,,,,,,,,,,,,,,77.00,SBMT 201700Z VRB03KT CAVOK 25/13 Q1020,
SBMT,2024-04-20 18:00,78.80,55.40,44.52,80.00,5.00,0.00,30.09,,6.21,,,,,,,,,,,,,,,,,78.80,SBMT 201800Z 08005KT 360V150 CAVOK 26/13 Q1019,
SBMT,2024-04-20 19:00,75.20,60.80,60.90,170.00,9.00,0.00,30.09,,6.21,,,,,,,,,,,,,,,,,75.20,SBMT 201900Z 17009KT 130V190 CAVOK 24/16 Q1019,
SBMT,2024-04-20 20:00,71.60,59.00,64.48,150.00,8.00,0.00,30.09,,6.21,,,,,,,,,,,,,,,,,71.60,SBMT 202000Z 15008KT 120V190 CAVOK 22/15 Q1019,
SBMT,2024-04-20 21:00,68.00,59.00,72.92,150.00,6.00,0.00,30.12,,6.21,,,,,,,,,,,,,,,,,68.00,SBMT 202100Z 15006KT 120V180 CAVOK 20/15 Q1020,
SBMT,2024-04-20 22:00,66.20,59.00,77.60,160.00,5.00,0.00,30.15,,6.21,,,,,,,,,,,,,,,,,66.20,SBMT 202200Z 16005KT 120V180 CAVOK 19/15 Q1021,
SBMT,2024-04-20 23:00,64.40,59.00,82.62,140.00,4.00,0.00,30.15,,6.21,,FEW,,,,1300.00,,,,,,,,,,,64.40,SBMT 202300Z 14004KT 9999 FEW013 18/15 Q1021,
SBMT,2024-04-21 00:00,64.40,57.20,77.45,140.00,4.00,0.00,30.18,,6.21,,,,,,,,,,,,,,,,,64.40,SBMT 210000Z 14004KT 120V180 CAVOK 18/14 Q1022,
SBMT,2024-04-21 01:00,64.40,57.20,77.45,160.00,5.00,0.00,30.18,,6.21,,,,,,,,,,,,,,,,,64.40,SBMT 210100Z 16005KT CAVOK 18/14 Q1022,
SBMT,2024-04-21 02:00,62.60,57.20,82.50,140.00,4.00,0.00,30.18,,6.21,,,,,,,,,,,,,,,,,62.60,SBMT 210200Z 14004KT CAVOK 17/14 Q1022,
SBMT,2024-04-21 09:00,62.60,59.00,88.00,50.00,7.00,0.00,30.12,,1.24,,BKN,,,,900.00,,,,BR,,,,,,,62.60,SBMT 210900Z 05007KT 2000 BR BKN009 17/15 Q1020,
SBMT,2024-04-21 10:00,60.80,59.00,93.79,70.00,4.00,0.00,30.15,,3.11,,BKN,,,,900.00,,,,BR,,,,,,,60.80,SBMT 211000Z 07004KT 5000 BR BKN009 16/15 Q1021,
SBMT,2024-04-21 11:00,62.60,59.00,88.00,60.00,4.00,0.00,30.18,,4.35,,BKN,,,,900.00,,,,,,,,,,,62.60,SBMT 211100Z 06004KT 7000 BKN009 17/15 Q1022,
SBMT,2024-04-21 12:00,64.40,60.80,88.09,80.00,2.00,0.00,30.18,,4.97,,SCT,,,,1100.00,,,,,,,,,,,64.40,SBMT 211200Z 08002KT 8000 SCT011 18/16 Q1022,
SBMT,2024-04-21 13:00,69.80,59.00,68.55,240.00,2.00,0.00,30.18,,6.21,,,,,,,,,,,,,,,,,69.80,SBMT 211300Z 24002KT CAVOK 21/15 Q1022,
SBMT,2024-04-21 14:00,73.40,60.80,64.69,240.00,2.00,0.00,30.15,,6.21,,,,,,,,,,,,,,,,,73.40,SBMT 211400Z 24002KT CAVOK 23/16 Q1021,
SBMT,2024-04-21 15:00,77.00,55.40,47.25,310.00,6.00,0.00,30.12,,6.21,,,,,,,,,,,,,,,,,77.00,SBMT 211500Z 31006KT CAVOK 25/13 Q1020,
SBMT,2024-04-21 16:00,80.60,53.60,39.30,290.00,7.00,0.00,30.09,,6.21,,,,,,,,,,,,,,,,,80.29,SBMT 211600Z 29007KT CAVOK 27/12 Q1019,
SBMT,2024-04-21 17:00,82.40,51.80,34.69,280.00,6.00,0.00,30.06,,6.21,,,,,,,,,,,,,,,,,81.20,SBMT 211700Z 28006KT 220V350 CAVOK 28/11 Q1018,
SBMT,2024-04-21 18:00,84.20,48.20,28.63,310.00,6.00,0.00,30.06,,6.21,,,,,,,,,,,,,,,,,82.04,SBMT 211800Z 31006KT 260V350 CAVOK 29/09 Q1018,
SBMT,2024-04-21 19:00,82.40,48.20,30.35,270.00,7.00,0.00,30.03,,6.21,,,,,,,,,,,,,,,,,80.80,SBMT 211900Z 27007KT 230V310 CAVOK 28/09 Q1017,
SBMT,2024-04-21 20:00,80.60,50.00,34.41,330.00,5.00,0.00,30.03,,6.21,,,,,,,,,,,,,,,,,79.88,SBMT 212000Z 33005KT 280V030 CAVOK 27/10 Q1017,
SBMT,2024-04-21 21:00,75.20,59.00,57.12,150.00,7.00,0.00,30.03,,6.21,,,,,,,,,,,,,,,,,75.20,SBMT 212100Z 15007KT CAVOK 24/15 Q1017,
SBMT,2024-04-21 22:00,71.60,59.00,64.48,120.00,5.00,0.00,30.06,,6.21,,,,,,,,,,,,,,,,,71.60,SBMT 212200Z 12005KT CAVOK 22/15 Q1018,
SBMT,2024-04-21 23:00,71.60,59.00,64.48,90.00,3.00,0.00,30.06,,6.21,,,,,,,,,,,,,,,,,71.60,SBMT 212300Z 09003KT CAVOK 22/15 Q1018,
SBMT,2024-04-22 00:00,68.00,59.00,72.92,,2.00,0.00,30.09,,6.21,,,,,,,,,,,,,,,,,68.00,SBMT 220000Z VRB02KT CAVOK 20/15 Q1019,
SBMT,2024-04-22 01:00,66.20,59.00,77.60,,1.00,0.00,30.09,,6.21,,,,,,,,,,,,,,,,,66.20,SBMT 220100Z VRB01KT CAVOK 19/15 Q1019,
SBMT,2024-04-22 02:00,69.80,60.80,73.09,70.00,4.00,0.00,30.09,,6.21,,,,,,,,,,,,,,,,,69.80,SBMT 220200Z 07004KT CAVOK 21/16 Q1019,
SBMT,2024-04-22 09:00,59.00,59.00,100.00,0.00,0.00,0.00,30.06,,6.21,,,,,,,,,,,,,,,,,59.00,SBMT 220900Z 00000KT CAVOK 15/15 Q1018,
SBMT,2024-04-22 10:00,62.60,59.00,88.00,90.00,4.00,0.00,30.09,,6.21,,,,,,,,,,,,,,,,,62.60,SBMT 221000Z 09004KT CAVOK 17/15 Q1019,
SBMT,2024-04-22 11:00,66.20,60.80,82.74,110.00,3.00,0.00,30.09,,6.21,,,,,,,,,,,,,,,,,66.20,SBMT 221100Z 11003KT CAVOK 19/16 Q1019,
SBMT,2024-04-22 12:00,71.60,60.80,68.75,60.00,1.00,0.00,30.12,,6.21,,,,,,,,,,,,,,,,,71.60,SBMT 221200Z 06001KT CAVOK 22/16 Q1020,
SBMT,2024-04-22 13:00,75.20,59.00,57.12,40.00,4.00,0.00,30.12,,6.21,,,,,,,,,,,,,,,,,75.20,SBMT 221300Z 04004KT CAVOK 24/15 Q1020,
SBMT,2024-04-22 14:00,78.80,53.60,41.69,310.00,6.00,0.00,30.09,,6.21,,,,,,,,,,,,,,,,,78.80,SBMT 221400Z 31006KT CAVOK 26/12 Q1019,
SBMT,2024-04-22 15:00,80.60,53.60,39.30,300.00,10.00,0.00,30.03,,6.21,,,,,,,,,,,,,,,,,80.29,SBMT 221500Z 30010KT CAVOK 27/12 Q1017,
SBMT,2024-04-22 16:00,80.60,51.80,36.79,320.00,8.00,0.00,30.00,,6.21,,,,,,,,,,,,,,,,,80.08,SBMT 221600Z 32008KT CAVOK 27/11 Q1016,
SBMT,2024-04-22 17:00,82.40,53.60,37.07,30.00,7.00,0.00,30.00,,6.21,,FEW,,,,4000.00,,,,,,,,,,,81.46,SBMT 221700Z 03007KT 9999 FEW040 28/12 Q1016,
SBMT,2024-04-22 18:00,82.40,51.80,34.69,280.00,9.00,0.00,29.97,,6.21,,FEW,,,,4000.00,,,,,,,,,,,81.20,SBMT 221800Z 28009KT 9999 FEW040 28/11 Q1015,
SBMT,2024-04-22 19:00,82.40,53.60,37.07,310.00,6.00,0.00,29.97,,6.21,,FEW,,,,4000.00,,,,,,,,,,,81.46,SBMT 221900Z 31006KT 9999 FEW040 28/12 Q1015,
SBMT,2024-04-22 20:00,80.60,53.60,39.30,270.00,7.00,0.00,30.00,,6.21,,FEW,,,,4000.00,,,,,,,,,,,80.29,SBMT 222000Z 27007KT 9999 FEW040 27/12 Q1016,
SBMT,2024-04-22 21:00,77.00,53.60,44.25,280.00,6.00,0.00,30.00,,6.21,,BKN,,,,4000.00,,,,,,,,,,,77.00,SBMT 222100Z 28006KT 9999 BKN040 25/12 Q1016,
SBMT,2024-04-22 22:00,75.20,57.20,53.55,180.00,2.00,0.00,30.03,,6.21,,,,,,,,,,,,,,,,,75.20,SBMT 222200Z 18002KT CAVOK 24/14 Q1017,
SBMT,2024-04-22 23:00,73.40,62.60,68.94,140.00,3.00,0.00,30.03,,6.21,,,,,,,,,,,,,,,,,73.40,SBMT 222300Z 14003KT CAVOK 23/17 Q1017,
SBMT,2024-04-23 00:00,71.60,60.80,68.75,90.00,5.00,0.00,30.06,,6.21,,,,,,,,,,,,,,,,,71.60,SBMT 230000Z 09005KT CAVOK 22/16 Q1018,
SBMT,2024-04-23 01:00,71.60,60.80,68.75,60.00,3.00,0.00,30.06,,6.21,,,,,,,,,,,,,,,,,71.60,SBMT 230100Z 06003KT CAVOK 22/16 Q1018,
SBMT,2024-04-23 02:00,69.80,59.00,68.55,70.00,4.00,0.00,30.06,,6.21,,,,,,,,,,,,,,,,,69.80,SBMT 230200Z 07004KT CAVOK 21/15 Q1018,
SBMT,2024-04-23 09:00,60.80,57.20,87.92,90.00,2.00,0.00,30.06,,6.21,,,,,,,,,,,,,,,,,60.80,SBMT 230900Z 09002KT CAVOK 16/14 Q1018,
SBMT,2024-04-23 10:00,60.80,57.20,87.92,0.00,0.00,0.00,30.06,,6.21,,,,,,,,,,,,,,,,,60.80,SBMT 231000Z 00000KT CAVOK 16/14 Q1018,
SBMT,2024-04-23 11:00,68.00,57.20,68.35,200.00,2.00,0.00,30.06,,6.21,,,,,,,,,,,,,,,,,68.00,SBMT 231100Z 20002KT CAVOK 20/14 Q1018,
SBMT,2024-04-23 12:00,73.40,55.40,53.29,80.00,2.00,0.00,30.09,,6.21,,,,,,,,,,,,,,,,,73.40,SBMT 231200Z 08002KT CAVOK 23/13 Q1019,
SBMT,2024-04-23 13:00,78.80,57.20,47.52,220.00,2.00,0.00,30.09,,6.21,,,,,,,,,,,,,,,,,78.80,SBMT 231300Z 22002KT CAVOK 26/14 Q1019,
SBMT,2024-04-23 14:00,80.60,55.40,41.97,290.00,8.00,0.00,30.09,,6.21,,,,,,,,,,,,,,,,,80.53,SBMT 231400Z 29008KT CAVOK 27/13 Q1019,
SBMT,2024-04-23 15:00,82.40,55.40,39.58,310.00,8.00,0.00,30.06,,6.21,,,,,,,,,,,,,,,,,81.75,SBMT 231500Z 31008KT CAVOK 28/13 Q1018,
SBMT,2024-04-23 16:00,84.20,55.40,37.35,300.00,7.00,0.00,30.03,,6.21,,,,,,,,,,,,,,,,,83.09,SBMT 231600Z 30007KT CAVOK 29/13 Q1017,
SBMT,2024-04-23 17:00,84.20,51.80,32.73,310.00,8.00,0.00,30.00,,6.21,,,,,,,,,,,,,,,,,82.48,SBMT 231700Z 31008KT 250V360 CAVOK 29/11 Q1016,
SBMT,2024-04-23 18:00,84.20,51.80,32.73,280.00,7.00,0.00,30.00,,6.21,,,,,,,,,,,,,,,,,82.48,SBMT 231800Z 28007KT 250V330 CAVOK 29/11 Q1016,
SBMT,2024-04-23 19:00,84.20,53.60,34.97,300.00,6.00,0.00,30.00,,6.21,,,,,,,,,,,,,,,,,82.76,SBMT 231900Z 30006KT 240V010 CAVOK 29/12 Q1016,
SBMT,2024-04-23 20:00,82.40,53.60,37.07,280.00,7.00,0.00,30.00,,6.21,,,,,,,,,,,,,,,,,81.46,SBMT 232000Z 28007KT 260V320 CAVOK 28/12 Q1016,
SBMT,2024-04-23 21:00,80.60,53.60,39.30,300.00,5.00,0.00,30.03,,6.21,,,,,,,,,,,,,,,,,80.29,SBMT 232100Z 30005KT 270V330 CAVOK 27/12 Q1017,
SBMT,2024-04-23 22:00,77.00,55.40,47.25,340.00,3.00,0.00,30.03,,6.21,,,,,,,,,,,,,,,,,77.00,SBMT 232200Z 34003KT 290V360 CAVOK 25/13 Q1017,
SBMT,2024-04-23 23:00,71.60,55.40,56.63,360.00,3.00,0.00,30.03,,6.21,,,,,,,,,,,,,,,,,71.60,SBMT 232300Z 36003KT CAVOK 22/13 Q1017,
SBMT,2024-04-24 00:00,69.80,57.20,64.26,0.00,0.00,0.00,30.06,,6.21,,,,,,,,,,,,,,,,,69.80,SBMT 240000Z 00000KT CAVOK 21/14 Q1018,
SBMT,2024-04-24 01:00,66.20,57.20,72.74,0.00,0.00,0.00,30.03,,6.21,,,,,,,,,,,,,,,,,66.20,SBMT 240100Z 00000KT CAVOK 19/14 Q1017,
SBMT,2024-04-24 02:00,68.00,55.40,64.04,,2.00,0.00,30.06,,6.21,,,,,,,,,,,,,,,,,68.00,SBMT 240200Z VRB02KT CAVOK 20/13 Q1018,
SBMT,2024-04-24 09:00,59.00,55.40,87.83,0.00,0.00,0.00,30.03,,6.21,,,,,,,,,,,,,,,,,59.00,SBMT 240900Z 00000KT CAVOK 15/13 Q1017,
SBMT,2024-04-24 10:00,60.80,57.20,87.92,0.00,0.00,0.00,30.06,,6.21,,,,,,,,,,,,,,,,,60.80,SBMT 241000Z 00000KT CAVOK 16/14 Q1018,
SBMT,2024-04-24 11:00,69.80,59.00,68.55,0.00,0.00,0.00,30.06,,6.21,,,,,,,,,,,,,,,,,69.80,SBMT 241100Z 00000KT CAVOK 21/15 Q1018,
SBMT,2024-04-24 12:00,75.20,57.20,53.55,270.00,3.00,0.00,30.09,,6.21,,,,,,,,,,,,,,,,,75.20,SBMT 241200Z 27003KT 230V310 CAVOK 24/14 Q1019,
SBMT,2024-04-24 13:00,78.80,55.40,44.52,310.00,5.00,0.00,30.09,,6.21,,,,,,,,,,,,,,,,,78.80,SBMT 241300Z 31005KT 270V020 CAVOK 26/13 Q1019,
SBMT,2024-04-24 14:00,80.60,57.20,44.80,280.00,9.00,0.00,30.09,,6.21,,,,,,,,,,,,,,,,,80.81,SBMT 241400Z 28009KT 250V310 CAVOK 27/14 Q1019,
SBMT,2024-04-24 15:00,82.40,59.00,45.07,310.00,8.00,0.00,30.06,,6.21,,,,,,,,,,,,,,,,,82.46,SBMT 241500Z 31008KT 270V340 CAVOK 28/15 Q1018,
SBMT,2024-04-24 16:00,84.20,59.00,42.52,280.00,9.00,0.00,30.03,,6.21,,,,,,,,,,,,,,,,,83.92,SBMT 241600Z 28009KT CAVOK 29/15 Q1017,
SBMT,2024-04-24 17:00,84.20,59.00,42.52,290.00,9.00,0.00,30.00,,6.21,,FEW,SCT,,,4000.00,10000.00,,,,,,,,,,83.92,SBMT 241700Z 29009KT 9999 FEW040 SCT100 29/15 Q1016,
SBMT,2024-04-24 18:00,86.00,59.00,40.14,280.00,9.00,0.00,30.00,,6.21,,FEW,SCT,,,4000.00,10000.00,,,,,,,,,,85.47,SBMT 241800Z 28009KT 9999 FEW040 SCT100 30/15 Q1016,
SBMT,2024-04-24 19:00,84.20,60.80,45.34,230.00,8.00,0.00,30.00,,6.21,,SCT,BKN,,,4000.00,10000.00,,,,,,,,,,84.43,SBMT 241900Z 23008KT 200V270 9999 SCT040 BKN100 29/16 Q1016,
SBMT,2024-04-24 20:00,82.40,59.00,45.07,230.00,7.00,0.00,30.03,,6.21,,FEW,BKN,,,4000.00,10000.00,,,,,,,,,,82.46,SBMT 242000Z 23007KT 9999 FEW040 BKN100 28/15 Q1017,
SBMT,2024-04-24 21:00,78.80,66.20,65.33,150.00,6.00,0.00,30.03,,6.21,,FEW,BKN,,,4000.00,10000.00,,,,,,,,,,78.80,SBMT 242100Z 15006KT 120V200 9999 FEW040 BKN100 26/19 Q1017,
SBMT,2024-04-24 22:00,77.00,64.40,65.12,170.00,7.00,0.00,30.06,,6.21,,,,,,,,,,,,,,,,,77.00,SBMT 242200Z 17007KT 130V200 CAVOK 25/18 Q1018,
SBMT,2024-04-24 23:00,73.40,64.40,73.44,140.00,7.00,0.00,30.09,,6.21,,,,,,,,,,,,,,,,,73.40,SBMT 242300Z 14007KT 110V170 CAVOK 23/18 Q1019,
SBMT,2024-04-25 00:00,71.60,62.60,73.27,140.00,6.00,0.00,30.12,,6.21,,,,,,,,,,,,,,,,,71.60,SBMT 250000Z 14006KT 100V200 CAVOK 22/17 Q1020,
SBMT,2024-04-25 01:00,71.60,60.80,68.75,170.00,7.00,0.00,30.12,,6.21,,,,,,,,,,,,,,,,,71.60,SBMT 250100Z 17007KT 130V190 CAVOK 22/16 Q1020,
SBMT,2024-04-25 02:00,69.80,64.40,82.98,160.00,7.00,0.00,30.12,,6.21,,SCT,BKN,,,2000.00,10000.00,,,,,,,,,,69.80,SBMT 250200Z 16007KT 9999 SCT020 BKN100 21/18 Q1020,
SBMT,2024-04-25 09:00,69.80,62.60,77.90,110.00,6.00,0.00,30.09,,6.21,,BKN,,,,2000.00,,,,,,,,,,,69.80,SBMT 250900Z 11006KT 9999 BKN020 21/17 Q1019,
SBMT,2024-04-25 10:00,69.80,62.60,77.90,80.00,6.00,0.00,30.09,,6.21,,,,,,,,,,,,,,,,,69.80,SBMT 251000Z 08006KT CAVOK 21/17 Q1019,
SBMT,2024-04-25 11:00,71.60,62.60,73.27,80.00,7.00,0.00,30.12,,6.21,,SCT,,,,1500.00,,,,,,,,,,,71.60,SBMT 251100Z 08007KT 9999 SCT015 22/17 Q1020,
SBMT,2024-04-25 12:00,73.40,64.40,73.44,70.00,7.00,0.00,30.12,,6.21,,,,,,,,,,,,,,,,,73.40,SBMT 251200Z 07007KT CAVOK 23/18 Q1020,
SBMT,2024-04-25 13:00,75.20,62.60,64.91,80.00,6.00,0.00,30.15,,6.21,,SCT,BKN,,,2500.00,10000.00,,,,,,,,,,75.20,SBMT 251300Z 08006KT 9999 SCT025 BKN100 24/17 Q1021,
SBMT,2024-04-25 14:00,77.00,66.20,69.33,100.00,9.00,0.00,30.12,,6.21,,BKN,,,,2500.00,,,,,,,,,,,77.00,SBMT 251400Z 10009KT 9999 BKN025 25/19 Q1020,
SBMT,2024-04-25 15:00,77.00,64.40,65.12,120.00,7.00,0.00,30.09,,6.21,,SCT,,,,3000.00,,,,,,,,,,,77.00,SBMT 251500Z 12007KT 9999 SCT030 25/18 Q1019,
SBMT,2024-04-25 16:00,80.60,62.60,54.30,100.00,7.00,0.00,30.06,,6.21,,BKN,,,,3000.00,,,,,,,,,,,81.84,SBMT 251600Z 10007KT 9999 BKN030 27/17 Q1018,
SBMT,2024-04-25 17:00,78.80,60.80,54.05,80.00,4.00,0.00,30.03,,6.21,,BKN,,,,4000.00,,,,,,,,,,,78.80,SBMT 251700Z 08004KT 040V140 9999 BKN040 26/16 Q1017,
SBMT,2024-04-25 18:00,77.00,64.40,65.12,180.00,10.00,0.00,30.03,,6.21,,BKN,,,,4000.00,,,,,,,,,,,77.00,SBMT 251800Z 18010KT 140V210 9999 BKN040 25/18 Q1017,
SBMT,2024-04-25 19:00,73.40,64.40,73.44,160.00,8.00,0.00,30.03,,6.21,,BKN,SCT,,,3000.00,10000.00,,,,,,,,,,73.40,SBMT 251900Z 16008KT 120V200 9999 BKN030 SCT100 23/18 Q1017,
SBMT,2024-04-25 20:00,71.60,64.40,78.04,160.00,8.00,0.00,30.06,,3.73,,BKN,,,,1500.00,,,,,,,,,,,71.60,SBMT 252000Z 16008KT 120V190 6000 BKN015 22/18 Q1018,
SBMT,2024-04-25 21:00,69.80,64.40,82.98,170.00,8.00,0.00,30.06,,4.35,,BKN,OVC,,,1100.00,1300.00,,,,,,,,,,69.80,SBMT 252100Z 17008KT 140V200 7000 BKN011 OVC013 21/18 Q1018,
SBMT,2024-04-25 22:00,69.80,64.40,82.98,130.00,7.00,0.00,30.09,,4.35,,FEW,BKN,,,900.00,1100.00,,,,,,,,,,69.80,SBMT 252200Z 13007KT 110V190 7000 FEW009 BKN011 21/18 Q1019,
SBMT,2024-04-25 23:00,69.80,66.20,88.34,160.00,7.00,0.00,30.12,,6.21,,SCT,BKN,,,900.00,1100.00,,,,,,,,,,69.80,SBMT 252300Z 16007KT 9999 SCT009 BKN011 21/19 Q1020,
SBMT,2024-04-26 00:00,68.00,64.40,88.26,130.00,4.00,0.00,30.12,,6.21,,BKN,BKN,,,900.00,1100.00,,,,,,,,,,68.00,SBMT 260000Z 13004KT 9999 BKN009 BKN011 20/18 Q1020,
SBMT,2024-04-26 01:00,69.80,66.20,88.34,140.00,5.00,0.00,30.12,,6.21,,SCT,BKN,,,1100.00,1300.00,,,,,,,,,,69.80,SBMT 260100Z 14005KT 100V160 9999 SCT011 BKN013 21/19 Q1020,
SBMT,2024-04-26 02:00,69.80,64.40,82.98,120.00,6.00,0.00,30.15,,6.21,,BKN,BKN,,,1300.00,1500.00,,,,,,,,,,69.80,SBMT 260200Z 12006KT 9999 BKN013 BKN015 21/18 Q1021,
SBMT,2024-04-26 09:00,69.80,64.40,82.98,100.00,8.00,0.00,30.09,,6.21,,BKN,OVC,,,1300.00,2200.00,,,,,,,,,,69.80,SBMT 260900Z 10008KT 9999 BKN013 OVC022 21/18 Q1019,
SBMT,2024-04-26 10:00,69.80,64.40,82.98,90.00,7.00,0.00,30.12,,6.21,,OVC,,,,1300.00,,,,,,,,,,,69.80,SBMT 261000Z 09007KT 9999 OVC013 21/18 Q1020,
SBMT,2024-04-26 11:00,69.80,64.40,82.98,70.00,9.00,0.00,30.12,,6.21,,BKN,,,,1500.00,,,,,,,,,,,69.80,SBMT 261100Z 07009KT 9999 BKN015 21/18 Q1020,
SBMT,2024-04-26 12:00,73.40,66.20,78.19,90.00,7.00,0.00,30.15,,6.21,,BKN,,,,1700.00,,,,,,,,,,,73.40,SBMT 261200Z 09007KT 9999 BKN017 23/19 Q1021,
SBMT,2024-04-26 13:00,75.20,66.20,73.61,80.00,6.00,0.00,30.15,,6.21,,SCT,,,,2000.00,,,,,,,,,,,75.20,SBMT 261300Z 08006KT 9999 SCT020 24/19 Q1021,
SBMT,2024-04-26 14:00,77.00,66.20,69.33,70.00,8.00,0.00,30.12,,6.21,,SCT,,,,2300.00,,,,,,,,,,,77.00,SBMT 261400Z 07008KT 9999 SCT023 25/19 Q1020,
SBMT,2024-04-26 15:00,77.00,66.20,69.33,100.00,6.00,0.00,30.09,,6.21,,FEW,,,,2600.00,,,,,,,,,,,77.00,SBMT 261500Z 10006KT 9999 FEW026 25/19 Q1019,
SBMT,2024-04-26 16:00,78.80,66.20,65.33,90.00,6.00,0.00,30.06,,6.21,,FEW,,,,3300.00,,,,,,,,,,,78.80,SBMT 261600Z 09006KT 9999 FEW033 26/19 Q1018,
SBMT,2024-04-26 17:00,78.80,64.40,61.36,120.00,5.00,0.00,30.03,,6.21,,SCT,,,,3300.00,,,,,,,,,,,78.80,SBMT 261700Z 12005KT 9999 SCT033 26/18 Q1017,
SBMT,2024-04-26 18:00,80.60,64.40,57.84,110.00,3.00,0.00,30.03,,6.21,,SCT,,,,3300.00,,,,,,,,,,,82.27,SBMT 261800Z 11003KT 9999 SCT033 27/18 Q1017,
SBMT,2024-04-26 19:00,82.40,66.20,58.08,60.00,4.00,0.00,30.00,,6.21,,SCT,,,,3300.00,,,,,,,,,,,84.63,SBMT 261900Z 06004KT 010V100 9999 SCT033 28/19 Q1016,
SBMT,2024-04-26 20:00,77.00,68.00,73.78,160.00,4.00,0.00,30.00,,6.21,,FEW,,,,3300.00,,,,,,,,,,,77.00,SBMT 262000Z 16004KT 9999 FEW033 25/20 Q1016,
SBMT,2024-04-26 21:00,75.20,68.00,78.34,150.00,6.00,0.00,30.03,,6.21,,,,,,,,,,,,,,,,,75.20,SBMT 262100Z 15006KT CAVOK 24/20 Q1017,
SBMT,2024-04-26 22:00,71.60,68.00,88.43,140.00,6.00,0.00,30.03,,6.21,,,,,,,,,,,,,,,,,71.60,SBMT 262200Z 14006KT CAVOK 22/20 Q1017,
SBMT,2024-04-26 23:00,69.80,66.20,88.34,130.00,6.00,0.00,30.06,,6.21,,FEW,,,,1100.00,,,,,,,,,,,69.80,SBMT 262300Z 13006KT 9999 FEW011 21/19 Q1018,
SBMT,2024-04-27 00:00,69.80,66.20,88.34,150.00,2.00,0.00,30.06,,6.21,,FEW,,,,1100.00,,,,,,,,,,,69.80,SBMT 270000Z 15002KT 9999 FEW011 21/19 Q1018,
SBMT,2024-04-27 01:00,69.80,66.20,88.34,110.00,4.00,0.00,30.06,,6.21,,,,,,,,,,,,,,,,,69.80,SBMT 270100Z 11004KT CAVOK 21/19 Q1018,
SBMT,2024-04-27 02:00,69.80,66.20,88.34,100.00,5.00,0.00,30.06,,6.21,,,,,,,,,,,,,,,,,69.80,SBMT 270200Z 10005KT CAVOK 21/19 Q1018,
SBMT,2024-04-27 09:00,68.00,62.60,82.86,80.00,4.00,0.00,30.03,,2.49,,BKN,,,,800.00,,,,BR,,,,,,,68.00,SBMT 270900Z 08004KT 4000 BR BKN008 20/17 Q1017,
SBMT,2024-04-27 10:00,68.00,62.60,82.86,80.00,5.00,0.00,30.06,,4.97,,FEW,,,,1000.00,,,,,,,,,,,68.00,SBMT 271000Z 08005KT 8000 FEW010 20/17 Q1018,
SBMT,2024-04-27 11:00,69.80,64.40,82.98,100.00,5.00,0.00,30.06,,6.21,,,,,,,,,,,,,,,,,69.80,SBMT 271100Z 10005KT CAVOK 21/18 Q1018,
SBMT,2024-04-27 12:00,73.40,64.40,73.44,90.00,3.00,0.00,30.09,,6.21,,,,,,,,,,,,,,,,,73.40,SBMT 271200Z 09003KT CAVOK 23/18 Q1019,
SBMT,2024-04-27 13:00,78.80,62.60,57.60,60.00,4.00,0.00,30.09,,6.21,,,,,,,,,,,,,,,,,78.80,SBMT 271300Z 06004KT CAVOK 26/17 Q1019,
SBMT,2024-04-27 14:00,80.60,62.60,54.30,360.00,5.00,0.00,30.06,,6.21,,,,,,,,,,,,,,,,,81.84,SBMT 271400Z 36005KT CAVOK 27/17 Q1018,
SBMT,2024-04-27 15:00,84.20,62.60,48.32,320.00,7.00,0.00,30.03,,6.21,,FEW,,,,4000.00,,,,,,,,,,,85.03,SBMT 271500Z 32007KT 9999 FEW040 29/17 Q1017,
SBMT,2024-04-27 16:00,84.20,60.80,45.34,290.00,7.00,0.00,30.00,,6.21,,FEW,,,,4000.00,,,,,,,,,,,84.43,SBMT 271600Z 29007KT 9999 FEW040 29/16 Q1016,
SBMT,2024-04-27 17:00,86.00,62.60,45.61,280.00,7.00,0.00,29.97,,6.21,,FEW,,,,4800.00,,,,,,,,,,,86.72,SBMT 271700Z 28007KT 9999 FEW048 30/17 Q1015,
SBMT,2024-04-27 18:00,86.00,62.60,45.61,290.00,7.00,0.00,29.97,,6.21,,,,,,,,,,,,,,,,,86.72,SBMT 271800Z 29007KT CAVOK 30/17 Q1015,
SBMT,2024-04-27 19:00,86.00,62.60,45.61,300.00,7.00,0.00,29.94,,6.21,,,,,,,,,,,,,,,,,86.72,SBMT 271900Z 30007KT CAVOK 30/17 Q1014,
SBMT,2024-04-27 20:00,84.20,60.80,45.34,310.00,5.00,0.00,29.94,,6.21,,,,,,,,,,,,,,,,,84.43,SBMT 272000Z 31005KT 260V360 CAVOK 29/16 Q1014,
SBMT,2024-04-27 21:00,82.40,60.80,48.05,330.00,3.00,0.00,29.94,,6.21,,,,,,,,,,,,,,,,,82.90,SBMT 272100Z 33003KT CAVOK 28/16 Q1014,
SBMT,2024-04-27 22:00,78.80,60.80,54.05,360.00,4.00,0.00,29.97,,6.21,,,,,,,,,,,,,,,,,78.80,SBMT 272200Z 36004KT CAVOK 26/16 Q1015,
SBMT,2024-04-27 23:00,77.00,60.80,57.36,360.00,3.00,0.00,29.97,,6.21,,,,,,,,,,,,,,,,,77.00,SBMT 272300Z 36003KT CAVOK 25/16 Q1015,
SBMT,2024-04-28 00:00,78.80,60.80,54.05,330.00,3.00,0.00,29.97,,6.21,,,,,,,,,,,,,,,,,78.80,SBMT 280000Z 33003KT CAVOK 26/16 Q1015,
SBMT,2024-04-28 01:00,77.00,60.80,57.36,340.00,4.00,0.00,29.97,,6.21,,,,,,,,,,,,,,,,,77.00,SBMT 280100Z 34004KT CAVOK 25/16 Q1015,
SBMT,2024-04-28 02:00,77.00,60.80,57.36,330.00,5.00,0.00,30.00,,6.21,,,,,,,,,,,,,,,,,77.00,SBMT 280200Z 33005KT CAVOK 25/16 Q1016,
SBMT,2024-04-28 09:00,68.00,62.60,82.86,70.00,3.00,0.00,30.03,,6.21,,,,,,,,,,,,,,,,,68.00,SBMT 280900Z 07003KT 030V110 CAVOK 20/17 Q1017,
SBMT,2024-04-28 10:00,71.60,62.60,73.27,50.00,3.00,0.00,30.03,,6.21,,,,,,,,,,,,,,,,,71.60,SBMT 281000Z 05003KT CAVOK 22/17 Q1017,
SBMT,2024-04-28 11:00,75.20,60.80,60.90,330.00,6.00,0.00,30.03,,6.21,,,,,,,,,,,,,,,,,75.20,SBMT 281100Z 33006KT 290V010 CAVOK 24/16 Q1017,
SBMT,2024-04-28 12:00,78.80,60.80,54.05,350.00,7.00,0.00,30.06,,6.21,,,,,,,,,,,,,,,,,78.80,SBMT 281200Z 35007KT CAVOK 26/16 Q1018,
SBMT,2024-04-28 13:00,80.60,62.60,54.30,340.00,8.00,0.00,30.06,,6.21,,,,,,,,,,,,,,,,,81.84,SBMT 281300Z 34008KT CAVOK 27/17 Q1018,
SBMT,2024-04-28 14:00,82.40,62.60,51.21,320.00,6.00,0.00,30.03,,6.21,,,,,,,,,,,,,,,,,83.41,SBMT 281400Z 32006KT CAVOK 28/17 Q1017,
SBMT,2024-04-28 15:00,84.20,62.60,48.32,320.00,8.00,0.00,30.00,,6.21,,,,,,,,,,,,,,,,,85.03,SBMT 281500Z 32008KT CAVOK 29/17 Q1016,
SBMT,2024-04-28 16:00,86.00,64.40,48.58,280.00,10.00,0.00,30.00,,6.21,,FEW,,,,4500.00,,,,,,,,,,,87.49,SBMT 281600Z 28010KT 9999 FEW045 30/18 Q1016,
SBMT,2024-04-28 17:00,84.20,62.60,48.32,270.00,9.00,0.00,29.97,,6.21,,,,,,,,,,,,,,,,,85.03,SBMT 281700Z 27009KT 220V310 CAVOK 29/17 Q1015,
SBMT,2024-04-28 18:00,86.00,62.60,45.61,260.00,9.00,0.00,29.97,,6.21,,,,,,,,,,,,,,,,,86.72,SBMT 281800Z 26009KT 230V310 CAVOK 30/17 Q1015,
SBMT,2024-04-28 19:00,86.00,62.60,45.61,,4.00,0.00,3.40,,6.21,,,,,,,,,,,,,,,,,86.72,SBMT 281900Z VRB04KT CAVOK 30/17 Q0115,
SBMT,2024-04-28 20:00,84.20,62.60,48.32,270.00,5.00,0.00,29.97,,6.21,,,,,,,,,,,,,,,,,85.03,SBMT 282000Z 27005KT CAVOK 29/17 Q1015,
SBMT,2024-04-28 21:00,80.60,62.60,54.30,280.00,4.00,0.00,29.97,,6.21,,,,,,,,,,,,,,,,,81.84,SBMT 282100Z 28004KT CAVOK 27/17 Q1015,
SBMT,2024-04-28 22:00,75.20,68.00,78.34,120.00,8.00,0.00,30.00,,6.21,,,,,,,,,,,,,,,,,75.20,SBMT 282200Z 12008KT CAVOK 24/20 Q1016,
SBMT,2024-04-28 23:00,73.40,68.00,83.21,110.00,5.00,0.00,30.00,,6.21,,,,,,,,,,,,,,,,,73.40,SBMT 282300Z 11005KT CAVOK 23/20 Q1016,
SBMT,2024-04-29 00:00,73.40,68.00,83.21,130.00,6.00,0.00,30.00,,6.21,,,,,,,,,,,,,,,,,73.40,SBMT 290000Z 13006KT CAVOK 23/20 Q1016,
SBMT,2024-04-29 01:00,73.40,68.00,83.21,150.00,6.00,0.00,30.03,,6.21,,,,,,,,,,,,,,,,,73.40,SBMT 290100Z 15006KT CAVOK 23/20 Q1017,
SBMT,2024-04-29 02:00,71.60,68.00,88.43,160.00,6.00,0.00,30.06,,6.21,,SCT,SCT,,,1100.00,1300.00,,,,,,,,,,71.60,SBMT 290200Z 16006KT 9999 SCT011 SCT013 22/20 Q1018,
SBMT,2024-04-29 09:00,69.80,66.20,88.34,110.00,7.00,0.00,30.06,,6.21,,SCT,BKN,,,1300.00,1500.00,,,,,,,,,,69.80,SBMT 290900Z 11007KT 9999 SCT013 BKN015 21/19 Q1018,
SBMT,2024-04-29 10:00,69.80,66.20,88.34,70.00,5.00,0.00,30.09,,4.97,,BKN,BKN,,,1100.00,1300.00,,,,,,,,,,69.80,SBMT 291000Z 07005KT 8000 BKN011 BKN013 21/19 Q1019,
SBMT,2024-04-29 11:00,69.80,66.20,88.34,110.00,7.00,0.00,30.12,,6.21,,SCT,BKN,,,1300.00,1500.00,,,,,,,,,,69.80,SBMT 291100Z 11007KT 9999 SCT013 BKN015 21/19 Q1020,
SBMT,2024-04-29 12:00,73.40,66.20,78.19,90.00,7.00,0.00,30.12,,6.21,,FEW,BKN,,,1300.00,1700.00,,,,,,,,,,73.40,SBMT 291200Z 09007KT 9999 FEW013 BKN017 23/19 Q1020,
SBMT,2024-04-29 13:00,73.40,66.20,78.19,60.00,8.00,0.00,30.12,,6.21,,FEW,,,,1700.00,,,,,,,,,,,73.40,SBMT 291300Z 06008KT 010V110 9999 FEW017 23/19 Q1020,
SBMT,2024-04-29 14:00,78.80,66.20,65.33,80.00,5.00,0.00,30.12,,6.21,,,,,,,,,,,,,,,,,78.80,SBMT 291400Z 08005KT CAVOK 26/19 Q1020,
SBMT,2024-04-29 15:00,82.40,66.20,58.08,0.00,0.00,0.00,30.09,,6.21,,,,,,,,,,,,,,,,,84.63,SBMT 291500Z 00000KT CAVOK 28/19 Q1019,
SBMT,2024-04-29 16:00,86.00,60.80,42.80,340.00,5.00,0.00,30.03,,6.21,,SCT,,,,4000.00,,,,,,,,,,,86.05,SBMT 291600Z 34005KT 9999 SCT040 30/16 Q1017,
SBMT,2024-04-29 17:00,86.00,64.40,48.58,10.00,4.00,0.00,30.03,,6.21,,,,,,,,,,,,,,,,,87.49,SBMT 291700Z 01004KT CAVOK 30/18 Q1017,
SBMT,2024-04-29 18:00,86.00,60.80,42.80,350.00,5.00,0.00,30.00,,6.21,,BKN,,,,4900.00,,,,,,,,,,,86.05,SBMT 291800Z 35005KT 9999 BKN049 30/16 Q1016,
SBMT,2024-04-29 19:00,86.00,62.60,45.61,10.00,4.00,0.00,30.00,,6.21,,BKN,,,,4900.00,,,,,,,,,,,86.72,SBMT 291900Z 01004KT 9999 BKN049 30/17 Q1016,
SBMT,2024-04-29 20:00,84.20,60.80,45.34,10.00,4.00,0.00,30.00,,6.21,,,,,,,,,,,,,,,,,84.43,SBMT 292000Z 01004KT CAVOK 29/16 Q1016,
SBMT,2024-04-29 21:00,82.40,62.60,51.21,360.00,3.00,0.00,30.00,,6.21,,,,,,,,,,,,,,,,,83.41,SBMT 292100Z 36003KT CAVOK 28/17 Q1016,
SBMT,2024-04-29 22:00,80.60,66.20,61.58,40.00,4.00,0.00,30.03,,6.21,,,,,,,,,,,,,,,,,82.75,SBMT 292200Z 04004KT CAVOK 27/19 Q1017,
SBMT,2024-04-29 23:00,80.60,66.20,61.58,40.00,5.00,0.00,30.03,,6.21,,BKN,,,,4900.00,,,,,,,,,,,82.75,SBMT 292300Z 04005KT 9999 BKN049 27/19 Q1017,
SBMT,2024-04-30 00:00,78.80,66.20,65.33,50.00,3.00,0.00,30.06,,6.21,,,,,,,,,,,,,,,,,78.80,SBMT 300000Z 05003KT CAVOK 26/19 Q1018,
SBMT,2024-04-30 01:00,77.00,66.20,69.33,120.00,3.00,0.00,30.06,,6.21,,,,,,,,,,,,,,,,,77.00,SBMT 300100Z 12003KT CAVOK 25/19 Q1018,
SBMT,2024-04-30 02:00,71.60,66.20,83.09,0.00,0.00,0.00,30.06,,6.21,,,,,,,,,,,,,,,,,71.60,SBMT 300200Z 00000KT CAVOK 22/19 Q1018,
SBMT,2024-04-30 09:00,69.80,64.40,82.98,130.00,4.00,0.00,30.03,,4.97,,NSC,,,,,,,,,,,,,,,69.80,SBMT 300900Z 13004KT 8000 NSC 21/18 Q1017,
SBMT,2024-04-30 10:00,68.00,62.60,82.86,80.00,3.00,0.00,30.06,,6.21,,,,,,,,,,,,,,,,,68.00,SBMT 301000Z 08003KT CAVOK 20/17 Q1018,
SBMT,2024-04-30 11:00,71.60,64.40,78.04,70.00,4.00,0.00,30.09,,6.21,,,,,,,,,,,,,,,,,71.60,SBMT 301100Z 07004KT CAVOK 22/18 Q1019,
SBMT,2024-04-30 12:00,75.20,62.60,64.91,60.00,2.00,0.00,30.12,,6.21,,,,,,,,,,,,,,,,,75.20,SBMT 301200Z 06002KT CAVOK 24/17 Q1020,
SBMT,2024-04-30 13:00,80.60,60.80,50.95,120.00,2.00,0.00,30.12,,6.21,,,,,,,,,,,,,,,,,81.46,SBMT 301300Z 12002KT CAVOK 27/16 Q1020,
SBMT,2024-04-30 14:00,82.40,57.20,42.25,340.00,5.00,0.00,30.09,,6.21,,,,,,,,,,,,,,,,,82.08,SBMT 301400Z 34005KT CAVOK 28/14 Q1019,
SBMT,2024-04-30 15:00,84.20,55.40,37.35,300.00,8.00,0.00,30.06,,6.21,,,,,,,,,,,,,,,,,83.09,SBMT 301500Z 30008KT CAVOK 29/13 Q1018,
SBMT,2024-04-30 16:00,86.00,53.60,33.01,280.00,8.00,0.00,30.03,,6.21,,,,,,,,,,,,,,,,,84.18,SBMT 301600Z 28008KT CAVOK 30/12 Q1017,
SBMT,2024-04-30 17:00,87.80,57.20,35.53,300.00,5.00,0.00,30.00,,6.21,,FEW,,,,4000.00,,,,,,,,,,,86.58,SBMT 301700Z 30005KT 9999 FEW040 31/14 Q1016,
SBMT,2024-04-30 18:00,87.80,57.20,35.53,330.00,6.00,0.00,30.00,,6.21,,FEW,,,,4000.00,,,,,,,,,,,86.58,SBMT 301800Z 33006KT 9999 FEW040 31/14 Q1016,
SBMT,2024-04-30 19:00,86.00,55.40,35.25,250.00,7.00,0.00,30.00,,6.21,,SCT,,,,4000.00,,,,,,,,,,,84.54,SBMT 301900Z 25007KT 240V330 9999 SCT040 30/13 Q1016,
SBMT,2024-04-30 20:00,84.20,57.20,39.86,280.00,7.00,0.00,30.00,,6.21,,SCT,,,,4000.00,,,,,,,,,,,83.47,SBMT 302000Z 28007KT 9999 SCT040 29/14 Q1016,
SBMT,2024-04-30 21:00,80.60,57.20,44.80,300.00,3.00,0.00,30.03,,6.21,,FEW,,,,4000.00,,,,,,,,,,,80.81,SBMT 302100Z 30003KT 9999 FEW040 27/14 Q1017,
SBMT,2024-04-30 22:00,75.20,60.80,60.90,350.00,2.00,0.00,30.03,,6.21,,,,,,,,,,,,,,,,,75.20,SBMT 302200Z 35002KT CAVOK 24/16 Q1017,
SBMT,2024-04-30 23:00,77.00,59.00,53.80,100.00,1.00,0.00,30.06,,6.21,,,,,,,,,,,,,,,,,77.00,SBMT 302300Z 10001KT CAVOK 25/15 Q1018,
SBMT,2024-05-01 00:00,77.00,57.20,50.43,90.00,4.00,0.00,30.06,,6.21,,,,,,,,,,,,,,,,,77.00,SBMT 010000Z 09004KT CAVOK 25/14 Q1018,
SBMT,2024-05-01 01:00,71.60,59.00,64.48,0.00,0.00,0.00,30.06,,6.21,,,,,,,,,,,,,,,,,71.60,SBMT 010100Z 00000KT CAVOK 22/15 Q1018,
SBMT,2024-05-01 02:00,68.00,60.80,77.75,0.00,0.00,0.00,30.06,,6.21,,,,,,,,,,,,,,,,,68.00,SBMT 010200Z 00000KT CAVOK 20/16 Q1018,
SBMT,2024-05-01 09:00,66.20,57.20,72.74,90.00,4.00,0.00,30.03,,6.21,,,,,,,,,,,,,,,,,66.20,SBMT 010900Z 09004KT CAVOK 19/14 Q1017,
SBMT,2024-05-01 10:00,64.40,57.20,77.45,100.00,3.00,0.00,30.03,,6.21,,,,,,,,,,,,,,,,,64.40,SBMT 011000Z 10003KT CAVOK 18/14 Q1017,
SBMT,2024-05-01 11:00,71.60,60.80,68.75,0.00,0.00,0.00,30.06,,6.21,,,,,,,,,,,,,,,,,71.60,SBMT 011100Z 00000KT CAVOK 22/16 Q1018,
SBMT,2024-05-01 12:00,75.20,60.80,60.90,100.00,2.00,0.00,30.06,,6.21,,,,,,,,,,,,,,,,,75.20,SBMT 011200Z 10002KT CAVOK 24/16 Q1018,
SBMT,2024-05-01 13:00,80.60,59.00,47.79,80.00,3.00,0.00,30.09,,6.21,,,,,,,,,,,,,,,,,81.11,SBMT 011300Z 08003KT CAVOK 27/15 Q1019,
SBMT,2024-05-01 14:00,82.40,59.00,45.07,170.00,3.00,0.00,30.06,,6.21,,,,,,,,,,,,,,,,,82.46,SBMT 011400Z 17003KT CAVOK 28/15 Q1018,
SBMT,2024-05-01 15:00,84.20,59.00,42.52,300.00,9.00,0.00,30.03,,6.21,,,,,,,,,,,,,,,,,83.92,SBMT 011500Z 30009KT CAVOK 29/15 Q1017,
SBMT,2024-05-01 16:00,84.20,53.60,34.97,320.00,8.00,0.00,30.00,,6.21,,SCT,,,,4000.00,,,,,,,,,,,82.76,SBMT 011600Z 32008KT 9999 SCT040 29/12 Q1016,
SBMT,2024-05-01 17:00,86.00,57.20,37.62,320.00,7.00,0.00,29.97,,6.21,,,,,,,,,,,,,,,,,84.97,SBMT 011700Z 32007KT CAVOK 30/14 Q1015,
SBMT,2024-05-01 18:00,86.00,57.20,37.62,320.00,7.00,0.00,29.97,,6.21,,,,,,,,,,,,,,,,,84.97,SBMT 011800Z 32007KT CAVOK 30/14 Q1015,
SBMT,2024-05-01 19:00,86.00,55.40,35.25,280.00,8.00,0.00,29.97,,6.21,,,,,,,,,,,,,,,,,84.54,SBMT 011900Z 28008KT CAVOK 30/13 Q1015,
SBMT,2024-05-01 20:00,84.20,55.40,37.35,280.00,6.00,0.00,29.97,,6.21,,,,,,,,,,,,,,,,,83.09,SBMT 012000Z 28006KT CAVOK 29/13 Q1015,
SBMT,2024-05-01 21:00,80.60,57.20,44.80,290.00,2.00,0.00,29.97,,6.21,,,,,,,,,,,,,,,,,80.81,SBMT 012100Z 29002KT CAVOK 27/14 Q1015,
SBMT,2024-05-01 22:00,78.80,57.20,47.52,360.00,4.00,0.00,29.97,,6.21,,,,,,,,,,,,,,,,,78.80,SBMT 012200Z 36004KT CAVOK 26/14 Q1015,
SBMT,2024-05-01 23:00,73.40,59.00,60.67,0.00,0.00,0.00,30.00,,6.21,,,,,,,,,,,,,,,,,73.40,SBMT 012300Z 00000KT CAVOK 23/15 Q1016,
SBMT,2024-05-02 00:00,71.60,59.00,64.48,0.00,0.00,0.00,29.97,,6.21,,,,,,,,,,,,,,,,,71.60,SBMT 020000Z 00000KT CAVOK 22/15 Q1015,
SBMT,2024-05-02 01:00,71.60,59.00,64.48,330.00,1.00,0.00,29.97,,6.21,,,,,,,,,,,,,,,,,71.60,SBMT 020100Z 33001KT CAVOK 22/15 Q1015,
SBMT,2024-05-02 02:00,68.00,59.00,72.92,0.00,0.00,0.00,29.97,,6.21,,,,,,,,,,,,,,,,,68.00,SBMT 020200Z 00000KT CAVOK 20/15 Q1015,
SBMT,2024-05-02 09:00,64.40,59.00,82.62,0.00,0.00,0.00,29.94,,6.21,,,,,,,,,,,,,,,,,64.40,SBMT 020900Z 00000KT CAVOK 18/15 Q1014,
SBMT,2024-05-02 10:00,68.00,60.80,77.75,,2.00,0.00,29.97,,6.21,,,,,,,,,,,,,,,,,68.00,SBMT 021000Z VRB02KT CAVOK 20/16 Q1015,
SBMT,2024-05-02 11:00,73.40,62.60,68.94,100.00,3.00,0.00,3.10,,6.21,,,,,,,,,,,,,,,,,73.40,SBMT 021100Z 10003KT CAVOK 23/17 Q0105,
SBMT,2024-05-02 12:00,78.80,60.80,54.05,350.00,5.00,0.00,30.00,,6.21,,,,,,,,,,,,,,,,,78.80,SBMT 021200Z 35005KT CAVOK 26/16 Q1016,
SBMT,2024-05-02 13:00,80.60,62.60,54.30,330.00,7.00,0.00,30.00,,6.21,,,,,,,,,,,,,,,,,81.84,SBMT 021300Z 33007KT 290V050 CAVOK 27/17 Q1016,
SBMT,2024-05-02 14:00,82.40,60.80,48.05,320.00,9.00,0.00,29.97,,6.21,,,,,,,,,,,,,,,,,82.90,SBMT 021400Z 32009KT 290V360 CAVOK 28/16 Q1015,
SBMT,2024-05-02 15:00,84.20,60.80,45.34,300.00,12.00,0.00,29.94,,6.21,,,,,,,,,,,,,,,,,84.43,SBMT 021500Z 30012KT 260V350 CAVOK 29/16 Q1014,
SBMT,2024-05-02 16:00,86.00,59.00,40.14,310.00,11.00,0.00,29.91,,6.21,21.00,,,,,,,,,,,,,,,,85.47,SBMT 021600Z 31011G21KT 250V360 CAVOK 30/15 Q1013,
SBMT,2024-05-02 17:00,86.00,57.20,37.62,330.00,10.00,0.00,29.91,,6.21,,,,,,,,,,,,,,,,,84.97,SBMT 021700Z 33010KT CAVOK 30/14 Q1013,
SBMT,2024-05-02 18:00,86.00,57.20,37.62,320.00,11.00,0.00,29.88,,6.21,,,,,,,,,,,,,,,,,84.97,SBMT 021800Z 32011KT CAVOK 30/14 Q1012,
SBMT,2024-05-02 19:00,86.00,53.60,33.01,290.00,11.00,0.00,29.88,,6.21,,,,,,,,,,,,,,,,,84.18,SBMT 021900Z 29011KT CAVOK 30/12 Q1012,
SBMT,2024-05-02 20:00,86.00,55.40,35.25,300.00,6.00,0.00,29.88,,6.21,,,,,,,,,,,,,,,,,84.54,SBMT 022000Z 30006KT CAVOK 30/13 Q1012,
SBMT,2024-05-02 21:00,82.40,55.40,39.58,290.00,5.00,0.00,29.91,,6.21,,,,,,,,,,,,,,,,,81.75,SBMT 022100Z 29005KT CAVOK 28/13 Q1013,
SBMT,2024-05-02 22:00,78.80,59.00,50.69,300.00,3.00,0.00,29.94,,6.21,,,,,,,,,,,,,,,,,78.80,SBMT 022200Z 30003KT CAVOK 26/15 Q1014,
SBMT,2024-05-02 23:00,75.20,59.00,57.12,0.00,0.00,0.00,29.97,,6.21,,,,,,,,,,,,,,,,,75.20,SBMT 022300Z 00000KT CAVOK 24/15 Q1015,
SBMT,2024-05-03 00:00,71.60,59.00,64.48,0.00,0.00,0.00,29.97,,6.21,,,,,,,,,,,,,,,,,71.60,SBMT 030000Z 00000KT CAVOK 22/15 Q1015,
SBMT,2024-05-03 01:00,71.60,59.00,64.48,0.00,0.00,0.00,29.97,,6.21,,,,,,,,,,,,,,,,,71.60,SBMT 030100Z 00000KT CAVOK 22/15 Q1015,
SBMT,2024-05-03 02:00,68.00,59.00,72.92,0.00,0.00,0.00,29.97,,6.21,,,,,,,,,,,,,,,,,68.00,SBMT 030200Z 00000KT CAVOK 20/15 Q1015,
SBMT,2024-05-03 09:00,64.40,64.40,100.00,0.00,0.00,0.00,29.97,,1.86,,NSC,,,,,,,,BR,,,,,,,64.40,SBMT 030900Z 00000KT 3000 BR NSC 18/18 Q1015,
SBMT,2024-05-03 10:00,66.20,64.40,93.92,100.00,2.00,0.00,30.00,,4.97,,NSC,,,,,,,,,,,,,,,66.20,SBMT 031000Z 10002KT 8000 3000E NSC 19/18 Q1016,
SBMT,2024-05-03 11:00,73.40,66.20,78.19,0.00,0.00,0.00,30.03,,4.97,,NSC,,,,,,,,,,,,,,,73.40,SBMT 031100Z 00000KT 8000 3000E NSC 23/19 Q1017,
SBMT,2024-05-03 12:00,75.20,64.40,69.14,70.00,3.00,0.00,30.06,,6.21,,,,,,,,,,,,,,,,,75.20,SBMT 031200Z 07003KT CAVOK 24/18 Q1018,
SBMT,2024-05-03 13:00,77.00,64.40,65.12,90.00,3.00,0.00,30.06,,6.21,,,,,,,,,,,,,,,,,77.00,SBMT 031300Z 09003KT CAVOK 25/18 Q1018,
SBMT,2024-05-03 14:00,82.40,60.80,48.05,0.00,0.00,0.00,30.03,,6.21,,,,,,,,,,,,,,,,,82.90,SBMT 031400Z 00000KT CAVOK 28/16 Q1017,
SBMT,2024-05-03 15:00,84.20,60.80,45.34,270.00,8.00,0.00,30.00,,6.21,,,,,,,,,,,,,,,,,84.43,SBMT 031500Z 27008KT CAVOK 29/16 Q1016,
SBMT,2024-05-03 16:00,86.00,59.00,40.14,290.00,6.00,0.00,29.97,,6.21,,BKN,,,,4900.00,,,,,,,,,,,85.47,SBMT 031600Z 29006KT 9999 BKN049 30/15 Q1015,
SBMT,2024-05-03 17:00,87.80,57.20,35.53,290.00,8.00,0.00,29.97,,6.21,,SCT,,,,4000.00,,,,,,,,,,,86.58,SBMT 031700Z 29008KT 250V320 9999 SCT040 31/14 Q1015,
SBMT,2024-05-03 18:00,86.00,57.20,37.62,350.00,7.00,0.00,29.94,,6.21,,SCT,,,,4000.00,,,,,,,,,,,84.97,SBMT 031800Z 35007KT 9999 SCT040 30/14 Q1014,
SBMT,2024-05-03 19:00,86.00,57.20,37.62,350.00,5.00,0.00,29.97,,6.21,,SCT,,,,4000.00,,,,,,,,,,,84.97,SBMT 031900Z 35005KT 9999 SCT040 30/14 Q1015,
SBMT,2024-05-03 20:00,86.00,57.20,37.62,340.00,3.00,0.00,29.97,,6.21,,SCT,,,,4000.00,,,,,,,,,,,84.97,SBMT 032000Z 34003KT 9999 SCT040 30/14 Q1015,
SBMT,2024-05-03 21:00,77.00,62.60,61.13,140.00,9.00,0.00,29.97,,6.21,,FEW,,,,4000.00,,,,,,,,,,,77.00,SBMT 032100Z 14009KT 9999 FEW040 25/17 Q1015,
SBMT,2024-05-03 22:00,71.60,62.60,73.27,150.00,7.00,0.00,30.00,,6.21,,,,,,,,,,,,,,,,,71.60,SBMT 032200Z 15007KT CAVOK 22/17 Q1016,
SBMT,2024-05-03 23:00,69.80,60.80,73.09,140.00,4.00,0.00,30.03,,6.21,,,,,,,,,,,,,,,,,69.80,SBMT 032300Z 14004KT CAVOK 21/16 Q1017,
SBMT,2024-05-04 00:00,69.80,60.80,73.09,130.00,5.00,0.00,30.06,,6.21,,,,,,,,,,,,,,,,,69.80,SBMT 040000Z 13005KT CAVOK 21/16 Q1018,
SBMT,2024-05-04 01:00,68.00,62.60,82.86,110.00,3.00,0.00,30.06,,6.21,,,,,,,,,,,,,,,,,68.00,SBMT 040100Z 11003KT CAVOK 20/17 Q1018,
SBMT,2024-05-04 02:00,68.00,62.60,82.86,120.00,3.00,0.00,30.06,,6.21,,,,,,,,,,,,,,,,,68.00,SBMT 040200Z 12003KT CAVOK 20/17 Q1018,
SBMT,2024-05-04 09:00,64.40,62.60,93.88,100.00,3.00,0.00,30.06,,6.21,,,,,,,,,,,,,,,,,64.40,SBMT 040900Z 10003KT CAVOK 18/17 Q1018,
SBMT,2024-05-04 10:00,64.40,62.60,93.88,120.00,2.00,0.00,30.09,,6.21,,,,,,,,,,,,,,,,,64.40,SBMT 041000Z 12002KT CAVOK 18/17 Q1019,
SBMT,2024-05-04 11:00,69.80,64.40,82.98,110.00,3.00,0.00,30.12,,6.21,,,,,,,,,,,,,,,,,69.80,SBMT 041100Z 11003KT CAVOK 21/18 Q1020,
SBMT,2024-05-04 12:00,75.20,64.40,69.14,110.00,4.00,0.00,30.12,,6.21,,,,,,,,,,,,,,,,,75.20,SBMT 041200Z 11004KT CAVOK 24/18 Q1020,
SBMT,2024-05-04 13:00,78.80,64.40,61.36,90.00,3.00,0.00,30.12,,6.21,,,,,,,,,,,,,,,,,78.80,SBMT 041300Z 09003KT CAVOK 26/18 Q1020,
SBMT,2024-05-04 14:00,84.20,59.00,42.52,360.00,7.00,0.00,30.09,,6.21,,,,,,,,,,,,,,,,,83.92,SBMT 041400Z 36007KT 280V080 CAVOK 29/15 Q1019,
SBMT,2024-05-04 15:00,86.00,59.00,40.14,350.00,7.00,0.00,30.06,,6.21,,,,,,,,,,,,,,,,,85.47,SBMT 041500Z 35007KT CAVOK 30/15 Q1018,
SBMT,2024-05-04 16:00,87.80,57.20,35.53,340.00,7.00,0.00,30.06,,6.21,,,,,,,,,,,,,,,,,86.58,SBMT 041600Z 34007KT CAVOK 31/14 Q1018,
SBMT,2024-05-04 17:00,87.80,53.60,31.17,310.00,8.00,0.00,30.03,,6.21,,,,,,,,,,,,,,,,,85.72,SBMT 041700Z 31008KT CAVOK 31/12 Q1017,
SBMT,2024-05-04 18:00,87.80,50.00,27.29,320.00,8.00,0.00,30.03,,6.21,,,,,,,,,,,,,,,,,85.11,SBMT 041800Z 32008KT CAVOK 31/10 Q1017,
SBMT,2024-05-04 19:00,87.80,51.80,29.18,290.00,6.00,0.00,30.03,,6.21,,,,,,,,,,,,,,,,,85.39,SBMT 041900Z 29006KT CAVOK 31/11 Q1017,
SBMT,2024-05-04 20:00,86.00,51.80,30.90,340.00,3.00,0.00,30.06,,6.21,,,,,,,,,,,,,,,,,83.87,SBMT 042000Z 34003KT CAVOK 30/11 Q1018,
SBMT,2024-05-04 21:00,82.40,53.60,37.07,350.00,3.00,0.00,30.06,,6.21,,,,,,,,,,,,,,,,,81.46,SBMT 042100Z 35003KT CAVOK 28/12 Q1018,
SBMT,2024-05-04 22:00,75.20,57.20,53.55,0.00,0.00,0.00,30.09,,6.21,,,,,,,,,,,,,,,,,75.20,SBMT 042200Z 00000KT CAVOK 24/14 Q1019,
SBMT,2024-05-04 23:00,75.20,57.20,53.55,0.00,0.00,0.00,30.12,,6.21,,,,,,,,,,,,,,,,,75.20,SBMT 042300Z 00000KT CAVOK 24/14 Q1020,
SBMT,2024-05-05 00:00,71.60,59.00,64.48,90.00,2.00,0.00,30.15,,6.21,,,,,,,,,,,,,,,,,71.60,SBMT 050000Z 09002KT CAVOK 22/15 Q1021,
SBMT,2024-05-05 01:00,71.60,59.00,64.48,60.00,2.00,0.00,30.15,,6.21,,,,,,,,,,,,,,,,,71.60,SBMT 050100Z 06002KT CAVOK 22/15 Q1021,
SBMT,2024-05-05 02:00,68.00,59.00,72.92,0.00,0.00,0.00,30.15,,6.21,,,,,,,,,,,,,,,,,68.00,SBMT 050200Z 00000KT CAVOK 20/15 Q1021,
SBMT,2024-05-05 09:00,64.40,59.00,82.62,110.00,1.00,0.00,30.15,,4.97,,NSC,,,,,,,,,,,,,,,64.40,SBMT 050900Z 11001KT 8000 NSC 18/15 Q1021,
SBMT,2024-05-05 10:00,64.40,60.80,88.09,90.00,2.00,0.00,30.15,,4.97,,NSC,,,,,,,,,,,,,,,64.40,SBMT 051000Z 09002KT 8000 NSC 18/16 Q1021,
SBMT,2024-05-05 11:00,71.60,62.60,73.27,100.00,2.00,0.00,30.18,,6.21,,,,,,,,,,,,,,,,,71.60,SBMT 051100Z 10002KT CAVOK 22/17 Q1022,
SBMT,2024-05-05 12:00,75.20,62.60,64.91,80.00,2.00,0.00,30.18,,6.21,,,,,,,,,,,,,,,,,75.20,SBMT 051200Z 08002KT CAVOK 24/17 Q1022,
SBMT,2024-05-05 13:00,78.80,62.60,57.60,190.00,2.00,0.00,30.21,,6.21,,,,,,,,,,,,,,,,,78.80,SBMT 051300Z 19002KT CAVOK 26/17 Q1023,
SBMT,2024-05-05 14:00,84.20,59.00,42.52,40.00,4.00,0.00,30.18,,6.21,,,,,,,,,,,,,,,,,83.92,SBMT 051400Z 04004KT CAVOK 29/15 Q1022,
SBMT,2024-05-05 15:00,86.00,53.60,33.01,20.00,4.00,0.00,30.15,,6.21,,,,,,,,,,,,,,,,,84.18,SBMT 051500Z 02004KT CAVOK 30/12 Q1021,
SBMT,2024-05-05 16:00,86.00,51.80,30.90,340.00,6.00,0.00,30.12,,6.21,,,,,,,,,,,,,,,,,83.87,SBMT 051600Z 34006KT CAVOK 30/11 Q1020,
SBMT,2024-05-05 17:00,87.80,50.00,27.29,,4.00,0.00,30.09,,6.21,,,,,,,,,,,,,,,,,85.11,COR SBMT 051700Z VRB04KT CAVOK 31/10 Q1019,
SBMT,2024-05-05 18:00,87.80,50.00,27.29,,3.00,0.00,30.06,,6.21,,,,,,,,,,,,,,,,,85.11,SBMT 051800Z VRB03KT CAVOK 31/10 Q1018,
SBMT,2024-05-05 19:00,86.00,51.80,30.90,90.00,3.00,0.00,30.06,,6.21,,,,,,,,,,,,,,,,,83.87,SBMT 051900Z 09003KT 020V160 CAVOK 30/11 Q1018,
SBMT,2024-05-05 20:00,87.80,50.00,27.29,,2.00,0.00,30.06,,6.21,,,,,,,,,,,,,,,,,85.11,SBMT 052000Z VRB02KT CAVOK 31/10 Q1018,
SBMT,2024-05-05 21:00,77.00,53.60,44.25,50.00,2.00,0.00,30.09,,6.21,,,,,,,,,,,,,,,,,77.00,SBMT 052100Z 05002KT CAVOK 25/12 Q1019,
SBMT,2024-05-05 22:00,75.20,66.20,73.61,140.00,8.00,0.00,30.12,,6.21,,,,,,,,,,,,,,,,,75.20,SBMT 052200Z 14008KT CAVOK 24/19 Q1020,
SBMT,2024-05-05 23:00,73.40,64.40,73.44,90.00,3.00,0.00,30.15,,6.21,,,,,,,,,,,,,,,,,73.40,SBMT 052300Z 09003KT CAVOK 23/18 Q1021,
SBMT,2024-05-06 00:00,73.40,62.60,68.94,100.00,4.00,0.00,30.15,,6.21,,,,,,,,,,,,,,,,,73.40,SBMT 060000Z 10004KT CAVOK 23/17 Q1021,
SBMT,2024-05-06 01:00,73.40,59.00,60.67,100.00,4.00,0.00,30.15,,6.21,,,,,,,,,,,,,,,,,73.40,SBMT 060100Z 10004KT CAVOK 23/15 Q1021,
SBMT,2024-05-06 02:00,71.60,57.20,60.44,110.00,4.00,0.00,30.15,,6.21,,,,,,,,,,,,,,,,,71.60,SBMT 060200Z 11004KT CAVOK 22/14 Q1021,
SBMT,2024-05-06 09:00,64.40,57.20,77.45,120.00,3.00,0.00,30.12,,6.21,,,,,,,,,,,,,,,,,64.40,SBMT 060900Z 12003KT CAVOK 18/14 Q1020,
SBMT,2024-05-06 10:00,60.80,57.20,87.92,0.00,0.00,0.00,30.12,,6.21,,,,,,,,,,,,,,,,,60.80,SBMT 061000Z 00000KT CAVOK 16/14 Q1020,
SBMT,2024-05-06 11:00,68.00,59.00,72.92,70.00,4.00,0.00,30.15,,6.21,,,,,,,,,,,,,,,,,68.00,SBMT 061100Z 07004KT CAVOK 20/15 Q1021,
SBMT,2024-05-06 12:00,71.60,57.20,60.44,80.00,3.00,0.00,30.15,,6.21,,,,,,,,,,,,,,,,,71.60,SBMT 061200Z 08003KT CAVOK 22/14 Q1021,
SBMT,2024-05-06 13:00,75.20,55.40,50.17,80.00,3.00,0.00,30.15,,6.21,,,,,,,,,,,,,,,,,75.20,SBMT 061300Z 08003KT CAVOK 24/13 Q1021,
SBMT,2024-05-06 14:00,78.80,55.40,44.52,30.00,2.00,0.00,30.12,,6.21,,,,,,,,,,,,,,,,,78.80,SBMT 061400Z 03002KT CAVOK 26/13 Q1020,
SBMT,2024-05-06 15:00,82.40,53.60,37.07,40.00,3.00,0.00,30.09,,6.21,,,,,,,,,,,,,,,,,81.46,SBMT 061500Z 04003KT CAVOK 28/12 Q1019,
SBMT,2024-05-06 16:00,84.20,50.00,30.62,30.00,4.00,0.00,30.06,,6.21,,,,,,,,,,,,,,,,,82.24,SBMT 061600Z 03004KT CAVOK 29/10 Q1018,
SBMT,2024-05-06 17:00,84.20,53.60,34.97,360.00,4.00,0.00,30.03,,6.21,,,,,,,,,,,,,,,,,82.76,SBMT 061700Z 36004KT CAVOK 29/12 Q1017,
SBMT,2024-05-06 18:00,69.80,53.60,56.38,340.00,5.00,0.00,30.00,,6.21,,,,,,,,,,,,,,,,,69.80,SBMT 061800Z 34005KT 280V030 CAVOK 21/12 Q1016,
SBMT,2024-05-06 19:00,84.20,55.40,37.35,330.00,4.00,0.00,30.00,,6.21,,,,,,,,,,,,,,,,,83.09,SBMT 061900Z 33004KT 260V050 CAVOK 29/13 Q1016,
SBMT,2024-05-06 20:00,84.20,55.40,37.35,360.00,3.00,0.00,30.00,,6.21,,,,,,,,,,,,,,,,,83.09,SBMT 062000Z 36003KT 320V060 CAVOK 29/13 Q1016,
SBMT,2024-05-06 21:00,80.60,57.20,44.80,360.00,3.00,0.00,30.00,,6.21,,,,,,,,,,,,,,,,,80.81,SBMT 062100Z 36003KT CAVOK 27/14 Q1016,
SBMT,2024-05-06 22:00,78.80,57.20,47.52,30.00,3.00,0.00,30.03,,6.21,,,,,,,,,,,,,,,,,78.80,SBMT 062200Z 03003KT CAVOK 26/14 Q1017,
SBMT,2024-05-06 23:00,71.60,59.00,64.48,120.00,1.00,0.00,30.06,,6.21,,,,,,,,,,,,,,,,,71.60,SBMT 062300Z 12001KT CAVOK 22/15 Q1018,
SBMT,2024-05-07 00:00,69.80,59.00,68.55,70.00,3.00,0.00,30.06,,6.21,,,,,,,,,,,,,,,,,69.80,SBMT 070000Z 07003KT CAVOK 21/15 Q1018,
SBMT,2024-05-07 01:00,68.00,60.80,77.75,0.00,0.00,0.00,30.09,,6.21,,,,,,,,,,,,,,,,,68.00,SBMT 070100Z 00000KT CAVOK 20/16 Q1019,
SBMT,2024-05-07 02:00,68.00,59.00,72.92,0.00,0.00,0.00,30.09,,6.21,,,,,,,,,,,,,,,,,68.00,SBMT 070200Z 00000KT CAVOK 20/15 Q1019,
SBMT,2024-05-07 09:00,62.60,59.00,88.00,90.00,2.00,0.00,30.06,,6.21,,,,,,,,,,,,,,,,,62.60,SBMT 070900Z 09002KT CAVOK 17/15 Q1018,
SBMT,2024-05-07 10:00,64.40,59.00,82.62,110.00,3.00,0.00,30.06,,6.21,,,,,,,,,,,,,,,,,64.40,SBMT 071000Z 11003KT CAVOK 18/15 Q1018,
SBMT,2024-05-07 11:00,69.80,62.60,77.90,0.00,0.00,0.00,30.09,,6.21,,,,,,,,,,,,,,,,,69.80,SBMT 071100Z 00000KT CAVOK 21/17 Q1019,
SBMT,2024-05-07 12:00,75.20,60.80,60.90,,2.00,0.00,30.09,,6.21,,,,,,,,,,,,,,,,,75.20,SBMT 071200Z VRB02KT CAVOK 24/16 Q1019,
SBMT,2024-05-07 13:00,80.60,64.40,57.84,350.00,4.00,0.00,30.09,,6.21,,,,,,,,,,,,,,,,,82.27,SBMT 071300Z 35004KT 300V040 CAVOK 27/18 Q1019,
SBMT,2024-05-07 14:00,82.40,62.60,51.21,20.00,4.00,0.00,30.09,,6.21,,,,,,,,,,,,,,,,,83.41,SBMT 071400Z 02004KT 330V070 CAVOK 28/17 Q1019,
SBMT,2024-05-07 15:00,84.20,59.00,42.52,290.00,5.00,0.00,30.06,,6.21,,,,,,,,,,,,,,,,,83.92,SBMT 071500Z 29005KT 240V340 CAVOK 29/15 Q1018,
SBMT,2024-05-07 16:00,84.20,59.00,42.52,300.00,6.00,0.00,30.03,,6.21,,,,,,,,,,,,,,,,,83.92,SBMT 071600Z 30006KT CAVOK 29/15 Q1017,
SBMT,2024-05-07 17:00,86.00,55.40,35.25,10.00,4.00,0.00,30.00,,6.21,,,,,,,,,,,,,,,,,84.54,SBMT 071700Z 01004KT CAVOK 30/13 Q1016,
SBMT,2024-05-07 18:00,86.00,50.00,28.90,20.00,4.00,0.00,29.97,,6.21,,,,,,,,,,,,,,,,,83.62,SBMT 071800Z 02004KT CAVOK 30/10 Q1015,
SBMT,2024-05-07 19:00,86.00,51.80,30.90,350.00,4.00,0.00,29.97,,6.21,,,,,,,,,,,,,,,,,83.87,SBMT 071900Z 35004KT CAVOK 30/11 Q1015,
SBMT,2024-05-07 20:00,84.20,55.40,37.35,340.00,5.00,0.00,29.97,,6.21,,,,,,,,,,,,,,,,,83.09,SBMT 072000Z 34005KT CAVOK 29/13 Q1015,
SBMT,2024-05-07 21:00,82.40,59.00,45.07,30.00,3.00,0.00,29.97,,6.21,,,,,,,,,,,,,,,,,82.46,SBMT 072100Z 03003KT CAVOK 28/15 Q1015,
SBMT,2024-05-07 22:00,78.80,59.00,50.69,70.00,2.00,0.00,30.00,,6.21,,,,,,,,,,,,,,,,,78.80,SBMT 072200Z 07002KT CAVOK 26/15 Q1016,
SBMT,2024-05-07 23:00,78.80,59.00,50.69,40.00,5.00,0.00,30.03,,6.21,,,,,,,,,,,,,,,,,78.80,SBMT 072300Z 04005KT CAVOK 26/15 Q1017,
SBMT,2024-05-08 00:00,75.20,60.80,60.90,340.00,2.00,0.00,30.03,,6.21,,,,,,,,,,,,,,,,,75.20,SBMT 080000Z 34002KT CAVOK 24/16 Q1017,
SBMT,2024-05-08 01:00,75.20,59.00,57.12,110.00,4.00,0.00,30.03,,6.21,,,,,,,,,,,,,,,,,75.20,SBMT 080100Z 11004KT CAVOK 24/15 Q1017,
SBMT,2024-05-08 02:00,75.20,59.00,57.12,90.00,4.00,0.00,30.03,,6.21,,,,,,,,,,,,,,,,,75.20,SBMT 080200Z 09004KT CAVOK 24/15 Q1017,
SBMT,2024-05-08 09:00,62.60,59.00,88.00,0.00,0.00,0.00,30.00,,6.21,,,,,,,,,,,,,,,,,62.60,SBMT 080900Z 00000KT CAVOK 17/15 Q1016,
SBMT,2024-05-08 10:00,64.40,59.00,82.62,0.00,0.00,0.00,30.03,,6.21,,,,,,,,,,,,,,,,,64.40,SBMT 081000Z 00000KT CAVOK 18/15 Q1017,
SBMT,2024-05-08 11:00,71.60,62.60,73.27,180.00,3.00,0.00,30.06,,6.21,,,,,,,,,,,,,,,,,71.60,SBMT 081100Z 18003KT CAVOK 22/17 Q1018,
SBMT,2024-05-08 12:00,77.00,59.00,53.80,70.00,3.00,0.00,30.06,,6.21,,,,,,,,,,,,,,,,,77.00,SBMT 081200Z 07003KT CAVOK 25/15 Q1018,
SBMT,2024-05-08 13:00,78.80,57.20,47.52,360.00,9.00,0.00,30.06,,6.21,,,,,,,,,,,,,,,,,78.80,SBMT 081300Z 36009KT CAVOK 26/14 Q1018,
SBMT,2024-05-08 14:00,80.60,57.20,44.80,350.00,8.00,0.00,30.06,,6.21,,,,,,,,,,,,,,,,,80.81,SBMT 081400Z 35008KT CAVOK 27/14 Q1018,
SBMT,2024-05-08 15:00,82.40,55.40,39.58,330.00,10.00,0.00,30.03,,6.21,,,,,,,,,,,,,,,,,81.75,SBMT 081500Z 33010KT CAVOK 28/13 Q1017,
SBMT,2024-05-08 16:00,84.20,57.20,39.86,340.00,7.00,0.00,30.03,,6.21,,,,,,,,,,,,,,,,,83.47,SBMT 081600Z 34007KT CAVOK 29/14 Q1017,
SBMT,2024-05-08 17:00,84.20,57.20,39.86,330.00,9.00,0.00,30.00,,6.21,,,,,,,,,,,,,,,,,83.47,SBMT 081700Z 33009KT CAVOK 29/14 Q1016,
SBMT,2024-05-08 18:00,84.20,57.20,39.86,290.00,11.00,0.00,30.03,,6.21,,,,,,,,,,,,,,,,,83.47,SBMT 081800Z 29011KT CAVOK 29/14 Q1017,
SBMT,2024-05-08 19:00,84.20,59.00,42.52,310.00,6.00,0.00,30.03,,6.21,,,,,,,,,,,,,,,,,83.92,SBMT 081900Z 31006KT CAVOK 29/15 Q1017,
SBMT,2024-05-08 20:00,82.40,59.00,45.07,330.00,6.00,0.00,30.03,,6.21,,,,,,,,,,,,,,,,,82.46,SBMT 082000Z 33006KT CAVOK 28/15 Q1017,
SBMT,2024-05-08 21:00,80.60,57.20,44.80,350.00,3.00,0.00,30.03,,6.21,,,,,,,,,,,,,,,,,80.81,SBMT 082100Z 35003KT CAVOK 27/14 Q1017,
SBMT,2024-05-08 22:00,73.40,59.00,60.67,340.00,2.00,0.00,30.06,,6.21,,,,,,,,,,,,,,,,,73.40,SBMT 082200Z 34002KT CAVOK 23/15 Q1018,
SBMT,2024-05-08 23:00,71.60,59.00,64.48,350.00,3.00,0.00,30.09,,6.21,,,,,,,,,,,,,,,,,71.60,SBMT 082300Z 35003KT CAVOK 22/15 Q1019,
SBMT,2024-05-09 01:00,68.00,57.20,68.35,110.00,2.00,0.00,30.09,,6.21,,,,,,,,,,,,,,,,,68.00,SBMT 090100Z 11002KT CAVOK 20/14 Q1019,
SBMT,2024-05-09 02:00,68.00,57.20,68.35,0.00,0.00,0.00,30.12,,6.21,,,,,,,,,,,,,,,,,68.00,SBMT 090200Z 00000KT CAVOK 20/14 Q1020,
SBMT,2024-05-09 09:00,69.80,57.20,64.26,0.00,0.00,0.00,30.12,,6.21,,,,,,,,,,,,,,,,,69.80,SBMT 090900Z 00000KT CAVOK 21/14 Q1020,
SBMT,2024-05-09 10:00,62.60,59.00,88.00,0.00,0.00,0.00,30.09,,6.21,,,,,,,,,,,,,,,,,62.60,SBMT 091000Z 00000KT CAVOK 17/15 Q1019,
SBMT,2024-05-09 11:00,71.60,60.80,68.75,110.00,3.00,0.00,30.15,,6.21,,,,,,,,,,,,,,,,,71.60,SBMT 091100Z 11003KT CAVOK 22/16 Q1021,
SBMT,2024-05-09 12:00,75.20,60.80,60.90,100.00,3.00,0.00,30.15,,6.21,,,,,,,,,,,,,,,,,75.20,SBMT 091200Z 10003KT CAVOK 24/16 Q1021,
SBMT,2024-05-09 13:00,80.60,62.60,54.30,330.00,2.00,0.00,30.15,,6.21,,,,,,,,,,,,,,,,,81.84,SBMT 091300Z 33002KT CAVOK 27/17 Q1021,
SBMT,2024-05-09 14:00,80.60,59.00,47.79,350.00,4.00,0.00,30.15,,6.21,,,,,,,,,,,,,,,,,81.11,SBMT 091400Z 35004KT CAVOK 27/15 Q1021,
SBMT,2024-05-09 15:00,82.40,59.00,45.07,270.00,6.00,0.00,30.12,,6.21,,,,,,,,,,,,,,,,,82.46,SBMT 091500Z 27006KT CAVOK 28/15 Q1020,
SBMT,2024-05-09 16:00,84.20,59.00,42.52,320.00,5.00,0.00,30.09,,6.21,,,,,,,,,,,,,,,,,83.92,SBMT 091600Z 32005KT CAVOK 29/15 Q1019,
SBMT,2024-05-09 17:00,84.20,59.00,42.52,250.00,3.00,0.00,30.06,,6.21,,SCT,,,,4000.00,,,,,,,,,,,83.92,SBMT 091700Z 25003KT 200V310 9999 SCT040 29/15 Q1018,
SBMT,2024-05-09 18:00,86.00,55.40,35.25,310.00,3.00,0.00,30.06,,6.21,,SCT,,,,4000.00,,,,,,,,,,,84.54,SBMT 091800Z 31003KT 9999 SCT040 30/13 Q1018,
SBMT,2024-05-09 19:00,78.80,66.20,65.33,140.00,11.00,0.00,30.06,,6.21,,SCT,,,,4000.00,,,,,,,,,,,78.80,SBMT 091900Z 14011KT 100V190 9999 SCT040 26/19 Q1018,
SBMT,2024-05-09 20:00,75.20,66.20,73.61,140.00,9.00,0.00,30.09,,6.21,,BKN,,,,2000.00,,,,,,,,,,,75.20,SBMT 092000Z 14009KT 9999 BKN020 24/19 Q1019,
SBMT,2024-05-09 21:00,73.40,66.20,78.19,170.00,7.00,0.00,30.12,,6.21,,BKN,,,,2000.00,,,,,,,,,,,73.40,SBMT 092100Z 17007KT 130V200 9999 BKN020 23/19 Q1020,
SBMT,2024-05-09 22:00,71.60,66.20,83.09,140.00,8.00,0.00,30.12,,6.21,,BKN,,,,2000.00,,,,,,,,,,,71.60,SBMT 092200Z 14008KT 100V200 9999 BKN020 22/19 Q1020,
SBMT,2024-05-09 23:00,71.60,66.20,83.09,150.00,5.00,0.00,30.15,,6.21,,BKN,,,,1900.00,,,,,,,,,,,71.60,SBMT 092300Z 15005KT 110V240 9999 BKN019 22/19 Q1021,
SBMT,2024-05-10 00:00,71.60,66.20,83.09,130.00,8.00,0.00,30.15,,6.21,,BKN,,,,1500.00,,,,,,,,,,,71.60,SBMT 100000Z 13008KT 9999 BKN015 22/19 Q1021,
SBMT,2024-05-10 01:00,71.60,66.20,83.09,110.00,6.00,0.00,30.15,,6.21,,BKN,,,,1500.00,,,,,,,,,,,71.60,SBMT 100100Z 11006KT 9999 BKN015 22/19 Q1021,
SBMT,2024-05-10 02:00,71.60,64.40,78.04,130.00,7.00,0.00,30.15,,6.21,,BKN,,,,1500.00,,,,,,,,,,,71.60,SBMT 100200Z 13007KT 9999 BKN015 22/18 Q1021,
SBMT,2024-05-10 09:00,69.80,64.40,82.98,120.00,6.00,0.00,30.09,,6.21,,BKN,,,,1500.00,,,,,,,,,,,69.80,SBMT 100900Z 12006KT 9999 BKN015 21/18 Q1019,
SBMT,2024-05-10 10:00,68.00,64.40,88.26,100.00,6.00,0.00,30.12,,6.21,,BKN,,,,2600.00,,,,,,,,,,,68.00,SBMT 101000Z 10006KT 9999 BKN026 20/18 Q1020,
SBMT,2024-05-10 11:00,71.60,64.40,78.04,100.00,7.00,0.00,30.15,,6.21,,SCT,BKN,,,1500.00,1700.00,,,,,,,,,,71.60,SBMT 101100Z 10007KT 9999 SCT015 BKN017 22/18 Q1021,
SBMT,2024-05-10 12:00,71.60,62.60,73.27,80.00,9.00,0.00,30.15,,6.21,,,,,,,,,,,,,,,,,71.60,SBMT 101200Z 08009KT CAVOK 22/17 Q1021,
SBMT,2024-05-10 13:00,73.40,64.40,73.44,100.00,8.00,0.00,30.15,,6.21,,BKN,,,,2300.00,,,,,,,,,,,73.40,SBMT 101300Z 10008KT 9999 BKN023 23/18 Q1021,
SBMT,2024-05-10 14:00,77.00,62.60,61.13,60.00,7.00,0.00,30.12,,6.21,,,,,,,,,,,,,,,,,77.00,SBMT 101400Z 06007KT CAVOK 25/17 Q1020,
SBMT,2024-05-10 15:00,78.80,62.60,57.60,80.00,3.00,0.00,30.09,,6.21,,,,,,,,,,,,,,,,,78.80,SBMT 101500Z 08003KT CAVOK 26/17 Q1019,
SBMT,2024-05-10 16:00,80.60,62.60,54.30,20.00,4.00,0.00,30.06,,6.21,,,,,,,,,,,,,,,,,81.84,SBMT 101600Z 02004KT CAVOK 27/17 Q1018,
SBMT,2024-05-10 17:00,82.40,55.40,39.58,350.00,6.00,0.00,30.03,,6.21,,SCT,,,,4500.00,,,,,,,,,,,81.75,SBMT 101700Z 35006KT 9999 SCT045 28/13 Q1017,
SBMT,2024-05-10 18:00,80.60,55.40,41.97,280.00,6.00,0.00,30.00,,6.21,,SCT,,,,4500.00,,,,,,,,,,,80.53,SBMT 101800Z 28006KT 9999 SCT045 27/13 Q1016,
SBMT,2024-05-10 19:00,82.40,55.40,39.58,330.00,4.00,0.00,29.97,,6.21,,SCT,,,,4500.00,,,,,,,,,,,81.75,SBMT 101900Z 33004KT 9999 SCT045 28/13 Q1015,
SBMT,2024-05-10 20:00,82.40,55.40,39.58,320.00,4.00,0.00,30.00,,6.21,,SCT,,,,4500.00,,,,,,,,,,,81.75,SBMT 102000Z 32004KT 9999 SCT045 28/13 Q1016,
SBMT,2024-05-10 21:00,78.80,55.40,44.52,310.00,3.00,0.00,30.00,,6.21,,,,,,,,,,,,,,,,,78.80,SBMT 102100Z 31003KT CAVOK 26/13 Q1016,
SBMT,2024-05-10 22:00,75.20,64.40,69.14,160.00,3.00,0.00,30.00,,6.21,,,,,,,,,,,,,,,,,75.20,SBMT 102200Z 16003KT CAVOK 24/18 Q1016,
SBMT,2024-05-10 23:00,71.60,64.40,78.04,120.00,5.00,0.00,30.03,,6.21,,,,,,,,,,,,,,,,,71.60,SBMT 102300Z 12005KT CAVOK 22/18 Q1017,
SBMT,2024-05-11 00:00,71.60,64.40,78.04,130.00,3.00,0.00,30.03,,6.21,,,,,,,,,,,,,,,,,71.60,SBMT 110000Z 13003KT CAVOK 22/18 Q1017,
SBMT,2024-05-11 01:00,68.00,62.60,82.86,140.00,2.00,0.00,30.03,,6.21,,,,,,,,,,,,,,,,,68.00,SBMT 110100Z 14002KT CAVOK 20/17 Q1017,
SBMT,2024-05-11 02:00,68.00,62.60,82.86,140.00,3.00,0.00,30.06,,6.21,,,,,,,,,,,,,,,,,68.00,SBMT 110200Z 14003KT CAVOK 20/17 Q1018,
SBMT,2024-05-11 09:00,64.40,62.60,93.88,0.00,0.00,0.00,30.03,,6.21,,,,,,,,,,,,,,,,,64.40,SBMT 110900Z 00000KT CAVOK 18/17 Q1017,
SBMT,2024-05-11 10:00,64.40,60.80,88.09,90.00,3.00,0.00,30.03,,4.97,,NSC,,,,,,,,,,,,,,,64.40,SBMT 111000Z 09003KT 8000 NSC 18/16 Q1017,
SBMT,2024-05-11 11:00,69.80,62.60,77.90,90.00,3.00,0.00,30.06,,4.97,,NSC,,,,,,,,,,,,,,,69.80,SBMT 111100Z 09003KT 030V120 8000 NSC 21/17 Q1018,
SBMT,2024-05-11 12:00,75.20,60.80,60.90,,2.00,0.00,30.06,,4.97,,NSC,,,,,,,,,,,,,,,75.20,SBMT 111200Z VRB02KT 8000 NSC 24/16 Q1018,
SBMT,2024-05-11 13:00,78.80,60.80,54.05,340.00,5.00,0.00,30.06,,4.97,,NSC,,,,,,,,,,,,,,,78.80,SBMT 111300Z 34005KT 280V020 8000 NSC 26/16 Q1018,
SBMT,2024-05-11 14:00,80.60,59.00,47.79,290.00,10.00,0.00,30.06,,6.21,,,,,,,,,,,,,,,,,81.11,SBMT 111400Z 29010KT 260V320 CAVOK 27/15 Q1018,
SBMT,2024-05-11 15:00,80.60,57.20,44.80,300.00,10.00,0.00,30.03,,6.21,,,,,,,,,,,,,,,,,80.81,SBMT 111500Z 30010KT 270V340 CAVOK 27/14 Q1017,
SBMT,2024-05-11 16:00,82.40,57.20,42.25,300.00,10.00,0.00,30.00,,6.21,,SCT,,,,4500.00,,,,,,,,,,,82.08,SBMT 111600Z 30010KT 240V360 9999 SCT045 28/14 Q1016,
SBMT,2024-05-11 17:00,82.40,53.60,37.07,290.00,9.00,0.00,29.97,,6.21,,FEW,,,,4000.00,,,,,,,,,,,81.46,SBMT 111700Z 29009KT 9999 FEW040 28/12 Q1015,
SBMT,2024-05-11 18:00,82.40,53.60,37.07,290.00,8.00,0.00,29.97,,6.21,,FEW,,,,4500.00,,,,,,,,,,,81.46,SBMT 111800Z 29008KT 9999 FEW045 28/12 Q1015,
SBMT,2024-05-11 19:00,82.40,55.40,39.58,280.00,10.00,0.00,29.97,,6.21,,FEW,,,,4500.00,,,,,,,,,,,81.75,SBMT 111900Z 28010KT 9999 FEW045 28/13 Q1015,
SBMT,2024-05-11 20:00,82.40,53.60,37.07,290.00,9.00,0.00,29.94,,6.21,,,,,,,,,,,,,,,,,81.46,SBMT 112000Z 29009KT CAVOK 28/12 Q1014,
SBMT,2024-05-11 21:00,78.80,55.40,44.52,290.00,4.00,0.00,29.97,,6.21,,,,,,,,,,,,,,,,,78.80,SBMT 112100Z 29004KT CAVOK 26/13 Q1015,
SBMT,2024-05-11 22:00,73.40,57.20,56.88,350.00,3.00,0.00,29.97,,6.21,,,,,,,,,,,,,,,,,73.40,SBMT 112200Z 35003KT CAVOK 23/14 Q1015,
SBMT,2024-05-11 23:00,71.60,57.20,60.44,360.00,2.00,0.00,30.00,,6.21,,,,,,,,,,,,,,,,,71.60,SBMT 112300Z 36002KT CAVOK 22/14 Q1016,
SBMT,2024-05-12 00:00,68.00,55.40,64.04,0.00,0.00,0.00,30.00,,6.21,,,,,,,,,,,,,,,,,68.00,SBMT 120000Z 00000KT CAVOK 20/13 Q1016,
SBMT,2024-05-12 01:00,68.00,57.20,68.35,0.00,0.00,0.00,30.00,,6.21,,,,,,,,,,,,,,,,,68.00,SBMT 120100Z 00000KT CAVOK 20/14 Q1016,
SBMT,2024-05-12 02:00,68.00,55.40,64.04,0.00,0.00,0.00,30.00,,6.21,,,,,,,,,,,,,,,,,68.00,SBMT 120200Z 00000KT CAVOK 20/13 Q1016,
SBMT,2024-05-12 09:00,60.80,59.00,93.79,0.00,0.00,0.00,29.97,,6.21,,,,,,,,,,,,,,,,,60.80,SBMT 120900Z 00000KT CAVOK 16/15 Q1015,
SBMT,2024-05-12 10:00,60.80,59.00,93.79,0.00,0.00,0.00,30.00,,6.21,,,,,,,,,,,,,,,,,60.80,SBMT 121000Z 00000KT CAVOK 16/15 Q1016,
SBMT,2024-05-12 11:00,71.60,59.00,64.48,330.00,3.00,0.00,30.00,,6.21,,,,,,,,,,,,,,,,,71.60,SBMT 121100Z 33003KT CAVOK 22/15 Q1016,
SBMT,2024-05-12 12:00,77.00,59.00,53.80,360.00,5.00,0.00,30.00,,6.21,,,,,,,,,,,,,,,,,77.00,SBMT 121200Z 36005KT CAVOK 25/15 Q1016,
SBMT,2024-05-12 13:00,78.80,59.00,50.69,310.00,8.00,0.00,30.00,,6.21,,,,,,,,,,,,,,,,,78.80,SBMT 121300Z 31008KT CAVOK 26/15 Q1016,
SBMT,2024-05-12 14:00,80.60,59.00,47.79,320.00,8.00,0.00,30.00,,6.21,,,,,,,,,,,,,,,,,81.11,SBMT 121400Z 32008KT CAVOK 27/15 Q1016,
SBMT,2024-05-12 15:00,82.40,57.20,42.25,280.00,10.00,0.00,29.97,,6.21,,,,,,,,,,,,,,,,,82.08,SBMT 121500Z 28010KT CAVOK 28/14 Q1015,
SBMT,2024-05-12 16:00,82.40,53.60,37.07,290.00,14.00,0.00,29.94,,6.21,,,,,,,,,,,,,,,,,81.46,SBMT 121600Z 29014KT CAVOK 28/12 Q1014,
SBMT,2024-05-12 17:00,84.20,55.40,37.35,300.00,11.00,0.00,29.94,,6.21,,,,,,,,,,,,,,,,,83.09,SBMT 121700Z 30011KT CAVOK 29/13 Q1014,
SBMT,2024-05-12 18:00,84.20,55.40,37.35,330.00,10.00,0.00,29.91,,6.21,,SCT,,,,4000.00,,,,,,,,,,,83.09,SBMT 121800Z 33010KT 9999 SCT040 29/13 Q1013,
SBMT,2024-05-12 19:00,84.20,55.40,37.35,300.00,9.00,0.00,29.91,,6.21,,,,,,,,,,,,,,,,,83.09,SBMT 121900Z 30009KT CAVOK 29/13 Q1013,
SBMT,2024-05-12 20:00,82.40,53.60,37.07,310.00,7.00,0.00,29.91,,6.21,,,,,,,,,,,,,,,,,81.46,SBMT 122000Z 31007KT CAVOK 28/12 Q1013,
SBMT,2024-05-12 21:00,80.60,53.60,39.30,300.00,5.00,0.00,29.94,,6.21,,,,,,,,,,,,,,,,,80.29,SBMT 122100Z 30005KT CAVOK 27/12 Q1014,
SBMT,2024-05-12 22:00,77.00,55.40,47.25,10.00,3.00,0.00,29.94,,6.21,,,,,,,,,,,,,,,,,77.00,SBMT 122200Z 01003KT CAVOK 25/13 Q1014,
SBMT,2024-05-12 23:00,77.00,55.40,47.25,360.00,3.00,0.00,29.94,,6.21,,,,,,,,,,,,,,,,,77.00,SBMT 122300Z 36003KT CAVOK 25/13 Q1014,
SBMT,2024-05-13 00:00,71.60,57.20,60.44,90.00,1.00,0.00,29.97,,6.21,,,,,,,,,,,,,,,,,71.60,SBMT 130000Z 09001KT CAVOK 22/14 Q1015,
SBMT,2024-05-13 01:00,71.60,57.20,60.44,360.00,2.00,0.00,29.97,,6.21,,,,,,,,,,,,,,,,,71.60,SBMT 130100Z 36002KT CAVOK 22/14 Q1015,
SBMT,2024-05-13 02:00,66.20,57.20,72.74,0.00,0.00,0.00,29.97,,6.21,,,,,,,,,,,,,,,,,66.20,SBMT 130200Z 00000KT CAVOK 19/14 Q1015,
SBMT,2024-05-13 09:00,71.60,51.80,49.64,290.00,7.00,0.00,29.94,,6.21,,,,,,,,,,,,,,,,,71.60,SBMT 130900Z 29007KT CAVOK 22/11 Q1014,
SBMT,2024-05-13 10:00,73.40,51.80,46.71,300.00,8.00,0.00,29.97,,6.21,,,,,,,,,,,,,,,,,73.40,SBMT 131000Z 30008KT CAVOK 23/11 Q1015,
SBMT,2024-05-13 11:00,75.20,51.80,43.97,300.00,10.00,0.00,30.00,,6.21,,,,,,,,,,,,,,,,,75.20,SBMT 131100Z 30010KT CAVOK 24/11 Q1016,
SBMT,2024-05-13 12:00,75.20,53.60,46.98,290.00,10.00,0.00,30.00,,6.21,,,,,,,,,,,,,,,,,75.20,SBMT 131200Z 29010KT CAVOK 24/12 Q1016,
SBMT,2024-05-13 13:00,78.80,53.60,41.69,310.00,9.00,0.00,30.00,,6.21,,,,,,,,,,,,,,,,,78.80,SBMT 131300Z 31009KT CAVOK 26/12 Q1016,
SBMT,2024-05-13 14:00,80.60,51.80,36.79,300.00,14.00,0.00,30.00,,6.21,24.00,,,,,,,,,,,,,,,,80.08,SBMT 131400Z 30014G24KT CAVOK 27/11 Q1016,
SBMT,2024-05-13 15:00,82.40,51.80,34.69,310.00,15.00,0.00,29.97,,6.21,25.00,,,,,,,,,,,,,,,,81.20,SBMT 131500Z 31015G25KT CAVOK 28/11 Q1015,
SBMT,2024-05-13 16:00,82.40,48.20,30.35,330.00,13.00,0.00,29.94,,6.21,23.00,,,,,,,,,,,,,,,,80.80,SBMT 131600Z 33013G23KT CAVOK 28/09 Q1014,
SBMT,2024-05-13 17:00,84.20,53.60,34.97,290.00,13.00,0.00,29.94,,6.21,,,,,,,,,,,,,,,,,82.76,SBMT 131700Z 29013KT CAVOK 29/12 Q1014,
SBMT,2024-05-13 18:00,84.20,51.80,32.73,310.00,12.00,0.00,29.91,,6.21,24.00,,,,,,,,,,,,,,,,82.48,SBMT 131800Z 31012G24KT CAVOK 29/11 Q1013,
SBMT,2024-05-13 19:00,84.20,53.60,34.97,330.00,9.00,0.00,29.91,,6.21,,,,,,,,,,,,,,,,,82.76,SBMT 131900Z 33009KT CAVOK 29/12 Q1013,
SBMT,2024-05-13 20:00,82.40,51.80,34.69,320.00,7.00,0.00,29.94,,6.21,,,,,,,,,,,,,,,,,81.20,SBMT 132000Z 32007KT 290V360 CAVOK 28/11 Q1014,
SBMT,2024-05-13 21:00,80.60,51.80,36.79,300.00,6.00,0.00,29.94,,6.21,,,,,,,,,,,,,,,,,80.08,SBMT 132100Z 30006KT CAVOK 27/11 Q1014,
SBMT,2024-05-13 22:00,78.80,50.00,36.51,300.00,4.00,0.00,29.97,,6.21,,,,,,,,,,,,,,,,,78.80,SBMT 132200Z 30004KT CAVOK 26/10 Q1015,
SBMT,2024-05-13 23:00,77.00,51.80,41.42,280.00,2.00,0.00,30.00,,6.21,,,,,,,,,,,,,,,,,77.00,SBMT 132300Z 28002KT CAVOK 25/11 Q1016,
SBMT,2024-05-14 00:00,69.80,53.60,56.38,0.00,0.00,0.00,30.00,,6.21,,,,,,,,,,,,,,,,,69.80,SBMT 140000Z 00000KT CAVOK 21/12 Q1016,
SBMT,2024-05-14 01:00,69.80,53.60,56.38,0.00,0.00,0.00,30.00,,6.21,,,,,,,,,,,,,,,,,69.80,SBMT 140100Z 00000KT CAVOK 21/12 Q1016,
SBMT,2024-05-14 02:00,71.60,57.20,60.44,130.00,5.00,0.00,30.03,,6.21,,,,,,,,,,,,,,,,,71.60,SBMT 140200Z 13005KT CAVOK 22/14 Q1017,
SBMT,2024-05-14 09:00,68.00,62.60,82.86,160.00,5.00,0.00,30.06,,6.21,,BKN,,,,2300.00,,,,,,,,,,,68.00,SBMT 140900Z 16005KT 9999 BKN023 20/17 Q1018,
SBMT,2024-05-14 10:00,68.00,64.40,88.26,120.00,5.00,0.00,30.06,,6.21,,BKN,,,,1300.00,,,,,,,,,,,68.00,SBMT 141000Z 12005KT 9999 BKN013 20/18 Q1018,
SBMT,2024-05-14 11:00,68.00,62.60,82.86,190.00,7.00,0.00,30.09,,2.49,,BKN,BKN,,,1100.00,1500.00,,,BR,,,,,,,68.00,SBMT 141100Z 19007KT 4000 BR BKN011 BKN015 20/17 Q1019,
SBMT,2024-05-14 12:00,68.00,62.60,82.86,160.00,5.00,0.00,30.09,,6.21,,SCT,BKN,,,1100.00,1300.00,,,,,,,,,,68.00,SBMT 141200Z 16005KT 9999 SCT011 BKN013 20/17 Q1019,
SBMT,2024-05-14 13:00,68.00,60.80,77.75,170.00,7.00,0.00,30.12,,6.21,,SCT,BKN,,,1500.00,2100.00,,,,,,,,,,68.00,SBMT 141300Z 17007KT 9999 SCT015 BKN021 20/16 Q1020,
SBMT,2024-05-14 14:00,68.00,60.80,77.75,170.00,7.00,0.00,30.09,,6.21,,SCT,BKN,,,2300.00,2600.00,,,,,,,,,,68.00,SBMT 141400Z 17007KT 9999 SCT023 BKN026 20/16 Q1019,
SBMT,2024-05-14 15:00,66.20,62.60,88.18,210.00,6.00,0.00,30.12,,0.62,,BKN,BKN,,,900.00,1900.00,,,-RA BR,,,,,,,66.20,COR SBMT 141500Z 21006KT 1000 -RA BR BKN009 BKN019 19/17 Q1020,
SBMT,2024-05-14 16:00,66.20,62.60,88.18,270.00,2.00,0.00,30.06,,6.21,,BKN,,,,900.00,,,,,,,,,,,66.20,SBMT 141600Z 27002KT 9999 BKN009 19/17 Q1018,
SBMT,2024-05-14 17:00,68.00,60.80,77.75,170.00,4.00,0.00,30.06,,6.21,,BKN,BKN,,,1500.00,1900.00,,,,,,,,,,68.00,SBMT 141700Z 17004KT 9999 BKN015 BKN019 20/16 Q1018,
SBMT,2024-05-14 18:00,68.00,62.60,82.86,150.00,4.00,0.00,30.06,,6.21,,BKN,BKN,,,1600.00,2000.00,,,,,,,,,,68.00,SBMT 141800Z 15004KT 9999 BKN016 BKN020 20/17 Q1018,
SBMT,2024-05-14 19:00,68.00,60.80,77.75,170.00,6.00,0.00,30.06,,6.21,,OVC,,,,1900.00,,,,,,,,,,,68.00,SBMT 141900Z 17006KT 9999 OVC019 20/16 Q1018,
SBMT,2024-05-14 20:00,66.20,60.80,82.74,150.00,6.00,0.00,30.06,,6.21,,BKN,,,,2000.00,,,,,,,,,,,66.20,SBMT 142000Z 15006KT 9999 BKN020 19/16 Q1018,
SBMT,2024-05-14 21:00,66.20,60.80,82.74,150.00,6.00,0.00,30.06,,6.21,,BKN,,,,1700.00,,,,,,,,,,,66.20,SBMT 142100Z 15006KT 9999 BKN017 19/16 Q1018,
SBMT,2024-05-14 22:00,66.20,60.80,82.74,160.00,4.00,0.00,30.06,,6.21,,SCT,OVC,,,1700.00,1900.00,,,,,,,,,,66.20,SBMT 142200Z 16004KT 9999 SCT017 OVC019 19/16 Q1018,
SBMT,2024-05-14 23:00,66.20,60.80,82.74,150.00,4.00,0.00,30.09,,6.21,,BKN,BKN,,,1500.00,1900.00,,,,,,,,,,66.20,SBMT 142300Z 15004KT 9999 BKN015 BKN019 19/16 Q1019,
SBMT,2024-05-15 00:00,64.40,59.00,82.62,150.00,5.00,0.00,30.09,,6.21,,BKN,BKN,,,1500.00,2000.00,,,,,,,,,,64.40,SBMT 150000Z 15005KT 9999 BKN015 BKN020 18/15 Q1019,
SBMT,2024-05-15 01:00,64.40,59.00,82.62,150.00,6.00,0.00,30.12,,6.21,,BKN,BKN,,,1500.00,2500.00,,,,,,,,,,64.40,SBMT 150100Z 15006KT 9999 BKN015 BKN025 18/15 Q1020,
SBMT,2024-05-15 02:00,64.40,59.00,82.62,160.00,5.00,0.00,30.12,,6.21,,OVC,,,,1600.00,,,,,,,,,,,64.40,SBMT 150200Z 16005KT 9999 OVC016 18/15 Q1020,
SBMT,2024-05-15 09:00,62.60,55.40,77.29,140.00,5.00,0.00,30.12,,6.21,,FEW,BKN,,,1300.00,1500.00,,,,,,,,,,62.60,SBMT 150900Z 14005KT 090V200 9999 FEW013 BKN015 17/13 Q1020,
SBMT,2024-05-15 10:00,62.60,57.20,82.50,160.00,7.00,0.00,30.12,,6.21,,SCT,BKN,,,1300.00,1500.00,,,,,,,,,,62.60,SBMT 151000Z 16007KT 130V190 9999 SCT013 BKN015 17/14 Q1020,
SBMT,2024-05-15 11:00,62.60,57.20,82.50,160.00,5.00,0.00,30.15,,6.21,,BKN,BKN,,,1300.00,1500.00,,,,,,,,,,62.60,SBMT 151100Z 16005KT 120V200 9999 BKN013 BKN015 17/14 Q1021,
SBMT,2024-05-15 12:00,62.60,57.20,82.50,160.00,5.00,0.00,30.15,,6.21,,SCT,BKN,,,1100.00,1300.00,,,,,,,,,,62.60,SBMT 151200Z 16005KT 110V200 9999 SCT011 BKN013 17/14 Q1021,
SBMT,2024-05-15 13:00,64.40,57.20,77.45,160.00,8.00,0.00,30.18,,6.21,,BKN,SCT,,,1300.00,1500.00,,,,,,,,,,64.40,SBMT 151300Z 16008KT 130V190 9999 BKN013 SCT015 18/14 Q1022,
SBMT,2024-05-15 14:00,64.40,57.20,77.45,150.00,6.00,0.00,30.15,,6.21,,FEW,BKN,,,1300.00,1500.00,,,,,,,,,,64.40,SBMT 151400Z 15006KT 100V190 9999 FEW013 BKN015 18/14 Q1021,
SBMT,2024-05-15 15:00,62.60,57.20,82.50,160.00,6.00,0.00,30.15,,6.21,,SCT,BKN,,,1300.00,1500.00,,,,,,,,,,62.60,SBMT 151500Z 16006KT 120V190 9999 SCT013 BKN015 17/14 Q1021,
SBMT,2024-05-15 16:00,62.60,57.20,82.50,140.00,4.00,0.00,30.12,,6.21,,BKN,BKN,,,1300.00,1500.00,,,,,,,,,,62.60,SBMT 151600Z 14004KT 080V190 9999 BKN013 BKN015 17/14 Q1020,
SBMT,2024-05-15 17:00,64.40,59.00,82.62,150.00,6.00,0.00,30.12,,6.21,,OVC,,,,1500.00,,,,,,,,,,,64.40,SBMT 151700Z 15006KT 9999 OVC015 18/15 Q1020,
SBMT,2024-05-15 18:00,64.40,57.20,77.45,130.00,6.00,0.00,30.09,,6.21,,OVC,,,,1600.00,,,,,,,,,,,64.40,SBMT 151800Z 13006KT 9999 OVC016 18/14 Q1019,
SBMT,2024-05-15 19:00,64.40,59.00,82.62,140.00,6.00,0.00,30.09,,6.21,,OVC,,,,1600.00,,,,,,,,,,,64.40,SBMT 151900Z 14006KT 9999 OVC016 18/15 Q1019,
SBMT,2024-05-15 20:00,64.40,57.20,77.45,140.00,6.00,0.00,30.12,,6.21,,OVC,,,,1500.00,,,,,,,,,,,64.40,SBMT 152000Z 14006KT 9999 OVC015 18/14 Q1020,
SBMT,2024-05-15 21:00,62.60,59.00,88.00,140.00,6.00,0.00,30.12,,6.21,,OVC,,,,1300.00,,,,,,,,,,,62.60,SBMT 152100Z 14006KT 9999 OVC013 17/15 Q1020,
SBMT,2024-05-15 22:00,62.60,59.00,88.00,110.00,8.00,0.00,30.12,,6.21,,OVC,,,,1300.00,,,,,,,,,,,62.60,SBMT 152200Z 11008KT 9999 OVC013 17/15 Q1020,
SBMT,2024-05-15 23:00,62.60,57.20,82.50,120.00,7.00,0.00,30.12,,6.21,,OVC,,,,1300.00,,,,,,,,,,,62.60,SBMT 152300Z 12007KT 9999 OVC013 17/14 Q1020,
SBMT,2024-05-16 00:00,62.60,57.20,82.50,110.00,6.00,0.00,30.12,,6.21,,OVC,,,,1300.00,,,,,,,,,,,62.60,SBMT 160000Z 11006KT 9999 OVC013 17/14 Q1020,
SBMT,2024-05-16 01:00,62.60,57.20,82.50,120.00,7.00,0.00,30.12,,6.21,,OVC,,,,1300.00,,,,,,,,,,,62.60,SBMT 160100Z 12007KT 9999 OVC013 17/14 Q1020,
SBMT,2024-05-16 02:00,62.60,57.20,82.50,90.00,5.00,0.00,30.12,,6.21,,OVC,,,,1300.00,,,,,,,,,,,62.60,SBMT 160200Z 09005KT 9999 OVC013 17/14 Q1020,
SBMT,2024-05-16 09:00,62.60,59.00,88.00,90.00,6.00,0.00,30.06,,1.86,,BKN,,,,900.00,,,,BR,,,,,,,62.60,SBMT 160900Z 09006KT 3000 BR BKN009 17/15 Q1018,
SBMT,2024-05-16 10:00,62.60,60.80,93.83,80.00,6.00,0.00,30.09,,1.86,,BKN,,,,900.00,,,,BR,,,,,,,62.60,SBMT 161000Z 08006KT 3000 BR BKN009 17/16 Q1019,
SBMT,2024-05-16 11:00,64.40,60.80,88.09,70.00,6.00,0.00,30.12,,2.49,,BKN,,,,900.00,,,,BR,,,,,,,64.40,SBMT 161100Z 07006KT 4000 BR BKN009 18/16 Q1020,
SBMT,2024-05-16 12:00,66.20,60.80,82.74,80.00,4.00,0.00,30.12,,3.73,,NSC,,,,,,,,,,,,,,,66.20,COR SBMT 161200Z 08004KT 6000 NSC 19/16 Q1020,
SBMT,2024-05-16 13:00,68.00,62.60,82.86,80.00,5.00,0.00,30.12,,4.97,,NSC,,,,,,,,,,,,,,,68.00,SBMT 161300Z 08005KT 8000 NSC 20/17 Q1020,
SBMT,2024-05-16 14:00,71.60,62.60,73.27,90.00,4.00,0.00,30.09,,6.21,,,,,,,,,,,,,,,,,71.60,SBMT 161400Z 09004KT CAVOK 22/17 Q1019,
SBMT,2024-05-16 15:00,77.00,64.40,65.12,90.00,3.00,0.00,30.06,,6.21,,,,,,,,,,,,,,,,,77.00,SBMT 161500Z 09003KT CAVOK 25/18 Q1018,
SBMT,2024-05-16 16:00,80.60,62.60,54.30,330.00,7.00,0.00,30.03,,6.21,,,,,,,,,,,,,,,,,81.84,SBMT 161600Z 33007KT CAVOK 27/17 Q1017,
SBMT,2024-05-16 17:00,82.40,62.60,51.21,330.00,7.00,0.00,30.00,,6.21,,FEW,,,,4200.00,,,,,,,,,,,83.41,SBMT 161700Z 33007KT 280V020 9999 FEW042 28/17 Q1016,
SBMT,2024-05-16 18:00,84.20,60.80,45.34,330.00,10.00,0.00,30.00,,6.21,,FEW,,,,4500.00,,,,,,,,,,,84.43,SBMT 161800Z 33010KT 9999 FEW045 29/16 Q1016,
SBMT,2024-05-16 19:00,84.20,59.00,42.52,330.00,7.00,0.00,30.00,,6.21,,,,,,,,,,,,,,,,,83.92,SBMT 161900Z 33007KT CAVOK 29/15 Q1016,
SBMT,2024-05-16 20:00,82.40,57.20,42.25,320.00,5.00,0.00,30.00,,6.21,,,,,,,,,,,,,,,,,82.08,SBMT 162000Z 32005KT CAVOK 28/14 Q1016,
SBMT,2024-05-16 21:00,78.80,59.00,50.69,,2.00,0.00,30.03,,6.21,,,,,,,,,,,,,,,,,78.80,SBMT 162100Z VRB02KT CAVOK 26/15 Q1017,
SBMT,2024-05-16 22:00,77.00,59.00,53.80,10.00,3.00,0.00,30.03,,6.21,,,,,,,,,,,,,,,,,77.00,SBMT 162200Z 01003KT CAVOK 25/15 Q1017,
SBMT,2024-05-16 23:00,71.60,60.80,68.75,0.00,0.00,0.00,30.06,,6.21,,,,,,,,,,,,,,,,,71.60,SBMT 162300Z 00000KT CAVOK 22/16 Q1018,
SBMT,2024-05-17 00:00,69.80,60.80,73.09,0.00,0.00,0.00,30.06,,6.21,,,,,,,,,,,,,,,,,69.80,SBMT 170000Z 00000KT CAVOK 21/16 Q1018,
SBMT,2024-05-17 01:00,75.20,62.60,64.91,330.00,4.00,0.00,30.06,,6.21,,,,,,,,,,,,,,,,,75.20,SBMT 170100Z 33004KT 290V010 CAVOK 24/17 Q1018,
SBMT,2024-05-17 02:00,71.60,62.60,73.27,0.00,0.00,0.00,30.06,,6.21,,,,,,,,,,,,,,,,,71.60,SBMT 170200Z 00000KT CAVOK 22/17 Q1018,
SBMT,2024-05-17 09:00,66.20,59.00,77.60,250.00,2.00,0.00,30.09,,6.21,,,,,,,,,,,,,,,,,66.20,SBMT 170900Z 25002KT CAVOK 19/15 Q1019,
SBMT,2024-05-17 10:00,71.60,59.00,64.48,290.00,4.00,0.00,30.12,,6.21,,,,,,,,,,,,,,,,,71.60,SBMT 171000Z 29004KT CAVOK 22/15 Q1020,
SBMT,2024-05-17 11:00,73.40,59.00,60.67,310.00,5.00,0.00,30.15,,6.21,,,,,,,,,,,,,,,,,73.40,SBMT 171100Z 31005KT CAVOK 23/15 Q1021,
SBMT,2024-05-17 12:00,77.00,60.80,57.36,310.00,5.00,0.00,30.15,,6.21,,,,,,,,,,,,,,,,,77.00,SBMT 171200Z 31005KT CAVOK 25/16 Q1021,
SBMT,2024-05-17 13:00,78.80,59.00,50.69,340.00,7.00,0.00,30.15,,6.21,,,,,,,,,,,,,,,,,78.80,SBMT 171300Z 34007KT CAVOK 26/15 Q1021,
SBMT,2024-05-17 14:00,80.60,59.00,47.79,350.00,9.00,0.00,30.12,,6.21,,,,,,,,,,,,,,,,,81.11,SBMT 171400Z 35009KT CAVOK 27/15 Q1020,
SBMT,2024-05-17 15:00,84.20,57.20,39.86,320.00,9.00,0.00,30.09,,6.21,,,,,,,,,,,,,,,,,83.47,SBMT 171500Z 32009KT CAVOK 29/14 Q1019,
SBMT,2024-05-17 16:00,86.00,55.40,35.25,310.00,10.00,0.00,30.06,,6.21,,,,,,,,,,,,,,,,,84.54,SBMT 171600Z 31010KT CAVOK 30/13 Q1018,
SBMT,2024-05-17 17:00,86.00,53.60,33.01,300.00,10.00,0.00,30.03,,6.21,,,,,,,,,,,,,,,,,84.18,SBMT 171700Z 30010KT CAVOK 30/12 Q1017,
SBMT,2024-05-17 18:00,86.00,53.60,33.01,300.00,10.00,0.00,30.03,,6.21,,,,,,,,,,,,,,,,,84.18,SBMT 171800Z 30010KT CAVOK 30/12 Q1017,
SBMT,2024-05-17 19:00,86.00,53.60,33.01,300.00,7.00,0.00,30.03,,6.21,,,,,,,,,,,,,,,,,84.18,SBMT 171900Z 30007KT CAVOK 30/12 Q1017,
SBMT,2024-05-17 20:00,84.20,53.60,34.97,340.00,3.00,0.00,30.03,,6.21,,,,,,,,,,,,,,,,,82.76,SBMT 172000Z 34003KT CAVOK 29/12 Q1017,
SBMT,2024-05-17 21:00,80.60,55.40,41.97,360.00,3.00,0.00,30.06,,6.21,,,,,,,,,,,,,,,,,80.53,SBMT 172100Z 36003KT CAVOK 27/13 Q1018,
SBMT,2024-05-17 22:00,78.80,55.40,44.52,350.00,3.00,0.00,30.06,,6.21,,,,,,,,,,,,,,,,,78.80,SBMT 172200Z 35003KT CAVOK 26/13 Q1018,
SBMT,2024-05-17 23:00,71.60,57.20,60.44,0.00,0.00,0.00,30.09,,6.21,,,,,,,,,,,,,,,,,71.60,SBMT 172300Z 00000KT CAVOK 22/14 Q1019,
SBMT,2024-05-18 00:00,69.80,57.20,64.26,0.00,0.00,0.00,30.09,,6.21,,,,,,,,,,,,,,,,,69.80,SBMT 180000Z 00000KT CAVOK 21/14 Q1019,
SBMT,2024-05-18 01:00,68.00,57.20,68.35,0.00,0.00,0.00,30.09,,6.21,,,,,,,,,,,,,,,,,68.00,SBMT 180100Z 00000KT CAVOK 20/14 Q1019,
SBMT,2024-05-18 02:00,66.20,55.40,68.15,110.00,2.00,0.00,30.09,,6.21,,,,,,,,,,,,,,,,,66.20,SBMT 180200Z 11002KT CAVOK 19/13 Q1019,
SBMT,2024-05-18 09:00,60.80,55.40,82.37,0.00,0.00,0.00,30.09,,6.21,,,,,,,,,,,,,,,,,60.80,SBMT 180900Z 00000KT CAVOK 16/13 Q1019,
SBMT,2024-05-18 10:00,60.80,55.40,82.37,60.00,1.00,0.00,30.12,,6.21,,,,,,,,,,,,,,,,,60.80,SBMT 181000Z 06001KT CAVOK 16/13 Q1020,
SBMT,2024-05-18 11:00,68.00,60.80,77.75,100.00,2.00,0.00,30.15,,6.21,,,,,,,,,,,,,,,,,68.00,SBMT 181100Z 10002KT CAVOK 20/16 Q1021,
SBMT,2024-05-18 12:00,71.60,60.80,68.75,,2.00,0.00,30.15,,6.21,,,,,,,,,,,,,,,,,71.60,SBMT 181200Z VRB02KT CAVOK 22/16 Q1021,
SBMT,2024-05-18 13:00,77.00,60.80,57.36,,2.00,0.00,30.15,,6.21,,,,,,,,,,,,,,,,,77.00,SBMT 181300Z VRB02KT CAVOK 25/16 Q1021,
SBMT,2024-05-18 14:00,80.60,55.40,41.97,290.00,12.00,0.00,30.12,,6.21,,,,,,,,,,,,,,,,,80.53,SBMT 181400Z 29012KT 240V330 CAVOK 27/13 Q1020,
SBMT,2024-05-18 15:00,82.40,55.40,39.58,330.00,10.00,0.00,30.09,,6.21,,,,,,,,,,,,,,,,,81.75,SBMT 181500Z 33010KT 290V020 CAVOK 28/13 Q1019,
SBMT,2024-05-18 16:00,84.20,53.60,34.97,330.00,8.00,0.00,30.06,,6.21,,,,,,,,,,,,,,,,,82.76,SBMT 181600Z 33008KT 290V020 CAVOK 29/12 Q1018,
SBMT,2024-05-18 17:00,84.20,55.40,37.35,300.00,8.00,0.00,30.06,,6.21,,,,,,,,,,,,,,,,,83.09,SBMT 181700Z 30008KT CAVOK 29/13 Q1018,
SBMT,2024-05-18 18:00,84.20,55.40,37.35,320.00,7.00,0.00,30.03,,6.21,,,,,,,,,,,,,,,,,83.09,SBMT 181800Z 32007KT CAVOK 29/13 Q1017,
SBMT,2024-05-18 19:00,84.20,55.40,37.35,330.00,6.00,0.00,30.03,,6.21,,,,,,,,,,,,,,,,,83.09,SBMT 181900Z 33006KT CAVOK 29/13 Q1017,
SBMT,2024-05-18 20:00,73.40,64.40,73.44,140.00,9.00,0.00,30.06,,6.21,,,,,,,,,,,,,,,,,73.40,SBMT 182000Z 14009KT CAVOK 23/18 Q1018,
SBMT,2024-05-18 21:00,69.80,64.40,82.98,140.00,6.00,0.00,30.09,,6.21,,,,,,,,,,,,,,,,,69.80,SBMT 182100Z 14006KT CAVOK 21/18 Q1019,
SBMT,2024-05-18 22:00,69.80,64.40,82.98,160.00,5.00,0.00,30.12,,6.21,,BKN,,,,1700.00,,,,,,,,,,,69.80,COR SBMT 182200Z 16005KT 9999 BKN017 21/18 Q1020,
SBMT,2024-05-18 23:00,69.80,64.40,82.98,170.00,6.00,0.00,30.12,,6.21,,BKN,,,,1700.00,,,,,,,,,,,69.80,SBMT 182300Z 17006KT 9999 BKN017 21/18 Q1020,
SBMT,2024-05-19 00:00,69.80,64.40,82.98,150.00,5.00,0.00,30.15,,6.21,,BKN,,,,1700.00,,,,,,,,,,,69.80,SBMT 190000Z 15005KT 9999 BKN017 21/18 Q1021,
SBMT,2024-05-19 01:00,69.80,62.60,77.90,150.00,5.00,0.00,30.15,,6.21,,BKN,,,,1700.00,,,,,,,,,,,69.80,SBMT 190100Z 15005KT 9999 BKN017 21/17 Q1021,
SBMT,2024-05-19 02:00,68.00,62.60,82.86,130.00,5.00,0.00,30.15,,6.21,,BKN,,,,1700.00,,,,,,,,,,,68.00,SBMT 190200Z 13005KT 9999 BKN017 20/17 Q1021,
SBMT,2024-05-19 09:00,66.20,62.60,88.18,140.00,5.00,0.00,30.12,,4.97,,BKN,BKN,,,1300.00,2000.00,,,,,,,,,,66.20,SBMT 190900Z 14005KT 8000 BKN013 BKN020 19/17 Q1020,
SBMT,2024-05-19 10:00,66.20,60.80,82.74,140.00,4.00,0.00,30.15,,4.97,,BKN,,,,2000.00,,,,,,,,,,,66.20,SBMT 191000Z 14004KT 8000 BKN020 19/16 Q1021,
SBMT,2024-05-19 11:00,68.00,60.80,77.75,160.00,5.00,0.00,30.15,,4.97,,BKN,BKN,,,1300.00,2000.00,,,,,,,,,,68.00,SBMT 191100Z 16005KT 8000 BKN013 BKN020 20/16 Q1021,
SBMT,2024-05-19 12:00,68.00,60.80,77.75,150.00,6.00,0.00,30.18,,6.21,,BKN,BKN,,,1500.00,2500.00,,,,,,,,,,68.00,SBMT 191200Z 15006KT 9999 BKN015 BKN025 20/16 Q1022,
SBMT,2024-05-19 13:00,68.00,60.80,77.75,140.00,7.00,0.00,30.18,,6.21,,BKN,,,,1700.00,,,,,,,,,,,68.00,SBMT 191300Z 14007KT 9999 BKN017 20/16 Q1022,
SBMT,2024-05-19 14:00,69.80,60.80,73.09,130.00,4.00,0.00,30.18,,6.21,,BKN,,,,2000.00,,,,,,,,,,,69.80,SBMT 191400Z 13004KT 9999 BKN020 21/16 Q1022,
SBMT,2024-05-19 15:00,73.40,60.80,64.69,120.00,5.00,0.00,30.15,,6.21,,SCT,,,,2000.00,,,,,,,,,,,73.40,SBMT 191500Z 12005KT 9999 SCT020 23/16 Q1021,
SBMT,2024-05-19 16:00,75.20,59.00,57.12,130.00,5.00,0.00,30.12,,6.21,,SCT,,,,2500.00,,,,,,,,,,,75.20,SBMT 191600Z 13005KT 9999 SCT025 24/15 Q1020,
SBMT,2024-05-19 17:00,75.20,59.00,57.12,,3.00,0.00,30.09,,6.21,,SCT,,,,2500.00,,,,,,,,,,,75.20,SBMT 191700Z VRB03KT 9999 SCT025 24/15 Q1019,
SBMT,2024-05-19 18:00,77.00,59.00,53.80,,5.00,0.00,30.09,,6.21,,SCT,,,,2600.00,,,,,,,,,,,77.00,SBMT 191800Z VRB05KT 9999 SCT026 25/15 Q1019,
SBMT,2024-05-19 19:00,75.20,60.80,60.90,160.00,6.00,0.00,30.09,,6.21,,FEW,,,,2600.00,,,,,,,,,,,75.20,SBMT 191900Z 16006KT 120V190 9999 FEW026 24/16 Q1019,
SBMT,2024-05-19 20:00,75.20,60.80,60.90,160.00,4.00,0.00,30.09,,6.21,,FEW,,,,2000.00,,,,,,,,,,,75.20,SBMT 192000Z 16004KT 140V200 9999 FEW020 24/16 Q1019,
SBMT,2024-05-19 21:00,71.60,60.80,68.75,130.00,7.00,0.00,30.12,,6.21,,SCT,,,,2000.00,,,,,,,,,,,71.60,SBMT 192100Z 13007KT 090V160 9999 SCT020 22/16 Q1020,
SBMT,2024-05-19 22:00,69.80,60.80,73.09,120.00,7.00,0.00,30.12,,6.21,,,,,,,,,,,,,,,,,69.80,SBMT 192200Z 12007KT 090V150 CAVOK 21/16 Q1020,
SBMT,2024-05-19 23:00,68.00,60.80,77.75,130.00,5.00,0.00,30.12,,6.21,,,,,,,,,,,,,,,,,68.00,SBMT 192300Z 13005KT CAVOK 20/16 Q1020,
SBMT,2024-05-20 00:00,68.00,60.80,77.75,80.00,4.00,0.00,30.15,,6.21,,,,,,,,,,,,,,,,,68.00,SBMT 200000Z 08004KT CAVOK 20/16 Q1021,
SBMT,2024-05-20 01:00,68.00,60.80,77.75,100.00,4.00,0.00,30.15,,6.21,,,,,,,,,,,,,,,,,68.00,SBMT 200100Z 10004KT 060V120 CAVOK 20/16 Q1021,
SBMT,2024-05-20 02:00,68.00,60.80,77.75,90.00,3.00,0.00,30.15,,6.21,,,,,,,,,,,,,,,,,68.00,SBMT 200200Z 09003KT CAVOK 20/16 Q1021,
SBMT,2024-05-20 09:00,66.20,64.40,93.92,260.00,1.00,0.00,30.09,,4.97,,FEW,BKN,,,2000.00,6500.00,,,,,,,,,,66.20,SBMT 200900Z 26001KT 8000 FEW020 BKN065 19/18 Q1019,
SBMT,2024-05-20 10:00,66.20,64.40,93.92,250.00,2.00,0.00,30.12,,4.97,,NSC,,,,,,,,,,,,,,,66.20,SBMT 201000Z 25002KT 8000 NSC 19/18 Q1020,
SBMT,2024-05-20 11:00,69.80,64.40,82.98,180.00,1.00,0.00,30.12,,4.97,,NSC,,,,,,,,,,,,,,,69.80,SBMT 201100Z 18001KT 8000 NSC 21/18 Q1020,
SBMT,2024-05-20 12:00,75.20,64.40,69.14,60.00,2.00,0.00,30.15,,6.21,,,,,,,,,,,,,,,,,75.20,SBMT 201200Z 06002KT CAVOK 24/18 Q1021,
SBMT,2024-05-20 13:00,75.20,64.40,69.14,120.00,2.00,0.00,30.15,,6.21,,SCT,,,,2300.00,,,,,,,,,,,75.20,SBMT 201300Z 12002KT 9999 SCT023 24/18 Q1021,
SBMT,2024-05-20 14:00,78.80,64.40,61.36,0.00,0.00,0.00,30.15,,6.21,,SCT,,,,3300.00,,,,,,,,,,,78.80,SBMT 201400Z 00000KT 9999 SCT033 26/18 Q1021,
SBMT,2024-05-20 15:00,78.80,62.60,57.60,150.00,3.00,0.00,30.12,,4.97,,SCT,,,,3300.00,,,,,,,,,,,78.80,SBMT 201500Z 15003KT 8000 SCT033 26/17 Q1020,
SBMT,2024-05-20 16:00,80.60,60.80,50.95,300.00,6.00,0.00,30.09,,6.21,,BKN,,,,4000.00,,,,,,,,,,,81.46,SBMT 201600Z 30006KT 9999 BKN040 27/16 Q1019,
SBMT,2024-05-20 17:00,73.40,66.20,78.19,150.00,11.00,0.00,30.09,,4.35,,FEW,SCT,,,1700.00,3300.00,,,,,,,,,,73.40,SBMT 201700Z 15011KT 7000 FEW017 SCT033 23/19 Q1019,
SBMT,2024-05-20 18:00,69.80,64.40,82.98,160.00,7.00,0.00,30.09,,3.73,,BKN,,,,1200.00,,,,,,,,,,,69.80,SBMT 201800Z 16007KT 6000 BKN012 21/18 Q1019,
SBMT,2024-05-20 19:00,68.00,62.60,82.86,140.00,7.00,0.00,30.12,,5.59,,OVC,,,,1000.00,,,,,,,,,,,68.00,SBMT 201900Z 14007KT 9000 OVC010 20/17 Q1020,
SBMT,2024-05-20 20:00,66.20,60.80,82.74,110.00,8.00,0.00,30.12,,6.21,,OVC,,,,1100.00,,,,,,,,,,,66.20,SBMT 202000Z 11008KT 9999 OVC011 19/16 Q1020,
SBMT,2024-05-20 21:00,64.40,60.80,88.09,120.00,8.00,0.00,30.15,,6.21,,OVC,,,,900.00,,,,,,,,,,,64.40,SBMT 202100Z 12008KT 9999 OVC009 18/16 Q1021,
SBMT,2024-05-20 22:00,62.60,60.80,93.83,120.00,7.00,0.00,30.18,,6.21,,OVC,,,,900.00,,,,,,,,,,,62.60,SBMT 202200Z 12007KT 9999 OVC009 17/16 Q1022,
SBMT,2024-05-20 23:00,64.40,59.00,82.62,130.00,6.00,0.00,30.18,,6.21,,OVC,,,,1000.00,,,,,,,,,,,64.40,SBMT 202300Z 13006KT 9999 OVC010 18/15 Q1022,
SBMT,2024-05-21 00:00,62.60,59.00,88.00,130.00,7.00,0.00,30.21,,6.21,,OVC,,,,1000.00,,,,,,,,,,,62.60,SBMT 210000Z 13007KT 9999 OVC010 17/15 Q1023,
SBMT,2024-05-21 01:00,64.40,59.00,82.62,120.00,5.00,0.00,30.21,,6.21,,OVC,,,,1100.00,,,,,,,,,,,64.40,SBMT 210100Z 12005KT 9999 OVC011 18/15 Q1023,
SBMT,2024-05-21 02:00,64.40,59.00,82.62,100.00,7.00,0.00,30.21,,6.21,,OVC,,,,1200.00,,,,,,,,,,,64.40,SBMT 210200Z 10007KT 9999 OVC012 18/15 Q1023,
SBMT,2024-05-21 09:00,64.40,59.00,82.62,140.00,7.00,0.00,30.18,,6.21,,BKN,OVC,,,1300.00,1800.00,,,,,,,,,,64.40,SBMT 210900Z 14007KT 9999 BKN013 OVC018 18/15 Q1022,
SBMT,2024-05-21 10:00,62.60,59.00,88.00,120.00,6.00,0.00,30.21,,6.21,,OVC,,,,1200.00,,,,,,,,,,,62.60,SBMT 211000Z 12006KT 9999 OVC012 17/15 Q1023,
SBMT,2024-05-21 11:00,62.60,57.20,82.50,120.00,7.00,0.00,30.24,,6.21,,OVC,,,,1200.00,,,,,,,,,,,62.60,SBMT 211100Z 12007KT 9999 OVC012 17/14 Q1024,
SBMT,2024-05-21 12:00,64.40,59.00,82.62,110.00,6.00,0.00,30.27,,6.21,,OVC,,,,1200.00,,,,,,,,,,,64.40,SBMT 211200Z 11006KT 9999 OVC012 18/15 Q1025,
SBMT,2024-05-21 13:00,64.40,59.00,82.62,130.00,6.00,0.00,30.27,,6.21,,OVC,,,,1400.00,,,,,,,,,,,64.40,SBMT 211300Z 13006KT 9999 OVC014 18/15 Q1025,
SBMT,2024-05-21 14:00,66.20,60.80,82.74,120.00,5.00,0.00,30.27,,6.21,,OVC,,,,1500.00,,,,,,,,,,,66.20,SBMT 211400Z 12005KT 9999 OVC015 19/16 Q1025,
SBMT,2024-05-21 15:00,69.80,62.60,77.90,110.00,9.00,0.00,30.24,,6.21,,BKN,,,,1800.00,,,,,,,,,,,69.80,SBMT 211500Z 11009KT 9999 BKN018 21/17 Q1024,
SBMT,2024-05-21 16:00,71.60,62.60,73.27,100.00,8.00,0.00,30.21,,6.21,,FEW,,,,2100.00,,,,,,,,,,,71.60,SBMT 211600Z 10008KT 9999 FEW021 22/17 Q1023,
SBMT,2024-05-21 17:00,73.40,62.60,68.94,120.00,7.00,0.00,30.18,,6.21,,,,,,,,,,,,,,,,,73.40,SBMT 211700Z 12007KT CAVOK 23/17 Q1022,
SBMT,2024-05-21 18:00,75.20,62.60,64.91,100.00,8.00,0.00,30.15,,6.21,,,,,,,,,,,,,,,,,75.20,SBMT 211800Z 10008KT CAVOK 24/17 Q1021,
SBMT,2024-05-21 19:00,73.40,62.60,68.94,80.00,7.00,0.00,30.15,,6.21,,,,,,,,,,,,,,,,,73.40,SBMT 211900Z 08007KT CAVOK 23/17 Q1021,
SBMT,2024-05-21 20:00,71.60,62.60,73.27,80.00,7.00,0.00,30.15,,6.21,,,,,,,,,,,,,,,,,71.60,SBMT 212000Z 08007KT CAVOK 22/17 Q1021,
SBMT,2024-05-21 21:00,69.80,62.60,77.90,80.00,7.00,0.00,30.18,,6.21,,,,,,,,,,,,,,,,,69.80,SBMT 212100Z 08007KT CAVOK 21/17 Q1022,
SBMT,2024-05-21 22:00,68.00,62.60,82.86,150.00,6.00,0.00,30.18,,6.21,,,,,,,,,,,,,,,,,68.00,SBMT 212200Z 15006KT CAVOK 20/17 Q1022,
SBMT,2024-05-21 23:00,66.20,62.60,88.18,130.00,4.00,0.00,30.18,,6.21,,,,,,,,,,,,,,,,,66.20,SBMT 212300Z 13004KT CAVOK 19/17 Q1022,
SBMT,2024-05-22 00:00,66.20,60.80,82.74,140.00,3.00,0.00,30.21,,6.21,,,,,,,,,,,,,,,,,66.20,SBMT 220000Z 14003KT CAVOK 19/16 Q1023,
SBMT,2024-05-22 01:00,64.40,62.60,93.88,110.00,4.00,0.00,30.21,,6.21,,FEW,,,,1100.00,,,,,,,,,,,64.40,COR SBMT 220100Z 11004KT 9999 FEW011 18/17 Q1023,
SBMT,2024-05-22 02:00,64.40,60.80,88.09,100.00,6.00,0.00,30.21,,4.97,,SCT,,,,900.00,,,,,,,,,,,64.40,SBMT 220200Z 10006KT 8000 SCT009 18/16 Q1023,
SBMT,2024-05-22 09:00,64.40,60.80,88.09,70.00,4.00,0.00,30.18,,4.97,,OVC,,,,700.00,,,,,,,,,,,64.40,SBMT 220900Z 07004KT 8000 OVC007 18/16 Q1022,
SBMT,2024-05-22 10:00,64.40,62.60,93.88,100.00,5.00,0.00,30.21,,4.97,,OVC,,,,800.00,,,,,,,,,,,64.40,SBMT 221000Z 10005KT 8000 OVC008 18/17 Q1023,
SBMT,2024-05-22 11:00,64.40,62.60,93.88,90.00,7.00,0.00,30.24,,4.97,,OVC,,,,800.00,,,,,,,,,,,64.40,SBMT 221100Z 09007KT 8000 OVC008 18/17 Q1024,
SBMT,2024-05-22 12:00,66.20,60.80,82.74,70.00,7.00,0.00,30.24,,6.21,,BKN,,,,900.00,,,,,,,,,,,66.20,SBMT 221200Z 07007KT 9999 BKN009 19/16 Q1024,
SBMT,2024-05-22 13:00,68.00,62.60,82.86,90.00,8.00,0.00,30.24,,6.21,,FEW,,,,1300.00,,,,,,,,,,,68.00,SBMT 221300Z 09008KT 9999 FEW013 20/17 Q1024,
SBMT,2024-05-22 14:00,71.60,62.60,73.27,80.00,5.00,0.00,30.21,,6.21,,,,,,,,,,,,,,,,,71.60,SBMT 221400Z 08005KT CAVOK 22/17 Q1023,
SBMT,2024-05-22 15:00,77.00,62.60,61.13,50.00,3.00,0.00,30.18,,6.21,,,,,,,,,,,,,,,,,77.00,SBMT 221500Z 05003KT CAVOK 25/17 Q1022,
SBMT,2024-05-22 16:00,78.80,62.60,57.60,50.00,4.00,0.00,30.15,,6.21,,FEW,,,,4000.00,,,,,,,,,,,78.80,SBMT 221600Z 05004KT 9999 FEW040 26/17 Q1021,
SBMT,2024-05-22 17:00,78.80,60.80,54.05,70.00,6.00,0.00,30.12,,6.21,,FEW,,,,4000.00,,,,,,,,,,,78.80,SBMT 221700Z 07006KT 9999 FEW040 26/16 Q1020,
SBMT,2024-05-22 18:00,82.40,60.80,48.05,120.00,5.00,0.00,30.12,,6.21,,FEW,,,,4500.00,,,,,,,,,,,82.90,SBMT 221800Z 12005KT 9999 FEW045 28/16 Q1020,
SBMT,2024-05-22 19:00,80.60,57.20,44.80,100.00,5.00,0.00,30.09,,6.21,,FEW,,,,4900.00,,,,,,,,,,,80.81,SBMT 221900Z 10005KT 9999 FEW049 27/14 Q1019,
SBMT,2024-05-22 20:00,78.80,57.20,47.52,80.00,7.00,0.00,30.12,,6.21,,,,,,,,,,,,,,,,,78.80,SBMT 222000Z 08007KT CAVOK 26/14 Q1020,
SBMT,2024-05-22 21:00,77.00,57.20,50.43,80.00,7.00,0.00,30.12,,6.21,,,,,,,,,,,,,,,,,77.00,SBMT 222100Z 08007KT CAVOK 25/14 Q1020,
SBMT,2024-05-22 22:00,75.20,60.80,60.90,90.00,6.00,0.00,30.12,,6.21,,,,,,,,,,,,,,,,,75.20,SBMT 222200Z 09006KT CAVOK 24/16 Q1020,
SBMT,2024-05-22 23:00,73.40,60.80,64.69,90.00,4.00,0.00,30.15,,6.21,,,,,,,,,,,,,,,,,73.40,SBMT 222300Z 09004KT CAVOK 23/16 Q1021,
SBMT,2024-05-23 00:00,71.60,60.80,68.75,80.00,3.00,0.00,30.15,,6.21,,,,,,,,,,,,,,,,,71.60,SBMT 230000Z 08003KT CAVOK 22/16 Q1021,
SBMT,2024-05-23 01:00,71.60,60.80,68.75,60.00,2.00,0.00,30.15,,6.21,,,,,,,,,,,,,,,,,71.60,SBMT 230100Z 06002KT CAVOK 22/16 Q1021,
SBMT,2024-05-23 02:00,66.20,60.80,82.74,90.00,3.00,0.00,30.15,,6.21,,,,,,,,,,,,,,,,,66.20,SBMT 230200Z 09003KT CAVOK 19/16 Q1021,
SBMT,2024-05-23 09:00,60.80,59.00,93.79,,2.00,0.00,30.09,,6.21,,,,,,,,,,,,,,,,,60.80,SBMT 230900Z VRB02KT CAVOK 16/15 Q1019,
SBMT,2024-05-23 10:00,59.00,57.20,93.74,300.00,2.00,0.00,30.12,,6.21,,,,,,,,,,,,,,,,,59.00,SBMT 231000Z 30002KT CAVOK 15/14 Q1020,
SBMT,2024-05-23 11:00,66.20,57.20,72.74,270.00,5.00,0.00,30.15,,6.21,,,,,,,,,,,,,,,,,66.20,SBMT 231100Z 27005KT 240V310 CAVOK 19/14 Q1021,
SBMT,2024-05-23 12:00,71.60,55.40,56.63,310.00,7.00,0.00,30.15,,6.21,,,,,,,,,,,,,,,,,71.60,SBMT 231200Z 31007KT 270V010 CAVOK 22/13 Q1021,
SBMT,2024-05-23 13:00,73.40,55.40,53.29,320.00,7.00,0.00,30.15,,6.21,,,,,,,,,,,,,,,,,73.40,SBMT 231300Z 32007KT 270V020 CAVOK 23/13 Q1021,
SBMT,2024-05-23 14:00,75.20,53.60,46.98,,7.00,0.00,30.15,,6.21,,,,,,,,,,,,,,,,,75.20,SBMT 231400Z VRB07KT CAVOK 24/12 Q1021,
SBMT,2024-05-23 15:00,78.80,55.40,44.52,350.00,9.00,0.00,30.09,,6.21,,,,,,,,,,,,,,,,,78.80,SBMT 231500Z 35009KT 290V050 CAVOK 26/13 Q1019,
SBMT,2024-05-23 16:00,80.60,51.80,36.79,,7.00,0.00,30.06,,6.21,,,,,,,,,,,,,,,,,80.08,SBMT 231600Z VRB07KT CAVOK 27/11 Q1018,
SBMT,2024-05-23 17:00,80.60,53.60,39.30,340.00,9.00,0.00,30.03,,6.21,,,,,,,,,,,,,,,,,80.29,SBMT 231700Z 34009KT CAVOK 27/12 Q1017,
SBMT,2024-05-23 18:00,82.40,51.80,34.69,320.00,9.00,0.00,30.03,,6.21,,,,,,,,,,,,,,,,,81.20,SBMT 231800Z 32009KT CAVOK 28/11 Q1017,
SBMT,2024-05-23 19:00,80.60,51.80,36.79,320.00,8.00,0.00,30.00,,6.21,,,,,,,,,,,,,,,,,80.08,SBMT 231900Z 32008KT CAVOK 27/11 Q1016,
SBMT,2024-05-23 20:00,78.80,51.80,39.02,330.00,4.00,0.00,30.03,,6.21,,,,,,,,,,,,,,,,,78.80,SBMT 232000Z 33004KT CAVOK 26/11 Q1017,
SBMT,2024-05-23 21:00,77.00,50.00,38.74,350.00,3.00,0.00,30.03,,6.21,,,,,,,,,,,,,,,,,77.00,SBMT 232100Z 35003KT CAVOK 25/10 Q1017,
SBMT,2024-05-23 22:00,75.20,50.00,41.14,330.00,3.00,0.00,30.03,,6.21,,,,,,,,,,,,,,,,,75.20,SBMT 232200Z 33003KT CAVOK 24/10 Q1017,
SBMT,2024-05-23 23:00,73.40,50.00,43.69,360.00,3.00,0.00,30.03,,6.21,,,,,,,,,,,,,,,,,73.40,SBMT 232300Z 36003KT CAVOK 23/10 Q1017,
SBMT,2024-05-24 00:00,66.20,51.80,59.74,290.00,1.00,0.00,30.06,,6.21,,,,,,,,,,,,,,,,,66.20,SBMT 240000Z 29001KT CAVOK 19/11 Q1018,
SBMT,2024-05-24 01:00,64.40,51.80,63.60,270.00,2.00,0.00,30.03,,6.21,,,,,,,,,,,,,,,,,64.40,SBMT 240100Z 27002KT CAVOK 18/11 Q1017,
SBMT,2024-05-24 02:00,64.40,51.80,63.60,0.00,0.00,0.00,30.03,,6.21,,,,,,,,,,,,,,,,,64.40,SBMT 240200Z 00000KT CAVOK 18/11 Q1017,
SBMT,2024-05-24 09:00,66.20,51.80,59.74,0.00,0.00,0.00,30.00,,6.21,,,,,,,,,,,,,,,,,66.20,SBMT 240900Z 00000KT CAVOK 19/11 Q1016,
SBMT,2024-05-24 10:00,68.00,51.80,56.13,350.00,6.00,0.00,30.03,,6.21,,,,,,,,,,,,,,,,,68.00,SBMT 241000Z 35006KT CAVOK 20/11 Q1017,
SBMT,2024-05-24 11:00,69.80,53.60,56.38,320.00,5.00,0.00,30.03,,6.21,,,,,,,,,,,,,,,,,69.80,SBMT 241100Z 32005KT CAVOK 21/12 Q1017,
SBMT,2024-05-24 12:00,75.20,53.60,46.98,330.00,5.00,0.00,30.06,,6.21,,,,,,,,,,,,,,,,,75.20,SBMT 241200Z 33005KT CAVOK 24/12 Q1018,
SBMT,2024-05-24 13:00,77.00,55.40,47.25,260.00,11.00,0.00,30.06,,6.21,,FEW,,,,3000.00,,,,,,,,,,,77.00,SBMT 241300Z 26011KT 9999 FEW030 25/13 Q1018,
SBMT,2024-05-24 14:00,75.20,55.40,50.17,230.00,5.00,0.00,30.06,,6.21,,BKN,,,,4000.00,,,,,,,,,,,75.20,SBMT 241400Z 23005KT 9999 BKN040 24/13 Q1018,
SBMT,2024-05-24 15:00,78.80,55.40,44.52,300.00,7.00,0.00,30.06,,6.21,,SCT,,,,4000.00,,,,,,,,,,,78.80,SBMT 241500Z 30007KT 9999 SCT040 26/13 Q1018,
SBMT,2024-05-24 16:00,77.00,57.20,50.43,250.00,8.00,0.00,30.03,,6.21,,BKN,,,,4000.00,,,,,,,,,,,77.00,SBMT 241600Z 25008KT 9999 BKN040 25/14 Q1017,
SBMT,2024-05-24 17:00,73.40,55.40,53.29,270.00,15.00,0.00,30.06,,6.21,25.00,BKN,,,,4000.00,,,,,,,,,,,73.40,SBMT 241700Z 27015G25KT 9999 BKN040 23/13 Q1018,
SBMT,2024-05-24 18:00,64.40,60.80,88.09,280.00,8.00,0.00,30.06,,6.21,,FEW,SCT,BKN,,1100.00,1500.00,4000.00,,,,,,,,,64.40,SBMT 241800Z 28008KT 9999 FEW011 SCT015 BKN040 18/16 Q1018,
SBMT,2024-05-24 19:00,66.20,60.80,82.74,360.00,4.00,0.00,30.00,,6.21,,FEW,SCT,BKN,,1500.00,4000.00,8000.00,,,,,,,,,66.20,SBMT 241900Z 36004KT 9999 FEW015 SCT040 BKN080 19/16 Q1016,
SBMT,2024-05-24 20:00,66.20,59.00,77.60,240.00,4.00,0.00,30.00,,6.21,,FEW,SCT,BKN,,1500.00,4000.00,8000.00,,,,,,,,,66.20,SBMT 242000Z 24004KT 9999 FEW015 SCT040 BKN080 19/15 Q1016,
SBMT,2024-05-24 21:00,66.20,57.20,72.74,350.00,6.00,0.00,30.00,,6.21,,,,,,,,,,,,,,,,,66.20,SBMT 242100Z 35006KT CAVOK 19/14 Q1016,
SBMT,2024-05-24 22:00,64.40,57.20,77.45,0.00,0.00,0.00,30.00,,6.21,,,,,,,,,,,,,,,,,64.40,SBMT 242200Z 00000KT CAVOK 18/14 Q1016,
SBMT,2024-05-24 23:00,62.60,55.40,77.29,260.00,3.00,0.00,30.03,,6.21,,,,,,,,,,,,,,,,,62.60,SBMT 242300Z 26003KT CAVOK 17/13 Q1017,
SBMT,2024-05-25 00:00,62.60,57.20,82.50,280.00,6.00,0.00,30.03,,6.21,,,,,,,,,,,,,,,,,62.60,SBMT 250000Z 28006KT CAVOK 17/14 Q1017,
SBMT,2024-05-25 01:00,64.40,57.20,77.45,300.00,9.00,0.00,30.06,,6.21,,,,,,,,,,,,,,,,,64.40,SBMT 250100Z 30009KT CAVOK 18/14 Q1018,
SBMT,2024-05-25 02:00,62.60,57.20,82.50,270.00,5.00,0.00,30.06,,6.21,,,,,,,,,,,,,,,,,62.60,SBMT 250200Z 27005KT CAVOK 17/14 Q1018,
SBMT,2024-05-25 09:00,57.20,55.40,93.69,,2.00,0.00,30.09,,6.21,,,,,,,,,,,,,,,,,57.20,SBMT 250900Z VRB02KT CAVOK 14/13 Q1019,
SBMT,2024-05-25 10:00,59.00,57.20,93.74,,2.00,0.00,30.15,,6.21,,BKN,SCT,,,1800.00,5000.00,,,,,,,,,,59.00,SBMT 251000Z VRB02KT 9999 BKN018 SCT050 15/14 Q1021,
SBMT,2024-05-25 11:00,62.60,57.20,82.50,140.00,4.00,0.00,30.15,,6.21,,SCT,BKN,,,1600.00,5000.00,,,,,,,,,,62.60,SBMT 251100Z 14004KT 9999 SCT016 BKN050 17/14 Q1021,
SBMT,2024-05-25 12:00,64.40,57.20,77.45,130.00,6.00,0.00,30.18,,6.21,,BKN,BKN,,,1600.00,5300.00,,,,,,,,,,64.40,COR SBMT 251200Z 13006KT 9999 BKN016 BKN053 18/14 Q1022,
SBMT,2024-05-25 13:00,64.40,57.20,77.45,170.00,7.00,0.00,30.21,,6.21,,BKN,BKN,,,1800.00,5000.00,,,,,,,,,,64.40,SBMT 251300Z 17007KT 9999 BKN018 BKN050 18/14 Q1023,
SBMT,2024-05-25 14:00,64.40,57.20,77.45,140.00,8.00,0.00,30.18,,6.21,,BKN,BKN,,,1700.00,2600.00,,,,,,,,,,64.40,SBMT 251400Z 14008KT 9999 BKN017 BKN026 18/14 Q1022,
SBMT,2024-05-25 15:00,64.40,57.20,77.45,130.00,8.00,0.00,30.18,,6.21,,BKN,BKN,,,1800.00,3000.00,,,,,,,,,,64.40,SBMT 251500Z 13008KT 9999 BKN018 BKN030 18/14 Q1022,
SBMT,2024-05-25 16:00,64.40,57.20,77.45,150.00,7.00,0.00,30.18,,6.21,,BKN,OVC,,,1900.00,3000.00,,,,,,,,,,64.40,SBMT 251600Z 15007KT 9999 BKN019 OVC030 18/14 Q1022,
SBMT,2024-05-25 17:00,64.40,55.40,72.56,130.00,6.00,0.00,30.15,,6.21,,BKN,OVC,,,1700.00,2600.00,,,,,,,,,,64.40,SBMT 251700Z 13006KT 090V180 9999 BKN017 OVC026 18/13 Q1021,
SBMT,2024-05-25 18:00,62.60,55.40,77.29,140.00,6.00,0.00,30.15,,6.21,,BKN,OVC,,,1500.00,1700.00,,,,,,,,,,62.60,SBMT 251800Z 14006KT 100V180 9999 BKN015 OVC017 17/13 Q1021,
SBMT,2024-05-25 19:00,62.60,53.60,72.38,150.00,8.00,0.00,30.15,,6.21,,BKN,OVC,,,1500.00,1700.00,,,,,,,,,,62.60,SBMT 251900Z 15008KT 100V180 9999 BKN015 OVC017 17/12 Q1021,
SBMT,2024-05-25 20:00,60.80,53.60,77.14,140.00,8.00,0.00,30.18,,6.21,,SCT,OVC,,,1300.00,1500.00,,,,,,,,,,60.80,SBMT 252000Z 14008KT 110V180 9999 SCT013 OVC015 16/12 Q1022,
SBMT,2024-05-25 21:00,59.00,53.60,82.25,120.00,8.00,0.00,30.18,,6.21,,SCT,OVC,,,1100.00,1300.00,,,,,,,,,,59.00,SBMT 252100Z 12008KT 090V150 9999 SCT011 OVC013 15/12 Q1022,
SBMT,2024-05-25 22:00,59.00,51.80,76.98,120.00,6.00,0.00,30.21,,3.73,,SCT,OVC,,,1100.00,1300.00,,,-DZ,,,,,,,59.00,SBMT 252200Z 12006KT 6000 -DZ SCT011 OVC013 15/11 Q1023,
SBMT,2024-05-25 23:00,59.00,51.80,76.98,120.00,8.00,0.00,30.21,,6.21,,SCT,OVC,,,1100.00,1300.00,,,,,,,,,,59.00,SBMT 252300Z 12008KT 090V150 9999 SCT011 OVC013 15/11 Q1023,
SBMT,2024-05-26 00:00,59.00,51.80,76.98,130.00,8.00,0.00,30.21,,6.21,,BKN,SCT,,,1100.00,1300.00,,,,,,,,,,59.00,SBMT 260000Z 13008KT 100V170 9999 BKN011 SCT013 15/11 Q1023,
SBMT,2024-05-26 01:00,57.20,51.80,82.12,140.00,7.00,0.00,30.21,,6.21,,BKN,OVC,,,900.00,1100.00,,,,,,,,,,57.20,SBMT 260100Z 14007KT 110V170 9999 BKN009 OVC011 14/11 Q1023,
SBMT,2024-05-26 02:00,59.00,51.80,76.98,120.00,9.00,0.00,30.21,,6.21,,SCT,OVC,,,900.00,1100.00,,,,,,,,,,59.00,SBMT 260200Z 12009KT 100V160 9999 SCT009 OVC011 15/11 Q1023,
SBMT,2024-05-26 09:00,57.20,55.40,93.69,130.00,5.00,0.00,30.18,,4.97,,BKN,BKN,,,900.00,1500.00,,,-DZ,,,,,,,57.20,SBMT 260900Z 13005KT 8000 -DZ BKN009 BKN015 14/13 Q1022,
SBMT,2024-05-26 10:00,57.20,55.40,93.69,120.00,4.00,0.00,30.21,,4.97,,BKN,BKN,,,900.00,1500.00,,,,,,,,,,57.20,SBMT 261000Z 12004KT 8000 BKN009 BKN015 14/13 Q1023,
SBMT,2024-05-26 11:00,57.20,57.20,100.00,120.00,4.00,0.00,30.24,,4.35,,BKN,,,,800.00,,,,,,,,,,,57.20,SBMT 261100Z 12004KT 7000 BKN008 14/14 Q1024,
SBMT,2024-05-26 12:00,59.00,55.40,87.83,140.00,5.00,0.00,30.27,,5.59,,SCT,BKN,,,900.00,1300.00,,,,,,,,,,59.00,SBMT 261200Z 14005KT 9000 SCT009 BKN013 15/13 Q1025,
SBMT,2024-05-26 13:00,59.00,57.20,93.74,120.00,6.00,0.00,30.27,,6.21,,BKN,,,,900.00,,,,,,,,,,,59.00,SBMT 261300Z 12006KT 9999 BKN009 15/14 Q1025,
SBMT,2024-05-26 14:00,59.00,57.20,93.74,140.00,6.00,0.00,30.24,,6.21,,BKN,BKN,,,900.00,1300.00,,,,,,,,,,59.00,SBMT 261400Z 14006KT 9999 BKN009 BKN013 15/14 Q1024,
SBMT,2024-05-26 15:00,59.00,57.20,93.74,110.00,5.00,0.00,30.24,,6.21,,SCT,BKN,,,900.00,1100.00,,,,,,,,,,59.00,SBMT 261500Z 11005KT 9999 SCT009 BKN011 15/14 Q1024,
SBMT,2024-05-26 16:00,60.80,57.20,87.92,120.00,6.00,0.00,30.21,,6.21,,SCT,BKN,BKN,,900.00,1100.00,2100.00,,,,,,,,,60.80,SBMT 261600Z 12006KT 9999 SCT009 BKN011 BKN021 16/14 Q1023,
SBMT,2024-05-26 17:00,60.80,55.40,82.37,130.00,5.00,0.00,30.21,,6.21,,BKN,OVC,,,1100.00,2000.00,,,,,,,,,,60.80,SBMT 261700Z 13005KT 110V170 9999 BKN011 OVC020 16/13 Q1023,
SBMT,2024-05-26 18:00,62.60,55.40,77.29,140.00,7.00,0.00,30.18,,6.21,,FEW,OVC,,,1300.00,1500.00,,,,,,,,,,62.60,SBMT 261800Z 14007KT 110V170 9999 FEW013 OVC015 17/13 Q1022,
SBMT,2024-05-26 19:00,60.80,55.40,82.37,130.00,7.00,0.00,30.18,,3.73,,SCT,OVC,,,900.00,1500.00,,,-DZ,,,,,,,60.80,SBMT 261900Z 13007KT 100V180 6000 -DZ SCT009 OVC015 16/13 Q1022,
SBMT,2024-05-26 20:00,60.80,55.40,82.37,130.00,7.00,0.00,30.18,,3.11,,BKN,OVC,,,900.00,1100.00,,,-DZ,,,,,,,60.80,SBMT 262000Z 13007KT 100V160 5000 -DZ BKN009 OVC011 16/13 Q1022,
SBMT,2024-05-26 21:00,59.00,55.40,87.83,130.00,7.00,0.00,30.21,,1.86,,FEW,OVC,,,800.00,900.00,,,-DZ,,,,,,,59.00,SBMT 262100Z 13007KT 100V170 3000 -DZ FEW008 OVC009 15/13 Q1023,
SBMT,2024-05-26 22:00,59.00,55.40,87.83,110.00,6.00,0.00,30.21,,2.49,,FEW,OVC,,,800.00,900.00,,,-DZ,,,,,,,59.00,SBMT 262200Z 11006KT 070V140 4000 -DZ FEW008 OVC009 15/13 Q1023,
SBMT,2024-05-26 23:00,59.00,55.40,87.83,130.00,6.00,0.00,30.21,,3.73,,BKN,OVC,,,1100.00,1500.00,,,,,,,,,,59.00,SBMT 262300Z 13006KT 100V170 6000 BKN011 OVC015 15/13 Q1023,
SBMT,2024-05-27 00:00,59.00,53.60,82.25,110.00,9.00,0.00,30.24,,6.21,,BKN,OVC,,,1100.00,1500.00,,,,,,,,,,59.00,SBMT 270000Z 11009KT 9999 BKN011 OVC015 15/12 Q1024,
SBMT,2024-05-27 01:00,59.00,53.60,82.25,120.00,6.00,0.00,30.24,,6.21,,BKN,OVC,,,1300.00,1500.00,,,,,,,,,,59.00,SBMT 270100Z 12006KT 080V150 9999 BKN013 OVC015 15/12 Q1024,
SBMT,2024-05-27 02:00,59.00,55.40,87.83,130.00,5.00,0.00,30.24,,6.21,,SCT,OVC,,,900.00,1100.00,,,-RA,,,,,,,59.00,SBMT 270200Z 13005KT 9999 -RA SCT009 OVC011 15/13 Q1024,
SBMT,2024-05-27 09:00,59.00,59.00,100.00,100.00,6.00,0.00,30.15,,1.24,,SCT,BKN,,,700.00,800.00,,,-RA,,,,,,,59.00,SBMT 270900Z 10006KT 080V140 2000 -RA SCT007 BKN008 15/15 Q1021,
SBMT,2024-05-27 10:00,59.00,59.00,100.00,,2.00,0.00,30.21,,0.93,,BKN,OVC,,,700.00,800.00,,,-RA,,,,,,,59.00,SBMT 271000Z VRB02KT 1500 -RA BKN007 OVC008 15/15 Q1023,
SBMT,2024-05-27 11:00,59.00,59.00,100.00,150.00,4.00,0.00,30.18,,1.24,,BKN,BKN,OVC,,600.00,800.00,7000.00,,RA,,,,,,,59.00,SBMT 271100Z 15004KT 100V210 2000 RA BKN006 BKN008 OVC070 15/15 Q1022,
SBMT,2024-05-27 12:00,60.80,57.20,87.92,60.00,8.00,0.00,30.21,,3.73,,SCT,SCT,OVC,,1000.00,5000.00,8000.00,,,,,,,,,60.80,SBMT 271200Z 06008KT 030V100 6000 SCT010 SCT050 OVC080 16/14 Q1023,
SBMT,2024-05-27 13:00,62.60,59.00,88.00,90.00,6.00,0.00,30.18,,6.21,,SCT,BKN,,,1000.00,8000.00,,,,,,,,,,62.60,SBMT 271300Z 09006KT 040V120 9999 SCT010 BKN080 17/15 Q1022,
SBMT,2024-05-27 14:00,64.40,59.00,82.62,80.00,4.00,0.00,30.18,,6.21,,FEW,BKN,,,1000.00,8000.00,,,,,,,,,,64.40,SBMT 271400Z 08004KT 020V160 9999 FEW010 BKN080 18/15 Q1022,
SBMT,2024-05-27 15:00,64.40,59.00,82.62,,2.00,0.00,30.18,,6.21,,,,,,,,,,,,,,,,,64.40,SBMT 271500Z VRB02KT CAVOK 18/15 Q1022,
SBMT,2024-05-27 16:00,66.20,59.00,77.60,60.00,4.00,0.00,30.15,,6.21,,FEW,SCT,BKN,,1000.00,5000.00,8000.00,,,,,,,,,66.20,SBMT 271600Z 06004KT 010V110 9999 FEW010 SCT050 BKN080 19/15 Q1021,
SBMT,2024-05-27 17:00,64.40,60.80,88.09,70.00,5.00,0.00,30.12,,4.35,,SCT,BKN,,,1700.00,8000.00,,,-RA,,,,,,,64.40,SBMT 271700Z 07005KT 7000 -RA SCT017 BKN080 18/16 Q1020,
SBMT,2024-05-27 18:00,66.20,60.80,82.74,80.00,5.00,0.00,30.12,,4.97,,SCT,SCT,BKN,,1000.00,4000.00,8000.00,,,,,,,,,66.20,SBMT 271800Z 08005KT 8000 SCT010 SCT040 BKN080 19/16 Q1020,
SBMT,2024-05-27 19:00,66.20,60.80,82.74,90.00,5.00,0.00,30.12,,4.97,,SCT,SCT,BKN,,1100.00,3000.00,8000.00,,,,,,,,,66.20,SBMT 271900Z 09005KT 8000 SCT011 SCT030 BKN080 19/16 Q1020,
SBMT,2024-05-27 20:00,64.40,60.80,88.09,90.00,4.00,0.00,30.12,,3.73,,BKN,BKN,,,2500.00,8000.00,,,-RA,,,,,,,64.40,SBMT 272000Z 09004KT 6000 -RA BKN025 BKN080 18/16 Q1020,
SBMT,2024-05-27 21:00,64.40,60.80,88.09,80.00,7.00,0.00,30.12,,3.73,,BKN,BKN,,,800.00,1500.00,,,-RA,,,,,,,64.40,SBMT 272100Z 08007KT 6000 -RA BKN008 BKN015 18/16 Q1020,
SBMT,2024-05-27 22:00,62.60,60.80,93.83,100.00,5.00,0.00,30.12,,4.35,,BKN,,,,700.00,,,,,,,,,,,62.60,SBMT 272200Z 10005KT 7000 BKN007 17/16 Q1020,
SBMT,2024-05-27 23:00,62.60,60.80,93.83,80.00,5.00,0.00,30.12,,3.11,,BKN,,,,600.00,,,,BR,,,,,,,62.60,SBMT 272300Z 08005KT 5000 BR BKN006 17/16 Q1020,
SBMT,2024-05-28 00:00,62.60,60.80,93.83,70.00,3.00,0.00,30.12,,3.73,,BKN,,,,600.00,,,,,,,,,,,62.60,SBMT 280000Z 07003KT 6000 BKN006 17/16 Q1020,
SBMT,2024-05-28 01:00,62.60,60.80,93.83,80.00,5.00,0.00,30.12,,3.73,,BKN,,,,500.00,,,,,,,,,,,62.60,SBMT 280100Z 08005KT 6000 BKN005 17/16 Q1020,
SBMT,2024-05-28 02:00,62.60,60.80,93.83,80.00,5.00,0.00,30.12,,3.11,,BKN,,,,400.00,,,,BR,,,,,,,62.60,SBMT 280200Z 08005KT 5000 BR BKN004 17/16 Q1020,
SBMT,2024-05-28 09:00,64.40,62.60,93.88,280.00,6.00,0.00,30.06,,6.21,,SCT,BKN,,,1500.00,2500.00,,,,,,,,,,64.40,SBMT 280900Z 28006KT 9999 SCT015 BKN025 18/17 Q1018,
SBMT,2024-05-28 10:00,64.40,60.80,88.09,290.00,5.00,0.00,30.09,,6.21,,SCT,BKN,,,1600.00,2600.00,,,,,,,,,,64.40,SBMT 281000Z 29005KT 9999 SCT016 BKN026 18/16 Q1019,
SBMT,2024-05-28 11:00,66.20,60.80,82.74,300.00,5.00,0.00,30.12,,6.21,,FEW,BKN,,,1700.00,2300.00,,,,,,,,,,66.20,SBMT 281100Z 30005KT 9999 FEW017 BKN023 19/16 Q1020,
SBMT,2024-05-28 12:00,66.20,60.80,82.74,310.00,5.00,0.00,30.15,,6.21,,BKN,,,,1800.00,,,,,,,,,,,66.20,SBMT 281200Z 31005KT 9999 BKN018 19/16 Q1021,
SBMT,2024-05-28 13:00,66.20,60.80,82.74,290.00,9.00,0.00,30.15,,6.21,,OVC,,,,1900.00,,,,,,,,,,,66.20,SBMT 281300Z 29009KT 9999 OVC019 19/16 Q1021,
SBMT,2024-05-28 14:00,66.20,59.00,77.60,290.00,11.00,0.00,30.12,,6.21,,BKN,BKN,,,1800.00,2100.00,,,,,,,,,,66.20,SBMT 281400Z 29011KT 9999 BKN018 BKN021 19/15 Q1020,
SBMT,2024-05-28 15:00,64.40,59.00,82.62,280.00,13.00,0.00,30.12,,6.21,,BKN,BKN,,,1500.00,1800.00,,,,,,,,,,64.40,SBMT 281500Z 28013KT 9999 BKN015 BKN018 18/15 Q1020,
SBMT,2024-05-28 16:00,68.00,59.00,72.92,300.00,8.00,0.00,30.09,,6.21,,BKN,,,,2000.00,,,,,,,,,,,68.00,SBMT 281600Z 30008KT 9999 BKN020 20/15 Q1019,
SBMT,2024-05-28 17:00,59.00,57.20,93.74,290.00,15.00,0.00,30.06,,6.21,25.00,BKN,,,,2300.00,,,,,,,,,,,59.00,SBMT 281700Z 29015G25KT 260V330 9999 BKN023 15/14 Q1018,
SBMT,2024-05-28 18:00,68.00,57.20,68.35,300.00,11.00,0.00,30.06,,6.21,,BKN,,,,2300.00,,,,,,,,,,,68.00,SBMT 281800Z 30011KT 260V340 9999 BKN023 20/14 Q1018,
SBMT,2024-05-28 21:00,64.40,53.60,67.95,290.00,12.00,0.00,30.09,,6.21,,BKN,,,,2600.00,,,,,,,,,,,64.40,SBMT 282100Z 29012KT 270V330 9999 BKN026 18/12 Q1019,
SBMT,2024-05-28 22:00,64.40,53.60,67.95,280.00,9.00,0.00,30.09,,6.21,,BKN,,,,2300.00,,,,,,,,,,,64.40,SBMT 282200Z 28009KT 260V320 9999 BKN023 18/12 Q1019,
SBMT,2024-05-28 23:00,62.60,53.60,72.38,280.00,12.00,0.00,30.12,,6.21,,BKN,,,,2600.00,,,,,,,,,,,62.60,SBMT 282300Z 28012KT 9999 BKN026 17/12 Q1020,
SBMT,2024-05-29 00:00,60.80,51.80,72.20,280.00,12.00,0.00,30.15,,6.21,,SCT,,,,2000.00,,,,,,,,,,,60.80,SBMT 290000Z 28012KT 9999 SCT020 16/11 Q1021,
SBMT,2024-05-29 01:00,59.00,51.80,76.98,290.00,8.00,0.00,30.15,,6.21,,SCT,,,,1900.00,,,,,,,,,,,59.00,SBMT 290100Z 29008KT 260V330 9999 SCT019 15/11 Q1021,
SBMT,2024-05-29 02:00,59.00,50.00,72.01,280.00,11.00,0.00,30.15,,6.21,,SCT,,,,1900.00,,,,,,,,,,,59.00,SBMT 290200Z 28011KT 9999 SCT019 15/10 Q1021,
SBMT,2024-05-29 09:00,50.00,44.60,81.61,260.00,4.00,0.00,30.15,,6.21,,,,,,,,,,,,,,,,,50.00,SBMT 290900Z 26004KT CAVOK 10/07 Q1021,
SBMT,2024-05-29 10:00,48.20,44.60,87.28,270.00,5.00,0.00,30.18,,6.21,,,,,,,,,,,,,,,,,45.63,SBMT 291000Z 27005KT CAVOK 09/07 Q1022,
SBMT,2024-05-29 11:00,53.60,46.40,76.50,260.00,6.00,0.00,30.21,,6.21,,,,,,,,,,,,,,,,,53.60,SBMT 291100Z 26006KT CAVOK 12/08 Q1023,
SBMT,2024-05-29 12:00,55.40,46.40,71.64,270.00,7.00,0.00,30.21,,6.21,,,,,,,,,,,,,,,,,55.40,SBMT 291200Z 27007KT CAVOK 13/08 Q1023,
SBMT,2024-05-29 13:00,59.00,46.40,62.92,320.00,5.00,0.00,30.21,,6.21,,,,,,,,,,,,,,,,,59.00,SBMT 291300Z 32005KT CAVOK 15/08 Q1023,
SBMT,2024-05-29 14:00,60.80,46.40,59.01,280.00,8.00,0.00,30.21,,6.21,,,,,,,,,,,,,,,,,60.80,SBMT 291400Z 28008KT CAVOK 16/08 Q1023,
SBMT,2024-05-29 15:00,62.60,42.80,48.28,260.00,7.00,0.00,30.21,,6.21,,,,,,,,,,,,,,,,,62.60,SBMT 291500Z 26007KT CAVOK 17/06 Q1023,
SBMT,2024-05-29 16:00,66.20,44.60,45.60,220.00,4.00,0.00,30.18,,6.21,,,,,,,,,,,,,,,,,66.20,SBMT 291600Z 22004KT CAVOK 19/07 Q1022,
SBMT,2024-05-29 17:00,66.20,42.80,42.57,290.00,4.00,0.00,30.15,,6.21,,,,,,,,,,,,,,,,,66.20,SBMT 291700Z 29004KT CAVOK 19/06 Q1021,
SBMT,2024-05-29 18:00,68.00,42.80,40.00,170.00,4.00,0.00,30.15,,6.21,,,,,,,,,,,,,,,,,68.00,SBMT 291800Z 17004KT CAVOK 20/06 Q1021,
SBMT,2024-05-29 19:00,66.20,44.60,45.60,180.00,8.00,0.00,30.15,,6.21,,,,,,,,,,,,,,,,,66.20,SBMT 291900Z 18008KT CAVOK 19/07 Q1021,
SBMT,2024-05-29 20:00,60.80,48.20,63.15,150.00,9.00,0.00,30.18,,6.21,,,,,,,,,,,,,,,,,60.80,SBMT 292000Z 15009KT CAVOK 16/09 Q1022,
SBMT,2024-05-29 21:00,59.00,46.40,62.92,160.00,7.00,0.00,30.21,,6.21,,SCT,,,,2500.00,,,,,,,,,,,59.00,SBMT 292100Z 16007KT 9999 SCT025 15/08 Q1023,
SBMT,2024-05-29 22:00,57.20,48.20,71.83,160.00,7.00,0.00,30.24,,6.21,,BKN,,,,2500.00,,,,,,,,,,,57.20,SBMT 292200Z 16007KT 9999 BKN025 14/09 Q1024,
SBMT,2024-05-29 23:00,55.40,46.40,71.64,150.00,6.00,0.00,30.24,,6.21,,SCT,BKN,,,2000.00,3000.00,,,,,,,,,,55.40,SBMT 292300Z 15006KT 9999 SCT020 BKN030 13/08 Q1024,
SBMT,2024-05-30 00:00,55.40,46.40,71.64,140.00,5.00,0.00,30.24,,6.21,,SCT,,,,3000.00,,,,,,,,,,,55.40,SBMT 300000Z 14005KT 9999 SCT030 13/08 Q1024,
SBMT,2024-05-30 01:00,53.60,46.40,76.50,160.00,4.00,0.00,30.27,,6.21,,SCT,,,,4000.00,,,,,,,,,,,53.60,SBMT 300100Z 16004KT 9999 SCT040 12/08 Q1025,
SBMT,2024-05-30 02:00,53.60,46.40,76.50,160.00,5.00,0.00,30.27,,6.21,,SCT,,,,1500.00,,,,,,,,,,,53.60,SBMT 300200Z 16005KT 9999 SCT015 12/08 Q1025,
SBMT,2024-05-30 09:00,51.80,46.40,81.74,70.00,3.00,0.00,30.24,,6.21,,FEW,,,,1900.00,,,,,,,,,,,51.80,SBMT 300900Z 07003KT 9999 FEW019 11/08 Q1024,
SBMT,2024-05-30 10:00,51.80,46.40,81.74,80.00,3.00,0.00,30.24,,6.21,,FEW,,,,1900.00,,,,,,,,,,,51.80,SBMT 301000Z 08003KT 9999 FEW019 11/08 Q1024,
SBMT,2024-05-30 11:00,53.60,48.20,81.87,90.00,5.00,0.00,30.27,,6.21,,SCT,,,,1800.00,,,,,,,,,,,53.60,SBMT 301100Z 09005KT 050V110 9999 SCT018 12/09 Q1025,
SBMT,2024-05-30 12:00,55.40,48.20,76.66,80.00,6.00,0.00,30.27,,6.21,,SCT,SCT,,,1500.00,2300.00,,,,,,,,,,55.40,SBMT 301200Z 08006KT 9999 SCT015 SCT023 13/09 Q1025,
SBMT,2024-05-30 13:00,57.20,48.20,71.83,130.00,5.00,0.00,30.30,,6.21,,BKN,,,,2600.00,,,,,,,,,,,57.20,SBMT 301300Z 13005KT 080V160 9999 BKN026 14/09 Q1026,
SBMT,2024-05-30 14:00,60.80,46.40,59.01,100.00,6.00,0.00,30.27,,6.21,,BKN,,,,2600.00,,,,,,,,,,,60.80,SBMT 301400Z 10006KT 060V150 9999 BKN026 16/08 Q1025,
SBMT,2024-05-30 15:00,62.60,44.60,51.72,110.00,7.00,0.00,30.27,,6.21,,SCT,,,,3000.00,,,,,,,,,,,62.60,SBMT 301500Z 11007KT 070V150 9999 SCT030 17/07 Q1025,
SBMT,2024-05-30 16:00,62.60,46.40,55.37,110.00,7.00,0.00,30.24,,6.21,,SCT,,,,3300.00,,,,,,,,,,,62.60,SBMT 301600Z 11007KT 080V170 9999 SCT033 17/08 Q1024,
SBMT,2024-05-30 17:00,64.40,46.40,51.98,120.00,6.00,0.00,30.21,,6.21,,FEW,,,,3500.00,,,,,,,,,,,64.40,SBMT 301700Z 12006KT 9999 FEW035 18/08 Q1023,
SBMT,2024-05-30 18:00,64.40,48.20,55.63,120.00,8.00,0.00,30.21,,6.21,,FEW,,,,3500.00,,,,,,,,,,,64.40,SBMT 301800Z 12008KT 9999 FEW035 18/09 Q1023,
SBMT,2024-05-30 19:00,62.60,48.20,59.26,150.00,7.00,0.00,30.21,,6.21,,FEW,,,,3200.00,,,,,,,,,,,62.60,SBMT 301900Z 15007KT 9999 FEW032 17/09 Q1023,
SBMT,2024-05-30 20:00,60.80,48.20,63.15,150.00,7.00,0.00,30.21,,6.21,,FEW,,,,3000.00,,,,,,,,,,,60.80,SBMT 302000Z 15007KT 9999 FEW030 16/09 Q1023,
SBMT,2024-05-30 21:00,59.00,50.00,72.01,140.00,7.00,0.00,30.24,,6.21,,FEW,,,,3300.00,,,,,,,,,,,59.00,SBMT 302100Z 14007KT 9999 FEW033 15/10 Q1024,
SBMT,2024-05-30 22:00,57.20,50.00,76.82,120.00,7.00,0.00,30.27,,6.21,,SCT,,,,1800.00,,,,,,,,,,,57.20,SBMT 302200Z 12007KT 9999 SCT018 14/10 Q1025,
SBMT,2024-05-30 23:00,55.40,50.00,81.99,110.00,8.00,0.00,30.27,,6.21,,FEW,,,,1900.00,,,,,,,,,,,55.40,SBMT 302300Z 11008KT 9999 FEW019 13/10 Q1025,
SBMT,2024-05-31 00:00,55.40,50.00,81.99,140.00,5.00,0.00,30.27,,6.21,,FEW,,,,2600.00,,,,,,,,,,,55.40,SBMT 310000Z 14005KT 9999 FEW026 13/10 Q1025,
SBMT,2024-05-31 01:00,55.40,50.00,81.99,120.00,6.00,0.00,30.27,,6.21,,FEW,,,,3000.00,,,,,,,,,,,55.40,SBMT 310100Z 12006KT 9999 FEW030 13/10 Q1025,
SBMT,2024-05-31 02:00,53.60,48.20,81.87,110.00,5.00,0.00,30.27,,6.21,,,,,,,,,,,,,,,,,53.60,SBMT 310200Z 11005KT CAVOK 12/09 Q1025,
SBMT,2024-05-31 09:00,53.60,51.80,93.60,80.00,5.00,0.00,30.27,,4.97,,BKN,,,,900.00,,,,,,,,,,,53.60,SBMT 310900Z 08005KT 8000 BKN009 12/11 Q1025,
SBMT,2024-05-31 10:00,53.60,50.00,87.56,80.00,5.00,0.00,30.30,,4.97,,BKN,,,,1100.00,,,,,,,,,,,53.60,SBMT 311000Z 08005KT 8000 BKN011 12/10 Q1026,
SBMT,2024-05-31 11:00,53.60,51.80,93.60,80.00,7.00,0.00,30.30,,4.97,,BKN,,,,900.00,,,,,,,,,,,53.60,SBMT 311100Z 08007KT 8000 BKN009 12/11 Q1026,
SBMT,2024-05-31 12:00,55.40,51.80,87.65,100.00,7.00,0.00,30.33,,4.97,,BKN,,,,1300.00,,,,,,,,,,,55.40,SBMT 311200Z 10007KT 8000 BKN013 13/11 Q1027,
SBMT,2024-05-31 13:00,59.00,51.80,76.98,110.00,9.00,0.00,30.33,,6.21,,BKN,,,,1700.00,,,,,,,,,,,59.00,SBMT 311300Z 11009KT 9999 BKN017 15/11 Q1027,
SBMT,2024-05-31 14:00,62.60,51.80,67.75,100.00,8.00,0.00,30.33,,6.21,,SCT,,,,2300.00,,,,,,,,,,,62.60,SBMT 311400Z 10008KT 9999 SCT023 17/11 Q1027,
SBMT,2024-05-31 15:00,64.40,50.00,59.50,80.00,9.00,0.00,30.30,,6.21,,SCT,,,,3000.00,,,,,,,,,,,64.40,SBMT 311500Z 08009KT 9999 SCT030 18/10 Q1026,
SBMT,2024-05-31 16:00,66.20,50.00,55.88,70.00,9.00,0.00,30.27,,6.21,,FEW,,,,3300.00,,,,,,,,,,,66.20,SBMT 311600Z 07009KT 9999 FEW033 19/10 Q1025,
SBMT,2024-05-31 17:00,68.00,50.00,52.51,100.00,7.00,0.00,30.24,,6.21,,SCT,,,,3300.00,,,,,,,,,,,68.00,SBMT 311700Z 10007KT 9999 SCT033 20/10 Q1024,
SBMT,2024-05-31 18:00,68.00,51.80,56.13,100.00,10.00,0.00,30.24,,6.21,,SCT,,,,3300.00,,,,,,,,,,,68.00,SBMT 311800Z 10010KT 9999 SCT033 20/11 Q1024,
SBMT,2024-05-31 19:00,66.20,51.80,59.74,110.00,10.00,0.00,30.21,,6.21,,SCT,,,,3300.00,,,,,,,,,,,66.20,SBMT 311900Z 11010KT 090V160 9999 SCT033 19/11 Q1023,
SBMT,2024-05-31 20:00,64.40,53.60,67.95,120.00,9.00,0.00,30.24,,6.21,,SCT,,,,3300.00,,,,,,,,,,,64.40,SBMT 312000Z 12009KT 090V170 9999 SCT033 18/12 Q1024,
SBMT,2024-05-31 21:00,60.80,53.60,77.14,140.00,9.00,0.00,30.27,,6.21,,SCT,,,,2000.00,,,,,,,,,,,60.80,SBMT 312100Z 14009KT 9999 SCT020 16/12 Q1025,
SBMT,2024-05-31 22:00,59.00,53.60,82.25,130.00,9.00,0.00,30.30,,6.21,,BKN,,,,1500.00,,,,,,,,,,,59.00,SBMT 312200Z 13009KT 9999 BKN015 15/12 Q1026,
SBMT,2024-05-31 23:00,59.00,53.60,82.25,130.00,8.00,0.00,30.30,,6.21,,SCT,SCT,,,1500.00,2000.00,,,,,,,,,,59.00,SBMT 312300Z 13008KT 9999 SCT015 SCT020 15/12 Q1026,
SBMT,2024-06-01 00:00,59.00,53.60,82.25,110.00,7.00,0.00,30.30,,6.21,,FEW,BKN,,,1300.00,1500.00,,,,,,,,,,59.00,SBMT 010000Z 11007KT 070V140 9999 FEW013 BKN015 15/12 Q1026,
SBMT,2024-06-01 01:00,57.20,53.60,87.74,90.00,8.00,0.00,30.30,,6.21,,FEW,SCT,,,1300.00,1500.00,,,,,,,,,,57.20,SBMT 010100Z 09008KT 9999 FEW013 SCT015 14/12 Q1026,
SBMT,2024-06-01 02:00,59.00,53.60,82.25,80.00,8.00,0.00,30.30,,6.21,,SCT,BKN,,,1300.00,1500.00,,,,,,,,,,59.00,SBMT 010200Z 08008KT 9999 SCT013 BKN015 15/12 Q1026,
SBMT,2024-06-01 09:00,57.20,51.80,82.12,80.00,11.00,0.00,30.30,,6.21,,BKN,,,,1500.00,,,,,,,,,,,57.20,SBMT 010900Z 08011KT 9999 BKN015 14/11 Q1026,
SBMT,2024-06-01 10:00,57.20,51.80,82.12,80.00,12.00,0.00,30.30,,6.21,,BKN,,,,1600.00,,,,,,,,,,,57.20,SBMT 011000Z 08012KT 9999 BKN016 14/11 Q1026,
SBMT,2024-06-01 11:00,57.20,51.80,82.12,70.00,9.00,0.00,30.30,,6.21,,BKN,,,,1700.00,,,,,,,,,,,57.20,SBMT 011100Z 07009KT 9999 BKN017 14/11 Q1026,
SBMT,2024-06-01 12:00,60.80,51.80,72.20,80.00,8.00,0.00,30.33,,6.21,,,,,,,,,,,,,,,,,60.80,SBMT 011200Z 08008KT CAVOK 16/11 Q1027,
SBMT,2024-06-01 13:00,62.60,51.80,67.75,70.00,7.00,0.00,30.33,,6.21,,,,,,,,,,,,,,,,,62.60,SBMT 011300Z 07007KT CAVOK 17/11 Q1027,
SBMT,2024-06-01 14:00,64.40,51.80,63.60,80.00,6.00,0.00,30.33,,6.21,,,,,,,,,,,,,,,,,64.40,SBMT 011400Z 08006KT CAVOK 18/11 Q1027,
SBMT,2024-06-01 15:00,68.00,51.80,56.13,60.00,3.00,0.00,30.27,,6.21,,,,,,,,,,,,,,,,,68.00,SBMT 011500Z 06003KT CAVOK 20/11 Q1025,
SBMT,2024-06-01 16:00,69.80,51.80,52.77,150.00,3.00,0.00,30.24,,6.21,,,,,,,,,,,,,,,,,69.80,SBMT 011600Z 15003KT CAVOK 21/11 Q1024,
SBMT,2024-06-01 17:00,73.40,48.20,40.85,330.00,4.00,0.00,30.24,,6.21,,,,,,,,,,,,,,,,,73.40,SBMT 011700Z 33004KT CAVOK 23/09 Q1024,
SBMT,2024-06-01 18:00,75.20,44.60,33.57,0.00,0.00,0.00,30.24,,6.21,,,,,,,,,,,,,,,,,75.20,SBMT 011800Z 00000KT CAVOK 24/07 Q1024,
SBMT,2024-06-01 19:00,75.20,44.60,33.57,300.00,3.00,0.00,30.21,,6.21,,,,,,,,,,,,,,,,,75.20,SBMT 011900Z 30003KT CAVOK 24/07 Q1023,
SBMT,2024-06-01 20:00,71.60,46.40,40.57,270.00,3.00,0.00,30.24,,6.21,,,,,,,,,,,,,,,,,71.60,SBMT 012000Z 27003KT CAVOK 22/08 Q1024,
SBMT,2024-06-01 21:00,62.60,48.20,59.26,0.00,0.00,0.00,30.24,,6.21,,,,,,,,,,,,,,,,,62.60,SBMT 012100Z 00000KT CAVOK 17/09 Q1024,
SBMT,2024-06-01 22:00,66.20,51.80,59.74,100.00,5.00,0.00,30.27,,6.21,,,,,,,,,,,,,,,,,66.20,SBMT 012200Z 10005KT CAVOK 19/11 Q1025,
SBMT,2024-06-01 23:00,62.60,51.80,67.75,90.00,2.00,0.00,30.27,,6.21,,,,,,,,,,,,,,,,,62.60,SBMT 012300Z 09002KT CAVOK 17/11 Q1025,
SBMT,2024-06-02 00:00,62.60,53.60,72.38,100.00,4.00,0.00,30.27,,6.21,,,,,,,,,,,,,,,,,62.60,SBMT 020000Z 10004KT CAVOK 17/12 Q1025,
SBMT,2024-06-02 01:00,57.20,53.60,87.74,0.00,0.00,0.00,30.27,,6.21,,,,,,,,,,,,,,,,,57.20,SBMT 020100Z 00000KT CAVOK 14/12 Q1025,
SBMT,2024-06-02 02:00,55.40,50.00,81.99,130.00,3.00,0.00,30.27,,6.21,,,,,,,,,,,,,,,,,55.40,SBMT 020200Z 13003KT CAVOK 13/10 Q1025,
SBMT,2024-06-02 09:00,51.80,51.80,100.00,90.00,1.00,0.00,30.27,,6.21,,NSC,,,,,,,,MIFG,,,,,,,51.80,SBMT 020900Z 09001KT 9999 MIFG NSC 11/11 Q1025,
SBMT,2024-06-02 10:00,53.60,51.80,93.60,110.00,4.00,0.00,30.27,,4.97,,NSC,,,,,,,,,,,,,,,53.60,SBMT 021000Z 11004KT 8000 NSC 12/11 Q1025,
SBMT,2024-06-02 11:00,55.40,53.60,93.65,90.00,6.00,0.00,30.30,,6.21,,,,,,,,,,,,,,,,,55.40,SBMT 021100Z 09006KT CAVOK 13/12 Q1026,
SBMT,2024-06-02 12:00,59.00,53.60,82.25,100.00,4.00,0.00,30.33,,6.21,,,,,,,,,,,,,,,,,59.00,SBMT 021200Z 10004KT CAVOK 15/12 Q1027,
SBMT,2024-06-02 13:00,66.20,55.40,68.15,80.00,4.00,0.00,30.30,,6.21,,,,,,,,,,,,,,,,,66.20,SBMT 021300Z 08004KT CAVOK 19/13 Q1026,
SBMT,2024-06-02 14:00,66.20,55.40,68.15,100.00,3.00,0.00,30.30,,6.21,,,,,,,,,,,,,,,,,66.20,SBMT 021400Z 10003KT CAVOK 19/13 Q1026,
SBMT,2024-06-02 15:00,68.00,55.40,64.04,100.00,3.00,0.00,30.27,,6.21,,,,,,,,,,,,,,,,,68.00,SBMT 021500Z 10003KT CAVOK 20/13 Q1025,
SBMT,2024-06-02 16:00,71.60,55.40,56.63,0.00,0.00,0.00,30.24,,6.21,,,,,,,,,,,,,,,,,71.60,SBMT 021600Z 00000KT CAVOK 22/13 Q1024,
SBMT,2024-06-02 17:00,73.40,53.60,49.90,70.00,4.00,0.00,30.21,,6.21,,,,,,,,,,,,,,,,,73.40,SBMT 021700Z 07004KT CAVOK 23/12 Q1023,
SBMT,2024-06-02 18:00,75.20,53.60,46.98,,2.00,0.00,30.18,,6.21,,,,,,,,,,,,,,,,,75.20,SBMT 021800Z VRB02KT CAVOK 24/12 Q1022,
SBMT,2024-06-02 19:00,77.00,51.80,41.42,0.00,0.00,0.00,30.18,,6.21,,,,,,,,,,,,,,,,,77.00,SBMT 021900Z 00000KT CAVOK 25/11 Q1022,
SBMT,2024-06-02 20:00,71.60,55.40,56.63,0.00,0.00,0.00,30.18,,6.21,,,,,,,,,,,,,,,,,71.60,SBMT 022000Z 00000KT CAVOK 22/13 Q1022,
SBMT,2024-06-02 21:00,64.40,57.20,77.45,0.00,0.00,0.00,30.21,,6.21,,,,,,,,,,,,,,,,,64.40,SBMT 022100Z 00000KT CAVOK 18/14 Q1023,
SBMT,2024-06-02 22:00,60.80,55.40,82.37,0.00,0.00,0.00,30.24,,6.21,,,,,,,,,,,,,,,,,60.80,SBMT 022200Z 00000KT CAVOK 16/13 Q1024,
SBMT,2024-06-02 23:00,59.00,55.40,87.83,0.00,0.00,0.00,30.24,,6.21,,,,,,,,,,,,,,,,,59.00,SBMT 022300Z 00000KT CAVOK 15/13 Q1024,
SBMT,2024-06-03 00:00,59.00,55.40,87.83,0.00,0.00,0.00,30.24,,6.21,,,,,,,,,,,,,,,,,59.00,SBMT 030000Z 00000KT CAVOK 15/13 Q1024,
SBMT,2024-06-03 01:00,59.00,55.40,87.83,0.00,0.00,0.00,30.24,,6.21,,,,,,,,,,,,,,,,,59.00,SBMT 030100Z 00000KT CAVOK 15/13 Q1024,
SBMT,2024-06-03 02:00,57.20,55.40,93.69,0.00,0.00,0.00,30.27,,6.21,,,,,,,,,,,,,,,,,57.20,SBMT 030200Z 00000KT CAVOK 14/13 Q1025,
SBMT,2024-06-03 09:00,57.20,53.60,87.74,,2.00,0.00,30.27,,6.21,,,,,,,,,,,,,,,,,57.20,SBMT 030900Z VRB02KT CAVOK 14/12 Q1025,
SBMT,2024-06-03 10:00,53.60,53.60,100.00,0.00,0.00,0.00,30.30,,6.21,,,,,,,,,,,,,,,,,53.60,SBMT 031000Z 00000KT CAVOK 12/12 Q1026,
SBMT,2024-06-03 11:00,59.00,55.40,87.83,80.00,3.00,0.00,30.30,,6.21,,,,,,,,,,,,,,,,,59.00,SBMT 031100Z 08003KT CAVOK 15/13 Q1026,
SBMT,2024-06-03 12:00,62.60,55.40,77.29,,2.00,0.00,30.33,,6.21,,,,,,,,,,,,,,,,,62.60,SBMT 031200Z VRB02KT CAVOK 17/13 Q1027,
SBMT,2024-06-03 13:00,64.40,55.40,72.56,80.00,3.00,0.00,30.33,,6.21,,,,,,,,,,,,,,,,,64.40,SBMT 031300Z 08003KT 050V110 CAVOK 18/13 Q1027,
SBMT,2024-06-03 14:00,69.80,55.40,60.21,,2.00,0.00,30.30,,6.21,,,,,,,,,,,,,,,,,69.80,SBMT 031400Z VRB02KT CAVOK 21/13 Q1026,
SBMT,2024-06-03 15:00,75.20,55.40,50.17,320.00,4.00,0.00,30.27,,6.21,,,,,,,,,,,,,,,,,75.20,SBMT 031500Z 32004KT 220V030 CAVOK 24/13 Q1025,
SBMT,2024-06-03 16:00,75.20,53.60,46.98,300.00,8.00,0.00,30.24,,6.21,,,,,,,,,,,,,,,,,75.20,SBMT 031600Z 30008KT 270V340 CAVOK 24/12 Q1024,
SBMT,2024-06-03 17:00,77.00,53.60,44.25,340.00,7.00,0.00,30.21,,6.21,,,,,,,,,,,,,,,,,77.00,SBMT 031700Z 34007KT 270V030 CAVOK 25/12 Q1023,
SBMT,2024-06-03 18:00,75.20,55.40,50.17,320.00,6.00,0.00,30.21,,6.21,,,,,,,,,,,,,,,,,75.20,SBMT 031800Z 32006KT 280V360 CAVOK 24/13 Q1023,
SBMT,2024-06-03 19:00,73.40,57.20,56.88,280.00,9.00,0.00,30.21,,6.21,,SCT,,,,4500.00,,,,,,,,,,,73.40,SBMT 031900Z 28009KT 9999 SCT045 23/14 Q1023,
SBMT,2024-06-03 20:00,71.60,57.20,60.44,290.00,6.00,0.00,30.21,,6.21,,SCT,,,,4500.00,,,,,,,,,,,71.60,SBMT 032000Z 29006KT 9999 SCT045 22/14 Q1023,
SBMT,2024-06-03 21:00,71.60,57.20,60.44,340.00,3.00,0.00,30.21,,6.21,,SCT,,,,4500.00,,,,,,,,,,,71.60,SBMT 032100Z 34003KT 290V010 9999 SCT045 22/14 Q1023,
SBMT,2024-06-03 22:00,66.20,59.00,77.60,280.00,1.00,0.00,30.24,,6.21,,SCT,,,,4500.00,,,,,,,,,,,66.20,SBMT 032200Z 28001KT 9999 SCT045 19/15 Q1024,
SBMT,2024-06-03 23:00,62.60,57.20,82.50,0.00,0.00,0.00,30.24,,6.21,,,,,,,,,,,,,,,,,62.60,SBMT 032300Z 00000KT CAVOK 17/14 Q1024,
SBMT,2024-06-04 00:00,60.80,57.20,87.92,0.00,0.00,0.00,30.24,,6.21,,,,,,,,,,,,,,,,,60.80,SBMT 040000Z 00000KT CAVOK 16/14 Q1024,
SBMT,2024-06-04 01:00,60.80,57.20,87.92,0.00,0.00,0.00,30.24,,6.21,,,,,,,,,,,,,,,,,60.80,SBMT 040100Z 00000KT CAVOK 16/14 Q1024,
SBMT,2024-06-04 02:00,62.60,60.80,93.83,140.00,4.00,0.00,30.27,,6.21,,SCT,,,,1500.00,,,,,,,,,,,62.60,SBMT 040200Z 14004KT 9999 SCT015 17/16 Q1025,
SBMT,2024-06-04 09:00,60.80,57.20,87.92,170.00,6.00,0.00,30.27,,6.21,,FEW,SCT,BKN,,1100.00,1300.00,1500.00,,,,,,,,,60.80,SBMT 040900Z 17006KT 9999 FEW011 SCT013 BKN015 16/14 Q1025,
SBMT,2024-06-04 10:00,60.80,59.00,93.79,180.00,6.00,0.00,30.27,,6.21,,FEW,SCT,BKN,,900.00,1100.00,1500.00,,,,,,,,,60.80,SBMT 041000Z 18006KT 9999 FEW009 SCT011 BKN015 16/15 Q1025,
SBMT,2024-06-04 11:00,60.80,57.20,87.92,170.00,5.00,0.00,30.30,,6.21,,FEW,SCT,BKN,,900.00,1100.00,1500.00,,,,,,,,,60.80,SBMT 041100Z 17005KT 110V220 9999 FEW009 SCT011 BKN015 16/14 Q1026,
SBMT,2024-06-04 12:00,62.60,57.20,82.50,130.00,5.00,0.00,30.33,,6.21,,FEW,BKN,BKN,,900.00,1100.00,1500.00,,,,,,,,,62.60,SBMT 041200Z 13005KT 9999 FEW009 BKN011 BKN015 17/14 Q1027,
SBMT,2024-06-04 13:00,62.60,59.00,88.00,130.00,6.00,0.00,30.33,,6.21,,BKN,BKN,BKN,,1100.00,1300.00,1500.00,,,,,,,,,62.60,SBMT 041300Z 13006KT 050V180 9999 BKN011 BKN013 BKN015 17/15 Q1027,
SBMT,2024-06-04 14:00,64.40,57.20,77.45,150.00,7.00,0.00,30.33,,6.21,,FEW,SCT,BKN,,1100.00,1300.00,1500.00,,,,,,,,,64.40,SBMT 041400Z 15007KT 100V180 9999 FEW011 SCT013 BKN015 18/14 Q1027,
SBMT,2024-06-04 15:00,62.60,57.20,82.50,160.00,9.00,0.00,30.33,,6.21,,BKN,SCT,,,1500.00,2000.00,,,,,,,,,,62.60,SBMT 041500Z 16009KT 130V190 9999 BKN015 SCT020 17/14 Q1027,
SBMT,2024-06-04 16:00,66.20,59.00,77.60,130.00,7.00,0.00,30.30,,6.21,,SCT,BKN,BKN,,1500.00,2000.00,8000.00,,,,,,,,,66.20,SBMT 041600Z 13007KT 9999 SCT015 BKN020 BKN080 19/15 Q1026,
SBMT,2024-06-04 17:00,66.20,57.20,72.74,130.00,10.00,0.00,30.27,,6.21,,FEW,BKN,BKN,,1500.00,2000.00,8000.00,,,,,,,,,66.20,SBMT 041700Z 13010KT 100V180 9999 FEW015 BKN020 BKN080 19/14 Q1025,
SBMT,2024-06-04 18:00,64.40,57.20,77.45,120.00,10.00,0.00,30.27,,6.21,,BKN,BKN,,,2000.00,8000.00,,,,,,,,,,64.40,SBMT 041800Z 12010KT 100V160 9999 BKN020 BKN080 18/14 Q1025,
SBMT,2024-06-04 19:00,62.60,55.40,77.29,120.00,8.00,0.00,30.27,,6.21,,BKN,BKN,,,1800.00,8000.00,,,,,,,,,,62.60,SBMT 041900Z 12008KT 080V180 9999 BKN018 BKN080 17/13 Q1025,
SBMT,2024-06-04 20:00,62.60,55.40,77.29,150.00,8.00,0.00,30.27,,6.21,,FEW,BKN,BKN,,1300.00,1500.00,8000.00,,,,,,,,,62.60,SBMT 042000Z 15008KT 120V180 9999 FEW013 BKN015 BKN080 17/13 Q1025,
SBMT,2024-06-04 21:00,60.80,55.40,82.37,140.00,6.00,0.00,30.30,,6.21,,FEW,BKN,BKN,,1300.00,1500.00,2500.00,,,,,,,,,60.80,SBMT 042100Z 14006KT 100V180 9999 FEW013 BKN015 BKN025 16/13 Q1026,
SBMT,2024-06-04 22:00,60.80,55.40,82.37,130.00,5.00,0.00,30.30,,6.21,,SCT,BKN,BKN,,1300.00,1500.00,2500.00,,,,,,,,,60.80,SBMT 042200Z 13005KT 100V170 9999 SCT013 BKN015 BKN025 16/13 Q1026,
SBMT,2024-06-04 23:00,60.80,55.40,82.37,130.00,9.00,0.00,30.30,,6.21,,SCT,BKN,,,1300.00,1500.00,,,,,,,,,,60.80,SBMT 042300Z 13009KT 110V170 9999 SCT013 BKN015 16/13 Q1026,
SBMT,2024-06-05 00:00,60.80,55.40,82.37,120.00,7.00,0.00,30.33,,6.21,,FEW,BKN,,,1100.00,1300.00,,,,,,,,,,60.80,SBMT 050000Z 12007KT 9999 FEW011 BKN013 16/13 Q1027,
SBMT,2024-06-05 01:00,60.80,57.20,87.92,120.00,6.00,0.00,30.30,,6.21,,BKN,BKN,,,1100.00,1300.00,,,,,,,,,,60.80,SBMT 050100Z 12006KT 090V160 9999 BKN011 BKN013 16/14 Q1026,
SBMT,2024-06-05 02:00,60.80,57.20,87.92,100.00,7.00,0.00,30.30,,6.21,,BKN,BKN,,,1100.00,1300.00,,,,,,,,,,60.80,SBMT 050200Z 10007KT 9999 BKN011 BKN013 16/14 Q1026,
SBMT,2024-06-05 09:00,60.80,57.20,87.92,120.00,5.00,0.00,30.27,,6.21,,SCT,BKN,BKN,,900.00,1100.00,1300.00,,,,,,,,,60.80,SBMT 050900Z 12005KT 9999 SCT009 BKN011 BKN013 16/14 Q1025,
SBMT,2024-06-05 10:00,60.80,57.20,87.92,90.00,6.00,0.00,30.27,,6.21,,FEW,BKN,BKN,,900.00,1100.00,1300.00,,,,,,,,,60.80,SBMT 051000Z 09006KT 9999 FEW009 BKN011 BKN013 16/14 Q1025,
SBMT,2024-06-05 11:00,60.80,57.20,87.92,110.00,9.00,0.00,30.30,,6.21,,SCT,BKN,BKN,,1100.00,1300.00,2500.00,,,,,,,,,60.80,SBMT 051100Z 11009KT 9999 SCT011 BKN013 BKN025 16/14 Q1026,
SBMT,2024-06-05 12:00,62.60,57.20,82.50,90.00,8.00,0.00,30.30,,6.21,,SCT,BKN,,,1300.00,1500.00,,,,,,,,,,62.60,SBMT 051200Z 09008KT 9999 SCT013 BKN015 17/14 Q1026,
SBMT,2024-06-05 13:00,64.40,57.20,77.45,100.00,7.00,0.00,30.33,,6.21,,SCT,BKN,,,1300.00,1500.00,,,,,,,,,,64.40,SBMT 051300Z 10007KT 060V140 9999 SCT013 BKN015 18/14 Q1027,
SBMT,2024-06-05 14:00,66.20,57.20,72.74,100.00,6.00,0.00,30.30,,6.21,,SCT,BKN,,,2000.00,2500.00,,,,,,,,,,66.20,SBMT 051400Z 10006KT 9999 SCT020 BKN025 19/14 Q1026,
SBMT,2024-06-05 15:00,69.80,57.20,64.26,90.00,7.00,0.00,30.27,,6.21,,SCT,SCT,,,2000.00,2500.00,,,,,,,,,,69.80,SBMT 051500Z 09007KT 020V140 9999 SCT020 SCT025 21/14 Q1025,
SBMT,2024-06-05 16:00,71.60,55.40,56.63,60.00,5.00,0.00,30.24,,6.21,,SCT,,,,2500.00,,,,,,,,,,,71.60,SBMT 051600Z 06005KT 9999 SCT025 22/13 Q1024,
SBMT,2024-06-05 17:00,71.60,55.40,56.63,110.00,5.00,0.00,30.21,,6.21,,SCT,,,,3300.00,,,,,,,,,,,71.60,SBMT 051700Z 11005KT 070V200 9999 SCT033 22/13 Q1023,
SBMT,2024-06-05 18:00,73.40,55.40,53.29,110.00,4.00,0.00,30.18,,6.21,,,,,,,,,,,,,,,,,73.40,SBMT 051800Z 11004KT 060V140 CAVOK 23/13 Q1022,
SBMT,2024-06-05 19:00,73.40,53.60,49.90,120.00,5.00,0.00,30.18,,6.21,,,,,,,,,,,,,,,,,73.40,SBMT 051900Z 12005KT 080V180 CAVOK 23/12 Q1022,
SBMT,2024-06-05 20:00,71.60,53.60,53.03,80.00,4.00,0.00,30.18,,6.21,,,,,,,,,,,,,,,,,71.60,SBMT 052000Z 08004KT CAVOK 22/12 Q1022,
SBMT,2024-06-05 21:00,68.00,53.60,59.97,90.00,3.00,0.00,30.18,,6.21,,,,,,,,,,,,,,,,,68.00,SBMT 052100Z 09003KT CAVOK 20/12 Q1022,
SBMT,2024-06-05 22:00,66.20,59.00,77.60,,2.00,0.00,30.21,,6.21,,,,,,,,,,,,,,,,,66.20,SBMT 052200Z VRB02KT CAVOK 19/15 Q1023,
SBMT,2024-06-05 23:00,62.60,55.40,77.29,90.00,3.00,0.00,30.21,,6.21,,,,,,,,,,,,,,,,,62.60,SBMT 052300Z 09003KT CAVOK 17/13 Q1023,
SBMT,2024-06-06 00:00,60.80,55.40,82.37,90.00,3.00,0.00,30.24,,6.21,,,,,,,,,,,,,,,,,60.80,SBMT 060000Z 09003KT CAVOK 16/13 Q1024,
SBMT,2024-06-06 01:00,59.00,55.40,87.83,0.00,0.00,0.00,30.24,,6.21,,,,,,,,,,,,,,,,,59.00,SBMT 060100Z 00000KT CAVOK 15/13 Q1024,
SBMT,2024-06-06 02:00,59.00,55.40,87.83,,1.00,0.00,30.24,,6.21,,,,,,,,,,,,,,,,,59.00,SBMT 060200Z VRB01KT CAVOK 15/13 Q1024,
SBMT,2024-06-06 09:00,57.20,57.20,100.00,50.00,4.00,0.00,30.21,,0.62,,SCT,BKN,,,500.00,700.00,,,BR,,,,,,,57.20,SBMT 060900Z 05004KT 1000 BR SCT005 BKN007 14/14 Q1023,
SBMT,2024-06-06 10:00,57.20,57.20,100.00,70.00,6.00,0.00,30.21,,0.62,,BKN,,,,300.00,,,,BR,,,,,,,57.20,SBMT 061000Z 07006KT 1000 BR BKN003 14/14 Q1023,
SBMT,2024-06-06 11:00,57.20,57.20,100.00,90.00,5.00,0.00,30.24,,0.03,,VV ,,,,300.00,,,,FG,,,,,,,57.20,SBMT 061100Z 09005KT 0050 FG VV003 14/14 Q1024,
SBMT,2024-06-06 12:00,59.00,57.20,93.74,80.00,4.00,0.00,30.27,,0.62,,BKN,,,,4000.00,,,,BR,,,,,,,59.00,SBMT 061200Z 08004KT 1000 BR BKN040 15/14 Q1025,
SBMT,2024-06-06 13:00,62.60,57.20,82.50,40.00,5.00,0.00,30.27,,6.21,,,,,,,,,,,,,,,,,62.60,SBMT 061300Z 04005KT CAVOK 17/14 Q1025,
SBMT,2024-06-06 14:00,66.20,57.20,72.74,90.00,3.00,0.00,30.27,,6.21,,,,,,,,,,,,,,,,,66.20,SBMT 061400Z 09003KT CAVOK 19/14 Q1025,
SBMT,2024-06-06 15:00,71.60,57.20,60.44,50.00,3.00,0.00,30.24,,6.21,,,,,,,,,,,,,,,,,71.60,SBMT 061500Z 05003KT CAVOK 22/14 Q1024,
SBMT,2024-06-06 16:00,75.20,57.20,53.55,90.00,3.00,0.00,30.21,,6.21,,,,,,,,,,,,,,,,,75.20,SBMT 061600Z 09003KT CAVOK 24/14 Q1023,
SBMT,2024-06-06 17:00,75.20,51.80,43.97,,2.00,0.00,30.18,,6.21,,,,,,,,,,,,,,,,,75.20,SBMT 061700Z VRB02KT CAVOK 24/11 Q1022,
SBMT,2024-06-06 18:00,77.00,51.80,41.42,0.00,0.00,0.00,30.18,,6.21,,,,,,,,,,,,,,,,,77.00,SBMT 061800Z 00000KT CAVOK 25/11 Q1022,
SBMT,2024-06-06 19:00,75.20,50.00,41.14,0.00,0.00,0.00,30.18,,6.21,,,,,,,,,,,,,,,,,75.20,SBMT 061900Z 00000KT CAVOK 24/10 Q1022,
SBMT,2024-06-06 20:00,73.40,53.60,49.90,,1.00,0.00,30.18,,6.21,,,,,,,,,,,,,,,,,73.40,SBMT 062000Z VRB01KT CAVOK 23/12 Q1022,
SBMT,2024-06-06 21:00,71.60,50.00,46.43,70.00,5.00,0.00,30.18,,6.21,,,,,,,,,,,,,,,,,71.60,SBMT 062100Z 07005KT CAVOK 22/10 Q1022,
SBMT,2024-06-06 22:00,64.40,53.60,67.95,60.00,1.00,0.00,30.21,,6.21,,,,,,,,,,,,,,,,,64.40,SBMT 062200Z 06001KT CAVOK 18/12 Q1023,
SBMT,2024-06-06 23:00,66.20,55.40,68.15,80.00,3.00,0.00,30.21,,6.21,,,,,,,,,,,,,,,,,66.20,SBMT 062300Z 08003KT CAVOK 19/13 Q1023,
SBMT,2024-06-07 00:00,60.80,55.40,82.37,,1.00,0.00,30.24,,6.21,,,,,,,,,,,,,,,,,60.80,SBMT 070000Z VRB01KT CAVOK 16/13 Q1024,
SBMT,2024-06-07 01:00,60.80,55.40,82.37,0.00,0.00,0.00,30.24,,6.21,,,,,,,,,,,,,,,,,60.80,SBMT 070100Z 00000KT CAVOK 16/13 Q1024,
SBMT,2024-06-07 02:00,59.00,57.20,93.74,90.00,2.00,0.00,30.24,,6.21,,,,,,,,,,,,,,,,,59.00,SBMT 070200Z 09002KT CAVOK 15/14 Q1024,
SBMT,2024-06-07 09:00,53.60,53.60,100.00,130.00,2.00,0.00,30.24,,1.24,,NSC,,,,,,,,BR MIFG,,,,,,,53.60,SBMT 070900Z 13002KT 2000 BR MIFG NSC 12/12 Q1024,
SBMT,2024-06-07 10:00,55.40,55.40,100.00,100.00,4.00,0.00,30.24,,0.62,,NSC,,,,,,,,BR BCFG,,,,,,,55.40,SBMT 071000Z 10004KT 1000 BR BCFG NSC 13/13 Q1024,
SBMT,2024-06-07 11:00,57.20,57.20,100.00,90.00,3.00,0.00,30.27,,0.03,,VV ,,,,300.00,,,,FG,,,,,,,57.20,SBMT 071100Z 09003KT 0050 FG VV003 14/14 Q1025,
SBMT,2024-06-07 12:00,60.80,59.00,93.79,110.00,4.00,0.00,30.30,,1.86,,NSC,,,,,,,,BR,,,,,,,60.80,SBMT 071200Z 11004KT 3000 BR NSC 16/15 Q1026,
SBMT,2024-06-07 13:00,64.40,59.00,82.62,120.00,4.00,0.00,30.30,,3.11,,NSC,,,,,,,,BR,,,,,,,64.40,SBMT 071300Z 12004KT 5000 BR NSC 18/15 Q1026,
SBMT,2024-06-07 14:00,71.60,59.00,64.48,100.00,5.00,0.00,30.30,,6.21,,,,,,,,,,,,,,,,,71.60,SBMT 071400Z 10005KT CAVOK 22/15 Q1026,
SBMT,2024-06-07 15:00,77.00,53.60,44.25,80.00,6.00,0.00,30.27,,6.21,,,,,,,,,,,,,,,,,77.00,SBMT 071500Z 08006KT CAVOK 25/12 Q1025,
SBMT,2024-06-07 16:00,77.00,46.40,33.85,70.00,7.00,0.00,30.24,,6.21,,,,,,,,,,,,,,,,,77.00,SBMT 071600Z 07007KT CAVOK 25/08 Q1024,
SBMT,2024-06-07 17:00,78.80,46.40,31.90,,3.00,0.00,30.21,,6.21,,,,,,,,,,,,,,,,,78.80,SBMT 071700Z VRB03KT CAVOK 26/08 Q1023,
SBMT,2024-06-07 18:00,78.80,46.40,31.90,,5.00,0.00,30.21,,6.21,,,,,,,,,,,,,,,,,78.80,SBMT 071800Z VRB05KT CAVOK 26/08 Q1023,
SBMT,2024-06-07 19:00,77.00,44.60,31.62,90.00,4.00,0.00,30.21,,6.21,,,,,,,,,,,,,,,,,77.00,SBMT 071900Z 09004KT 030V150 CAVOK 25/07 Q1023,
SBMT,2024-06-07 20:00,75.20,46.40,35.94,80.00,5.00,0.00,30.21,,6.21,,,,,,,,,,,,,,,,,75.20,SBMT 072000Z 08005KT CAVOK 24/08 Q1023,
SBMT,2024-06-07 21:00,73.40,48.20,40.85,80.00,4.00,0.00,30.21,,6.21,,,,,,,,,,,,,,,,,73.40,SBMT 072100Z 08004KT CAVOK 23/09 Q1023,
SBMT,2024-06-07 22:00,66.20,50.00,55.88,60.00,3.00,0.00,30.21,,6.21,,,,,,,,,,,,,,,,,66.20,SBMT 072200Z 06003KT CAVOK 19/10 Q1023,
SBMT,2024-06-07 23:00,60.80,51.80,72.20,120.00,2.00,0.00,30.24,,6.21,,,,,,,,,,,,,,,,,60.80,SBMT 072300Z 12002KT CAVOK 16/11 Q1024,
SBMT,2024-06-08 00:00,60.80,53.60,77.14,,2.00,0.00,30.24,,6.21,,,,,,,,,,,,,,,,,60.80,SBMT 080000Z VRB02KT CAVOK 16/12 Q1024,
SBMT,2024-06-08 01:00,60.80,53.60,77.14,120.00,2.00,0.00,30.27,,6.21,,,,,,,,,,,,,,,,,60.80,SBMT 080100Z 12002KT CAVOK 16/12 Q1025,
SBMT,2024-06-08 02:00,59.00,55.40,87.83,,2.00,0.00,30.27,,6.21,,,,,,,,,,,,,,,,,59.00,SBMT 080200Z VRB02KT CAVOK 15/13 Q1025,
SBMT,2024-06-08 09:00,53.60,53.60,100.00,110.00,2.00,0.00,30.24,,3.73,,NSC,,,,,,,,,,,,,,,53.60,SBMT 080900Z 11002KT 6000 NSC 12/12 Q1024,
SBMT,2024-06-08 10:00,53.60,53.60,100.00,120.00,2.00,0.00,30.24,,3.11,,NSC,,,,,,,,BR,,,,,,,53.60,SBMT 081000Z 12002KT 5000 BR NSC 12/12 Q1024,
SBMT,2024-06-08 11:00,60.80,55.40,82.37,110.00,2.00,0.00,30.27,,4.35,,NSC,,,,,,,,,,,,,,,60.80,SBMT 081100Z 11002KT 7000 NSC 16/13 Q1025,
SBMT,2024-06-08 12:00,66.20,57.20,72.74,90.00,3.00,0.00,30.30,,6.21,,,,,,,,,,,,,,,,,66.20,SBMT 081200Z 09003KT CAVOK 19/14 Q1026,
SBMT,2024-06-08 13:00,69.80,55.40,60.21,70.00,5.00,0.00,30.30,,6.21,,,,,,,,,,,,,,,,,69.80,SBMT 081300Z 07005KT CAVOK 21/13 Q1026,
SBMT,2024-06-08 14:00,73.40,53.60,49.90,60.00,6.00,0.00,30.27,,6.21,,,,,,,,,,,,,,,,,73.40,SBMT 081400Z 06006KT CAVOK 23/12 Q1025,
SBMT,2024-06-08 15:00,77.00,53.60,44.25,90.00,7.00,0.00,30.24,,6.21,,,,,,,,,,,,,,,,,77.00,SBMT 081500Z 09007KT CAVOK 25/12 Q1024,
SBMT,2024-06-08 16:00,77.00,51.80,41.42,90.00,5.00,0.00,29.88,,6.21,,,,,,,,,,,,,,,,,77.00,SBMT 081600Z 09005KT CAVOK 25/11 Q1012,
SBMT,2024-06-08 17:00,78.80,53.60,41.69,100.00,3.00,0.00,30.18,,6.21,,,,,,,,,,,,,,,,,78.80,SBMT 081700Z 10003KT 040V170 CAVOK 26/12 Q1022,
SBMT,2024-06-08 18:00,78.80,53.60,41.69,310.00,3.00,0.00,30.18,,6.21,,,,,,,,,,,,,,,,,78.80,SBMT 081800Z 31003KT 190V350 CAVOK 26/12 Q1022,
SBMT,2024-06-08 19:00,78.80,53.60,41.69,120.00,3.00,0.00,30.18,,6.21,,,,,,,,,,,,,,,,,78.80,SBMT 081900Z 12003KT 070V170 CAVOK 26/12 Q1022,
SBMT,2024-06-08 20:00,77.00,53.60,44.25,,2.00,0.00,30.18,,6.21,,,,,,,,,,,,,,,,,77.00,SBMT 082000Z VRB02KT CAVOK 25/12 Q1022,
SBMT,2024-06-08 21:00,73.40,57.20,56.88,160.00,4.00,0.00,30.18,,6.21,,,,,,,,,,,,,,,,,73.40,SBMT 082100Z 16004KT CAVOK 23/14 Q1022,
SBMT,2024-06-08 22:00,69.80,60.80,73.09,140.00,5.00,0.00,30.21,,6.21,,,,,,,,,,,,,,,,,69.80,SBMT 082200Z 14005KT CAVOK 21/16 Q1023,
SBMT,2024-06-08 23:00,69.80,59.00,68.55,80.00,5.00,0.00,30.21,,6.21,,,,,,,,,,,,,,,,,69.80,SBMT 082300Z 08005KT CAVOK 21/15 Q1023,
SBMT,2024-06-09 00:00,66.20,55.40,68.15,80.00,4.00,0.00,30.21,,6.21,,,,,,,,,,,,,,,,,66.20,SBMT 090000Z 08004KT CAVOK 19/13 Q1023,
SBMT,2024-06-09 01:00,62.60,55.40,77.29,,2.00,0.00,30.21,,6.21,,,,,,,,,,,,,,,,,62.60,SBMT 090100Z VRB02KT CAVOK 17/13 Q1023,
SBMT,2024-06-09 02:00,60.80,57.20,87.92,120.00,2.00,0.00,30.24,,6.21,,,,,,,,,,,,,,,,,60.80,SBMT 090200Z 12002KT CAVOK 16/14 Q1024,
SBMT,2024-06-09 09:00,53.60,53.60,100.00,0.00,0.00,0.00,30.18,,6.21,,,,,,,,,,,,,,,,,53.60,SBMT 090900Z 00000KT CAVOK 12/12 Q1022,
SBMT,2024-06-09 10:00,53.60,51.80,93.60,110.00,2.00,0.00,30.18,,6.21,,,,,,,,,,,,,,,,,53.60,SBMT 091000Z 11002KT CAVOK 12/11 Q1022,
SBMT,2024-06-09 11:00,60.80,55.40,82.37,60.00,5.00,0.00,30.21,,6.21,,,,,,,,,,,,,,,,,60.80,SBMT 091100Z 06005KT CAVOK 16/13 Q1023,
SBMT,2024-06-09 12:00,64.40,55.40,72.56,40.00,4.00,0.00,30.21,,6.21,,,,,,,,,,,,,,,,,64.40,SBMT 091200Z 04004KT CAVOK 18/13 Q1023,
SBMT,2024-06-09 13:00,68.00,55.40,64.04,70.00,4.00,0.00,30.21,,6.21,,,,,,,,,,,,,,,,,68.00,SBMT 091300Z 07004KT CAVOK 20/13 Q1023,
SBMT,2024-06-09 14:00,71.60,57.20,60.44,120.00,2.00,0.00,30.21,,6.21,,,,,,,,,,,,,,,,,71.60,SBMT 091400Z 12002KT CAVOK 22/14 Q1023,
SBMT,2024-06-09 15:00,77.00,51.80,41.42,360.00,7.00,0.00,30.18,,6.21,,,,,,,,,,,,,,,,,77.00,SBMT 091500Z 36007KT CAVOK 25/11 Q1022,
SBMT,2024-06-09 16:00,78.80,51.80,39.02,340.00,6.00,0.00,30.15,,6.21,,,,,,,,,,,,,,,,,78.80,SBMT 091600Z 34006KT CAVOK 26/11 Q1021,
SBMT,2024-06-09 17:00,80.60,53.60,39.30,320.00,5.00,0.00,30.12,,6.21,,,,,,,,,,,,,,,,,80.29,SBMT 091700Z 32005KT CAVOK 27/12 Q1020,
SBMT,2024-06-09 18:00,80.60,53.60,39.30,330.00,6.00,0.00,30.09,,6.21,,,,,,,,,,,,,,,,,80.29,SBMT 091800Z 33006KT CAVOK 27/12 Q1019,
SBMT,2024-06-09 19:00,78.80,53.60,41.69,,2.00,0.00,30.09,,6.21,,,,,,,,,,,,,,,,,78.80,SBMT 091900Z VRB02KT CAVOK 26/12 Q1019,
SBMT,2024-06-09 20:00,77.00,51.80,41.42,300.00,4.00,0.00,30.09,,6.21,,,,,,,,,,,,,,,,,77.00,SBMT 092000Z 30004KT 260V340 CAVOK 25/11 Q1019,
SBMT,2024-06-09 21:00,71.60,53.60,53.03,330.00,3.00,0.00,30.09,,6.21,,,,,,,,,,,,,,,,,71.60,SBMT 092100Z 33003KT CAVOK 22/12 Q1019,
SBMT,2024-06-09 22:00,69.80,53.60,56.38,330.00,2.00,0.00,30.12,,6.21,,,,,,,,,,,,,,,,,69.80,SBMT 092200Z 33002KT CAVOK 21/12 Q1020,
SBMT,2024-06-09 23:00,64.40,55.40,72.56,350.00,3.00,0.00,30.12,,6.21,,,,,,,,,,,,,,,,,64.40,SBMT 092300Z 35003KT CAVOK 18/13 Q1020,
SBMT,2024-06-10 00:00,60.80,53.60,77.14,0.00,0.00,0.00,30.12,,6.21,,,,,,,,,,,,,,,,,60.80,SBMT 100000Z 00000KT CAVOK 16/12 Q1020,
SBMT,2024-06-10 01:00,59.00,55.40,87.83,0.00,0.00,0.00,30.12,,6.21,,,,,,,,,,,,,,,,,59.00,SBMT 100100Z 00000KT CAVOK 15/13 Q1020,
SBMT,2024-06-10 02:00,60.80,55.40,82.37,,2.00,0.00,30.12,,6.21,,,,,,,,,,,,,,,,,60.80,SBMT 100200Z VRB02KT CAVOK 16/13 Q1020,
SBMT,2024-06-10 09:00,68.00,51.80,56.13,330.00,6.00,0.00,30.12,,6.21,,,,,,,,,,,,,,,,,68.00,SBMT 100900Z 33006KT 290V010 CAVOK 20/11 Q1020,
SBMT,2024-06-10 10:00,68.00,51.80,56.13,340.00,6.00,0.00,30.12,,6.21,,,,,,,,,,,,,,,,,68.00,SBMT 101000Z 34006KT 260V020 CAVOK 20/11 Q1020,
SBMT,2024-06-10 11:00,68.00,51.80,56.13,340.00,5.00,0.00,30.15,,6.21,,,,,,,,,,,,,,,,,68.00,SBMT 101100Z 34005KT 290V030 CAVOK 20/11 Q1021,
SBMT,2024-06-10 12:00,69.80,51.80,52.77,350.00,8.00,0.00,30.18,,6.21,,,,,,,,,,,,,,,,,69.80,SBMT 101200Z 35008KT 300V020 CAVOK 21/11 Q1022,
SBMT,2024-06-10 13:00,73.40,53.60,49.90,350.00,6.00,0.00,30.21,,6.21,,,,,,,,,,,,,,,,,73.40,SBMT 101300Z 35006KT 310V040 CAVOK 23/12 Q1023,
SBMT,2024-06-10 14:00,75.20,53.60,46.98,320.00,8.00,0.00,30.18,,6.21,,,,,,,,,,,,,,,,,75.20,SBMT 101400Z 32008KT 280V010 CAVOK 24/12 Q1022,
SBMT,2024-06-10 15:00,78.80,53.60,41.69,300.00,9.00,0.00,30.18,,6.21,,,,,,,,,,,,,,,,,78.80,SBMT 101500Z 30009KT 260V350 CAVOK 26/12 Q1022,
SBMT,2024-06-10 16:00,78.80,53.60,41.69,330.00,8.00,0.00,30.15,,6.21,,,,,,,,,,,,,,,,,78.80,SBMT 101600Z 33008KT 290V360 CAVOK 26/12 Q1021,
SBMT,2024-06-10 17:00,78.80,53.60,41.69,300.00,7.00,0.00,30.12,,6.21,,,,,,,,,,,,,,,,,78.80,SBMT 101700Z 30007KT CAVOK 26/12 Q1020,
SBMT,2024-06-10 18:00,80.60,50.00,34.41,280.00,4.00,0.00,30.12,,6.21,,,,,,,,,,,,,,,,,79.88,SBMT 101800Z 28004KT CAVOK 27/10 Q1020,
SBMT,2024-06-10 19:00,80.60,51.80,36.79,270.00,2.00,0.00,30.12,,6.21,,,,,,,,,,,,,,,,,80.08,SBMT 101900Z 27002KT CAVOK 27/11 Q1020,
SBMT,2024-06-10 20:00,77.00,53.60,44.25,280.00,4.00,0.00,30.12,,6.21,,,,,,,,,,,,,,,,,77.00,SBMT 102000Z 28004KT CAVOK 25/12 Q1020,
SBMT,2024-06-10 21:00,69.80,53.60,56.38,0.00,0.00,0.00,30.15,,6.21,,,,,,,,,,,,,,,,,69.80,SBMT 102100Z 00000KT CAVOK 21/12 Q1021,
SBMT,2024-06-10 22:00,69.80,53.60,56.38,360.00,4.00,0.00,30.15,,6.21,,,,,,,,,,,,,,,,,69.80,SBMT 102200Z 36004KT CAVOK 21/12 Q1021,
SBMT,2024-06-10 23:00,64.40,53.60,67.95,190.00,2.00,0.00,30.15,,6.21,,,,,,,,,,,,,,,,,64.40,SBMT 102300Z 19002KT CAVOK 18/12 Q1021,
SBMT,2024-06-11 00:00,62.60,53.60,72.38,0.00,0.00,0.00,30.18,,6.21,,,,,,,,,,,,,,,,,62.60,SBMT 110000Z 00000KT CAVOK 17/12 Q1022,
SBMT,2024-06-11 01:00,60.80,53.60,77.14,0.00,0.00,0.00,30.18,,6.21,,,,,,,,,,,,,,,,,60.80,SBMT 110100Z 00000KT CAVOK 16/12 Q1022,
SBMT,2024-06-11 02:00,59.00,51.80,76.98,0.00,0.00,0.00,30.18,,6.21,,,,,,,,,,,,,,,,,59.00,SBMT 110200Z 00000KT CAVOK 15/11 Q1022,
SBMT,2024-06-11 09:00,53.60,51.80,93.60,0.00,0.00,0.00,30.18,,6.21,,,,,,,,,,,,,,,,,53.60,SBMT 110900Z 00000KT CAVOK 12/11 Q1022,
SBMT,2024-06-11 10:00,53.60,51.80,93.60,110.00,1.00,0.00,30.21,,6.21,,,,,,,,,,,,,,,,,53.60,SBMT 111000Z 11001KT CAVOK 12/11 Q1023,
SBMT,2024-06-11 11:00,60.80,57.20,87.92,100.00,2.00,0.00,30.21,,6.21,,,,,,,,,,,,,,,,,60.80,SBMT 111100Z 10002KT CAVOK 16/14 Q1023,
SBMT,2024-06-11 12:00,66.20,55.40,68.15,200.00,1.00,0.00,30.24,,6.21,,,,,,,,,,,,,,,,,66.20,SBMT 111200Z 20001KT CAVOK 19/13 Q1024,
SBMT,2024-06-11 13:00,71.60,55.40,56.63,20.00,1.00,0.00,30.24,,6.21,,,,,,,,,,,,,,,,,71.60,SBMT 111300Z 02001KT CAVOK 22/13 Q1024,
SBMT,2024-06-11 14:00,75.20,55.40,50.17,50.00,3.00,0.00,30.24,,6.21,,,,,,,,,,,,,,,,,75.20,SBMT 111400Z 05003KT CAVOK 24/13 Q1024,
SBMT,2024-06-11 15:00,77.00,53.60,44.25,110.00,7.00,0.00,30.21,,6.21,,,,,,,,,,,,,,,,,77.00,SBMT 111500Z 11007KT CAVOK 25/12 Q1023,
SBMT,2024-06-11 16:00,77.00,53.60,44.25,100.00,5.00,0.00,30.18,,6.21,,,,,,,,,,,,,,,,,77.00,SBMT 111600Z 10005KT CAVOK 25/12 Q1022,
SBMT,2024-06-11 17:00,78.80,55.40,44.52,90.00,6.00,0.00,30.18,,6.21,,,,,,,,,,,,,,,,,78.80,SBMT 111700Z 09006KT CAVOK 26/13 Q1022,
SBMT,2024-06-11 18:00,78.80,53.60,41.69,110.00,5.00,0.00,30.15,,6.21,,,,,,,,,,,,,,,,,78.80,SBMT 111800Z 11005KT CAVOK 26/12 Q1021,
SBMT,2024-06-11 19:00,78.80,51.80,39.02,90.00,3.00,0.00,30.15,,6.21,,,,,,,,,,,,,,,,,78.80,SBMT 111900Z 09003KT CAVOK 26/11 Q1021,
SBMT,2024-06-11 20:00,75.20,57.20,53.55,140.00,9.00,0.00,30.18,,6.21,,,,,,,,,,,,,,,,,75.20,SBMT 112000Z 14009KT CAVOK 24/14 Q1022,
SBMT,2024-06-11 21:00,69.80,57.20,64.26,120.00,9.00,0.00,30.21,,6.21,,,,,,,,,,,,,,,,,69.80,SBMT 112100Z 12009KT CAVOK 21/14 Q1023,
SBMT,2024-06-11 22:00,68.00,59.00,72.92,140.00,5.00,0.00,30.21,,6.21,,,,,,,,,,,,,,,,,68.00,SBMT 112200Z 14005KT CAVOK 20/15 Q1023,
SBMT,2024-06-11 23:00,66.20,59.00,77.60,130.00,4.00,0.00,30.21,,6.21,,,,,,,,,,,,,,,,,66.20,SBMT 112300Z 13004KT CAVOK 19/15 Q1023,
SBMT,2024-06-12 00:00,62.60,59.00,88.00,120.00,2.00,0.00,30.24,,6.21,,,,,,,,,,,,,,,,,62.60,SBMT 120000Z 12002KT CAVOK 17/15 Q1024,
SBMT,2024-06-12 01:00,60.80,59.00,93.79,0.00,0.00,0.00,30.24,,6.21,,,,,,,,,,,,,,,,,60.80,SBMT 120100Z 00000KT CAVOK 16/15 Q1024,
SBMT,2024-06-12 02:00,60.80,59.00,93.79,0.00,0.00,0.00,30.24,,6.21,,,,,,,,,,,,,,,,,60.80,SBMT 120200Z 00000KT CAVOK 16/15 Q1024,
SBMT,2024-06-12 09:00,55.40,55.40,100.00,0.00,0.00,0.00,30.18,,1.86,,NSC,,,,,,,,BR MIFG,,,,,,,55.40,SBMT 120900Z 00000KT 3000 BR MIFG NSC 13/13 Q1022,
SBMT,2024-06-12 10:00,55.40,53.60,93.65,0.00,0.00,0.00,30.18,,2.49,,NSC,,,,,,,,BR MIFG,,,,,,,55.40,COR SBMT 121000Z 00000KT 4000 BR MIFG NSC 13/12 Q1022,
SBMT,2024-06-12 11:00,60.80,55.40,82.37,100.00,3.00,0.00,30.21,,6.21,,,,,,,,,,,,,,,,,60.80,SBMT 121100Z 10003KT CAVOK 16/13 Q1023,
SBMT,2024-06-12 12:00,66.20,57.20,72.74,80.00,5.00,0.00,30.03,,6.21,,,,,,,,,,,,,,,,,66.20,SBMT 121200Z 08005KT CAVOK 19/14 Q1017,
SBMT,2024-06-12 13:00,71.60,55.40,56.63,90.00,7.00,0.00,30.21,,6.21,,,,,,,,,,,,,,,,,71.60,SBMT 121300Z 09007KT CAVOK 22/13 Q1023,
SBMT,2024-06-12 14:00,75.20,57.20,53.55,80.00,4.00,0.00,30.21,,6.21,,,,,,,,,,,,,,,,,75.20,SBMT 121400Z 08004KT CAVOK 24/14 Q1023,
SBMT,2024-06-12 15:00,77.00,57.20,50.43,40.00,4.00,0.00,30.18,,6.21,,,,,,,,,,,,,,,,,77.00,SBMT 121500Z 04004KT CAVOK 25/14 Q1022,
SBMT,2024-06-12 16:00,78.80,48.20,34.13,40.00,5.00,0.00,30.15,,6.21,,,,,,,,,,,,,,,,,78.80,SBMT 121600Z 04005KT CAVOK 26/09 Q1021,
SBMT,2024-06-12 17:00,80.60,48.20,32.18,10.00,5.00,0.00,30.15,,6.21,,,,,,,,,,,,,,,,,79.71,SBMT 121700Z 01005KT CAVOK 27/09 Q1021,
SBMT,2024-06-12 18:00,80.60,48.20,32.18,310.00,5.00,0.00,30.12,,6.21,,,,,,,,,,,,,,,,,79.71,SBMT 121800Z 31005KT CAVOK 27/09 Q1020,
SBMT,2024-06-12 19:00,80.60,46.40,30.07,330.00,4.00,0.00,30.12,,6.21,,,,,,,,,,,,,,,,,79.56,SBMT 121900Z 33004KT CAVOK 27/08 Q1020,
SBMT,2024-06-12 20:00,78.80,46.40,31.90,360.00,2.00,0.00,30.12,,6.21,,,,,,,,,,,,,,,,,78.80,SBMT 122000Z 36002KT CAVOK 26/08 Q1020,
SBMT,2024-06-12 21:00,68.00,50.00,52.51,0.00,0.00,0.00,30.15,,6.21,,,,,,,,,,,,,,,,,68.00,SBMT 122100Z 00000KT CAVOK 20/10 Q1021,
SBMT,2024-06-12 22:00,69.80,60.80,73.09,150.00,5.00,0.00,30.15,,6.21,,,,,,,,,,,,,,,,,69.80,SBMT 122200Z 15005KT CAVOK 21/16 Q1021,
SBMT,2024-06-12 23:00,66.20,60.80,82.74,170.00,2.00,0.00,30.18,,6.21,,,,,,,,,,,,,,,,,66.20,SBMT 122300Z 17002KT CAVOK 19/16 Q1022,
SBMT,2024-06-13 00:00,62.60,60.80,93.83,100.00,1.00,0.00,30.18,,6.21,,,,,,,,,,,,,,,,,62.60,SBMT 130000Z 10001KT CAVOK 17/16 Q1022,
SBMT,2024-06-13 01:00,66.20,57.20,72.74,90.00,4.00,0.00,30.18,,6.21,,,,,,,,,,,,,,,,,66.20,SBMT 130100Z 09004KT CAVOK 19/14 Q1022,
SBMT,2024-06-13 02:00,62.60,57.20,82.50,0.00,0.00,0.00,30.18,,6.21,,,,,,,,,,,,,,,,,62.60,SBMT 130200Z 00000KT CAVOK 17/14 Q1022,
SBMT,2024-06-13 09:00,57.20,51.80,82.12,100.00,4.00,0.00,30.15,,6.21,,,,,,,,,,,,,,,,,57.20,SBMT 130900Z 10004KT CAVOK 14/11 Q1021,
SBMT,2024-06-13 10:00,59.00,53.60,82.25,100.00,4.00,0.00,30.15,,6.21,,,,,,,,,,,,,,,,,59.00,SBMT 131000Z 10004KT CAVOK 15/12 Q1021,
SBMT,2024-06-13 11:00,60.80,53.60,77.14,110.00,4.00,0.00,30.18,,6.21,,,,,,,,,,,,,,,,,60.80,SBMT 131100Z 11004KT CAVOK 16/12 Q1022,
SBMT,2024-06-13 12:00,64.40,55.40,72.56,140.00,2.00,0.00,30.21,,6.21,,,,,,,,,,,,,,,,,64.40,SBMT 131200Z 14002KT CAVOK 18/13 Q1023,
SBMT,2024-06-13 13:00,69.80,51.80,52.77,60.00,2.00,0.00,30.21,,6.21,,,,,,,,,,,,,,,,,69.80,SBMT 131300Z 06002KT CAVOK 21/11 Q1023,
SBMT,2024-06-13 14:00,75.20,50.00,41.14,360.00,5.00,0.00,30.18,,6.21,,,,,,,,,,,,,,,,,75.20,SBMT 131400Z 36005KT CAVOK 24/10 Q1022,
SBMT,2024-06-13 15:00,75.20,48.20,38.46,340.00,8.00,0.00,30.15,,6.21,,,,,,,,,,,,,,,,,75.20,SBMT 131500Z 34008KT CAVOK 24/09 Q1021,
SBMT,2024-06-13 16:00,77.00,48.20,36.22,330.00,8.00,0.00,30.15,,6.21,,,,,,,,,,,,,,,,,77.00,SBMT 131600Z 33008KT CAVOK 25/09 Q1021,
SBMT,2024-06-13 17:00,78.80,50.00,36.51,320.00,7.00,0.00,30.12,,6.21,,,,,,,,,,,,,,,,,78.80,SBMT 131700Z 32007KT CAVOK 26/10 Q1020,
SBMT,2024-06-13 18:00,78.80,46.40,31.90,330.00,7.00,0.00,30.09,,6.21,,,,,,,,,,,,,,,,,78.80,SBMT 131800Z 33007KT CAVOK 26/08 Q1019,
SBMT,2024-06-13 19:00,78.80,46.40,31.90,330.00,8.00,0.00,30.09,,6.21,,,,,,,,,,,,,,,,,78.80,SBMT 131900Z 33008KT CAVOK 26/08 Q1019,
SBMT,2024-06-13 20:00,77.00,46.40,33.85,330.00,3.00,0.00,30.09,,6.21,,,,,,,,,,,,,,,,,77.00,SBMT 132000Z 33003KT CAVOK 25/08 Q1019,
SBMT,2024-06-13 21:00,69.80,48.20,46.16,0.00,0.00,0.00,30.09,,6.21,,,,,,,,,,,,,,,,,69.80,SBMT 132100Z 00000KT CAVOK 21/09 Q1019,
SBMT,2024-06-13 22:00,66.20,50.00,55.88,0.00,0.00,0.00,30.12,,6.21,,,,,,,,,,,,,,,,,66.20,SBMT 132200Z 00000KT CAVOK 19/10 Q1020,
SBMT,2024-06-13 23:00,68.00,50.00,52.51,360.00,3.00,0.00,30.15,,6.21,,,,,,,,,,,,,,,,,68.00,SBMT 132300Z 36003KT CAVOK 20/10 Q1021,
SBMT,2024-06-14 00:00,62.60,51.80,67.75,0.00,0.00,0.00,30.15,,6.21,,,,,,,,,,,,,,,,,62.60,SBMT 140000Z 00000KT CAVOK 17/11 Q1021,
SBMT,2024-06-14 01:00,59.00,51.80,76.98,0.00,0.00,0.00,30.15,,6.21,,,,,,,,,,,,,,,,,59.00,SBMT 140100Z 00000KT CAVOK 15/11 Q1021,
SBMT,2024-06-14 02:00,57.20,51.80,82.12,0.00,0.00,0.00,30.15,,6.21,,,,,,,,,,,,,,,,,57.20,SBMT 140200Z 00000KT CAVOK 14/11 Q1021,
SBMT,2024-06-14 09:00,66.20,44.60,45.60,50.00,3.00,0.00,30.12,,6.21,,,,,,,,,,,,,,,,,66.20,SBMT 140900Z 05003KT CAVOK 19/07 Q1020,
SBMT,2024-06-14 10:00,62.60,44.60,51.72,100.00,2.00,0.00,30.15,,6.21,,,,,,,,,,,,,,,,,62.60,SBMT 141000Z 10002KT CAVOK 17/07 Q1021,
SBMT,2024-06-14 11:00,68.00,46.40,45.88,0.00,0.00,0.00,30.18,,6.21,,,,,,,,,,,,,,,,,68.00,SBMT 141100Z 00000KT CAVOK 20/08 Q1022,
SBMT,2024-06-14 12:00,73.40,44.60,35.66,10.00,7.00,0.00,30.18,,6.21,,,,,,,,,,,,,,,,,73.40,SBMT 141200Z 01007KT CAVOK 23/07 Q1022,
SBMT,2024-06-14 13:00,73.40,46.40,38.18,350.00,7.00,0.00,30.21,,6.21,,,,,,,,,,,,,,,,,73.40,SBMT 141300Z 35007KT CAVOK 23/08 Q1023,
SBMT,2024-06-14 14:00,75.20,48.20,38.46,360.00,7.00,0.00,30.18,,6.21,,,,,,,,,,,,,,,,,75.20,SBMT 141400Z 36007KT CAVOK 24/09 Q1022,
SBMT,2024-06-14 15:00,77.00,50.00,38.74,350.00,8.00,0.00,30.18,,6.21,,,,,,,,,,,,,,,,,77.00,SBMT 141500Z 35008KT CAVOK 25/10 Q1022,
SBMT,2024-06-14 16:00,77.00,50.00,38.74,350.00,10.00,0.00,30.15,,6.21,,,,,,,,,,,,,,,,,77.00,SBMT 141600Z 35010KT CAVOK 25/10 Q1021,
SBMT,2024-06-14 17:00,78.80,50.00,36.51,300.00,6.00,0.00,30.12,,6.21,,,,,,,,,,,,,,,,,78.80,SBMT 141700Z 30006KT CAVOK 26/10 Q1020,
SBMT,2024-06-14 18:00,78.80,48.20,34.13,10.00,6.00,0.00,30.12,,6.21,,,,,,,,,,,,,,,,,78.80,SBMT 141800Z 01006KT CAVOK 26/09 Q1020,
SBMT,2024-06-14 19:00,78.80,46.40,31.90,10.00,5.00,0.00,30.09,,6.21,,,,,,,,,,,,,,,,,78.80,SBMT 141900Z 01005KT CAVOK 26/08 Q1019,
SBMT,2024-06-14 20:00,77.00,46.40,33.85,350.00,4.00,0.00,30.12,,6.21,,,,,,,,,,,,,,,,,77.00,SBMT 142000Z 35004KT CAVOK 25/08 Q1020,
SBMT,2024-06-14 21:00,71.60,48.20,43.42,340.00,2.00,0.00,30.12,,6.21,,,,,,,,,,,,,,,,,71.60,SBMT 142100Z 34002KT CAVOK 22/09 Q1020,
SBMT,2024-06-14 22:00,68.00,50.00,52.51,60.00,3.00,0.00,30.12,,6.21,,,,,,,,,,,,,,,,,68.00,SBMT 142200Z 06003KT CAVOK 20/10 Q1020,
SBMT,2024-06-14 23:00,64.40,51.80,63.60,50.00,2.00,0.00,30.15,,6.21,,,,,,,,,,,,,,,,,64.40,SBMT 142300Z 05002KT CAVOK 18/11 Q1021,
SBMT,2024-06-15 00:00,60.80,51.80,72.20,0.00,0.00,0.00,30.18,,6.21,,,,,,,,,,,,,,,,,60.80,SBMT 150000Z 00000KT CAVOK 16/11 Q1022,
SBMT,2024-06-15 01:00,60.80,51.80,72.20,0.00,0.00,0.00,30.18,,6.21,,,,,,,,,,,,,,,,,60.80,SBMT 150100Z 00000KT CAVOK 16/11 Q1022,
SBMT,2024-06-15 02:00,60.80,51.80,72.20,0.00,0.00,0.00,30.18,,6.21,,,,,,,,,,,,,,,,,60.80,SBMT 150200Z 00000KT CAVOK 16/11 Q1022,
SBMT,2024-06-15 09:00,55.40,51.80,87.65,0.00,0.00,0.00,30.18,,6.21,,,,,,,,,,,,,,,,,55.40,SBMT 150900Z 00000KT CAVOK 13/11 Q1022,
SBMT,2024-06-15 10:00,55.40,51.80,87.65,100.00,3.00,0.00,30.21,,6.21,,,,,,,,,,,,,,,,,55.40,SBMT 151000Z 10003KT CAVOK 13/11 Q1023,
SBMT,2024-06-15 11:00,62.60,53.60,72.38,120.00,2.00,0.00,30.24,,6.21,,,,,,,,,,,,,,,,,62.60,SBMT 151100Z 12002KT CAVOK 17/12 Q1024,
SBMT,2024-06-15 12:00,68.00,53.60,59.97,,2.00,0.00,30.24,,6.21,,,,,,,,,,,,,,,,,68.00,SBMT 151200Z VRB02KT CAVOK 20/12 Q1024,
SBMT,2024-06-15 13:00,73.40,53.60,49.90,,2.00,0.00,30.24,,6.21,,,,,,,,,,,,,,,,,73.40,SBMT 151300Z VRB02KT CAVOK 23/12 Q1024,
SBMT,2024-06-15 14:00,77.00,53.60,44.25,360.00,7.00,0.00,30.21,,6.21,,,,,,,,,,,,,,,,,77.00,SBMT 151400Z 36007KT 310V050 CAVOK 25/12 Q1023,
SBMT,2024-06-15 15:00,78.80,55.40,44.52,340.00,10.00,0.00,30.21,,6.21,,,,,,,,,,,,,,,,,78.80,SBMT 151500Z 34010KT 290V020 CAVOK 26/13 Q1023,
SBMT,2024-06-15 16:00,78.80,55.40,44.52,280.00,12.00,0.00,30.18,,6.21,,,,,,,,,,,,,,,,,78.80,SBMT 151600Z 28012KT 250V340 CAVOK 26/13 Q1022,
SBMT,2024-06-15 17:00,80.60,51.80,36.79,300.00,10.00,0.00,30.15,,6.21,,,,,,,,,,,,,,,,,80.08,SBMT 151700Z 30010KT CAVOK 27/11 Q1021,
SBMT,2024-06-15 18:00,80.60,51.80,36.79,330.00,7.00,0.00,30.15,,6.21,,,,,,,,,,,,,,,,,80.08,SBMT 151800Z 33007KT CAVOK 27/11 Q1021,
SBMT,2024-06-15 19:00,80.60,51.80,36.79,320.00,7.00,0.00,30.15,,6.21,,,,,,,,,,,,,,,,,80.08,SBMT 151900Z 32007KT CAVOK 27/11 Q1021,
SBMT,2024-06-15 20:00,78.80,50.00,36.51,310.00,6.00,0.00,30.15,,6.21,,,,,,,,,,,,,,,,,78.80,SBMT 152000Z 31006KT CAVOK 26/10 Q1021,
SBMT,2024-06-15 21:00,73.40,51.80,46.71,350.00,2.00,0.00,30.15,,6.21,,,,,,,,,,,,,,,,,73.40,SBMT 152100Z 35002KT CAVOK 23/11 Q1021,
SBMT,2024-06-15 22:00,71.60,51.80,49.64,350.00,3.00,0.00,30.15,,6.21,,,,,,,,,,,,,,,,,71.60,SBMT 152200Z 35003KT CAVOK 22/11 Q1021,
SBMT,2024-06-15 23:00,66.20,53.60,63.82,0.00,0.00,0.00,30.15,,6.21,,,,,,,,,,,,,,,,,66.20,SBMT 152300Z 00000KT CAVOK 19/12 Q1021,
SBMT,2024-06-16 00:00,64.40,53.60,67.95,0.00,0.00,0.00,30.18,,6.21,,,,,,,,,,,,,,,,,64.40,SBMT 160000Z 00000KT CAVOK 18/12 Q1022,
SBMT,2024-06-16 01:00,62.60,53.60,72.38,0.00,0.00,0.00,30.18,,6.21,,,,,,,,,,,,,,,,,62.60,SBMT 160100Z 00000KT CAVOK 17/12 Q1022,
SBMT,2024-06-16 02:00,60.80,53.60,77.14,0.00,0.00,0.00,30.18,,6.21,,,,,,,,,,,,,,,,,60.80,SBMT 160200Z 00000KT CAVOK 16/12 Q1022,
SBMT,2024-06-16 09:00,55.40,55.40,100.00,0.00,0.00,0.00,30.15,,6.21,,,,,,,,,,,,,,,,,55.40,SBMT 160900Z 00000KT CAVOK 13/13 Q1021,
SBMT,2024-06-16 10:00,55.40,55.40,100.00,0.00,0.00,0.00,30.15,,6.21,,,,,,,,,,,,,,,,,55.40,SBMT 161000Z 00000KT CAVOK 13/13 Q1021,
SBMT,2024-06-16 11:00,60.80,59.00,93.79,100.00,2.00,0.00,30.18,,6.21,,,,,,,,,,,,,,,,,60.80,SBMT 161100Z 10002KT CAVOK 16/15 Q1022,
SBMT,2024-06-16 12:00,68.00,57.20,68.35,90.00,3.00,0.00,30.21,,6.21,,,,,,,,,,,,,,,,,68.00,SBMT 161200Z 09003KT CAVOK 20/14 Q1023,
SBMT,2024-06-16 13:00,71.60,59.00,64.48,10.00,2.00,0.00,30.18,,6.21,,,,,,,,,,,,,,,,,71.60,SBMT 161300Z 01002KT CAVOK 22/15 Q1022,
SBMT,2024-06-16 14:00,77.00,57.20,50.43,0.00,0.00,0.00,30.18,,6.21,,,,,,,,,,,,,,,,,77.00,SBMT 161400Z 00000KT CAVOK 25/14 Q1022,
SBMT,2024-06-16 15:00,78.80,55.40,44.52,340.00,3.00,0.00,30.15,,6.21,,,,,,,,,,,,,,,,,78.80,SBMT 161500Z 34003KT CAVOK 26/13 Q1021,
SBMT,2024-06-16 16:00,80.60,51.80,36.79,340.00,4.00,0.00,30.12,,6.21,,SCT,,,,4000.00,,,,,,,,,,,80.08,SBMT 161600Z 34004KT 9999 SCT040 27/11 Q1020,
SBMT,2024-06-16 17:00,80.60,50.00,34.41,310.00,7.00,0.00,30.09,,6.21,,,,,,,,,,,,,,,,,79.88,SBMT 161700Z 31007KT 260V360 CAVOK 27/10 Q1019,
SBMT,2024-06-16 18:00,80.60,51.80,36.79,,4.00,0.00,30.06,,6.21,,,,,,,,,,,,,,,,,80.08,SBMT 161800Z VRB04KT CAVOK 27/11 Q1018,
SBMT,2024-06-16 19:00,78.80,51.80,39.02,320.00,6.00,0.00,30.06,,6.21,,,,,,,,,,,,,,,,,78.80,SBMT 161900Z 32006KT 290V010 CAVOK 26/11 Q1018,
SBMT,2024-06-16 20:00,78.80,51.80,39.02,,2.00,0.00,30.06,,6.21,,,,,,,,,,,,,,,,,78.80,SBMT 162000Z VRB02KT CAVOK 26/11 Q1018,
SBMT,2024-06-16 21:00,75.20,53.60,46.98,,2.00,0.00,30.06,,6.21,,,,,,,,,,,,,,,,,75.20,SBMT 162100Z VRB02KT CAVOK 24/12 Q1018,
SBMT,2024-06-16 22:00,71.60,53.60,53.03,320.00,2.00,0.00,30.09,,6.21,,,,,,,,,,,,,,,,,71.60,SBMT 162200Z 32002KT CAVOK 22/12 Q1019,
SBMT,2024-06-16 23:00,71.60,53.60,53.03,360.00,4.00,0.00,30.09,,6.21,,,,,,,,,,,,,,,,,71.60,SBMT 162300Z 36004KT CAVOK 22/12 Q1019,
SBMT,2024-06-17 00:00,64.40,53.60,67.95,0.00,0.00,0.00,30.09,,6.21,,,,,,,,,,,,,,,,,64.40,SBMT 170000Z 00000KT CAVOK 18/12 Q1019,
SBMT,2024-06-17 01:00,62.60,53.60,72.38,,1.00,0.00,30.09,,6.21,,,,,,,,,,,,,,,,,62.60,SBMT 170100Z VRB01KT CAVOK 17/12 Q1019,
SBMT,2024-06-17 02:00,60.80,53.60,77.14,0.00,0.00,0.00,30.09,,6.21,,,,,,,,,,,,,,,,,60.80,SBMT 170200Z 00000KT CAVOK 16/12 Q1019,
SBMT,2024-06-17 09:00,64.40,50.00,59.50,300.00,3.00,0.00,30.06,,6.21,,,,,,,,,,,,,,,,,64.40,SBMT 170900Z 30003KT 250V350 CAVOK 18/10 Q1018,
SBMT,2024-06-17 10:00,64.40,51.80,63.60,310.00,5.00,0.00,30.09,,6.21,,,,,,,,,,,,,,,,,64.40,SBMT 171000Z 31005KT CAVOK 18/11 Q1019,
SBMT,2024-06-17 11:00,68.00,51.80,56.13,340.00,5.00,0.00,30.09,,6.21,,,,,,,,,,,,,,,,,68.00,SBMT 171100Z 34005KT CAVOK 20/11 Q1019,
SBMT,2024-06-17 12:00,71.60,51.80,49.64,330.00,7.00,0.00,30.12,,6.21,17.00,,,,,,,,,,,,,,,,71.60,COR SBMT 171200Z 33007G17KT CAVOK 22/11 Q1020 WS ALL RWY,
SBMT,2024-06-17 13:00,73.40,51.80,46.71,340.00,10.00,0.00,30.12,,6.21,,,,,,,,,,,,,,,,,73.40,SBMT 171300Z 34010KT CAVOK 23/11 Q1020,
SBMT,2024-06-17 14:00,75.20,53.60,46.98,340.00,10.00,0.00,30.09,,6.21,,,,,,,,,,,,,,,,,75.20,SBMT 171400Z 34010KT CAVOK 24/12 Q1019,
SBMT,2024-06-17 15:00,77.00,53.60,44.25,330.00,10.00,0.00,30.09,,6.21,,,,,,,,,,,,,,,,,77.00,SBMT 171500Z 33010KT CAVOK 25/12 Q1019,
SBMT,2024-06-17 16:00,78.80,51.80,39.02,310.00,10.00,0.00,30.06,,6.21,,,,,,,,,,,,,,,,,78.80,SBMT 171600Z 31010KT CAVOK 26/11 Q1018,
SBMT,2024-06-17 17:00,78.80,50.00,36.51,290.00,10.00,0.00,30.03,,6.21,,,,,,,,,,,,,,,,,78.80,SBMT 171700Z 29010KT CAVOK 26/10 Q1017,
SBMT,2024-06-17 18:00,78.80,48.20,34.13,320.00,6.00,0.00,30.00,,6.21,,,,,,,,,,,,,,,,,78.80,SBMT 171800Z 32006KT CAVOK 26/09 Q1016,
SBMT,2024-06-17 19:00,78.80,48.20,34.13,310.00,7.00,0.00,30.00,,6.21,,,,,,,,,,,,,,,,,78.80,SBMT 171900Z 31007KT CAVOK 26/09 Q1016,
SBMT,2024-06-17 20:00,77.00,48.20,36.22,320.00,7.00,0.00,30.03,,6.21,,,,,,,,,,,,,,,,,77.00,SBMT 172000Z 32007KT CAVOK 25/09 Q1017,
SBMT,2024-06-17 21:00,75.20,48.20,38.46,340.00,2.00,0.00,30.03,,6.21,,,,,,,,,,,,,,,,,75.20,SBMT 172100Z 34002KT CAVOK 24/09 Q1017,
SBMT,2024-06-17 22:00,68.00,50.00,52.51,0.00,0.00,0.00,30.03,,6.21,,,,,,,,,,,,,,,,,68.00,SBMT 172200Z 00000KT CAVOK 20/10 Q1017,
SBMT,2024-06-17 23:00,68.00,50.00,52.51,30.00,3.00,0.00,30.03,,6.21,,,,,,,,,,,,,,,,,68.00,SBMT 172300Z 03003KT CAVOK 20/10 Q1017,
SBMT,2024-06-18 00:00,71.60,48.20,43.42,20.00,4.00,0.00,30.03,,6.21,,,,,,,,,,,,,,,,,71.60,SBMT 180000Z 02004KT CAVOK 22/09 Q1017,
SBMT,2024-06-18 01:00,69.80,48.20,46.16,70.00,2.00,0.00,30.06,,6.21,,,,,,,,,,,,,,,,,69.80,SBMT 180100Z 07002KT CAVOK 21/09 Q1018,
SBMT,2024-06-18 02:00,60.80,48.20,63.15,0.00,0.00,0.00,30.06,,6.21,,,,,,,,,,,,,,,,,60.80,SBMT 180200Z 00000KT CAVOK 16/09 Q1018,
SBMT,2024-06-18 09:00,55.40,48.20,76.66,0.00,0.00,0.00,30.06,,6.21,,,,,,,,,,,,,,,,,55.40,SBMT 180900Z 00000KT CAVOK 13/09 Q1018,
SBMT,2024-06-18 10:00,55.40,48.20,76.66,0.00,0.00,0.00,30.09,,6.21,,,,,,,,,,,,,,,,,55.40,SBMT 181000Z 00000KT CAVOK 13/09 Q1019,
SBMT,2024-06-18 11:00,62.60,50.00,63.38,,2.00,0.00,30.12,,6.21,,,,,,,,,,,,,,,,,62.60,SBMT 181100Z VRB02KT CAVOK 17/10 Q1020,
SBMT,2024-06-18 12:00,69.80,48.20,46.16,350.00,8.00,0.00,30.12,,6.21,,,,,,,,,,,,,,,,,69.80,SBMT 181200Z 35008KT 310V020 CAVOK 21/09 Q1020,
SBMT,2024-06-18 13:00,71.60,48.20,43.42,340.00,9.00,0.00,30.12,,6.21,,,,,,,,,,,,,,,,,71.60,SBMT 181300Z 34009KT 300V020 CAVOK 22/09 Q1020,
SBMT,2024-06-18 14:00,73.40,48.20,40.85,330.00,10.00,0.00,30.12,,6.21,,,,,,,,,,,,,,,,,73.40,SBMT 181400Z 33010KT 290V030 CAVOK 23/09 Q1020,
SBMT,2024-06-18 15:00,75.20,46.40,35.94,340.00,8.00,0.00,30.12,,6.21,,,,,,,,,,,,,,,,,75.20,SBMT 181500Z 34008KT 310V050 CAVOK 24/08 Q1020,
SBMT,2024-06-18 16:00,77.00,48.20,36.22,330.00,7.00,0.00,30.06,,6.21,,,,,,,,,,,,,,,,,77.00,SBMT 181600Z 33007KT 270V030 CAVOK 25/09 Q1018,
SBMT,2024-06-18 17:00,77.00,46.40,33.85,300.00,9.00,0.00,30.03,,6.21,,,,,,,,,,,,,,,,,77.00,SBMT 181700Z 30009KT CAVOK 25/08 Q1017,
SBMT,2024-06-18 18:00,77.00,44.60,31.62,290.00,11.00,0.00,30.03,,6.21,,,,,,,,,,,,,,,,,77.00,SBMT 181800Z 29011KT CAVOK 25/07 Q1017,
SBMT,2024-06-18 19:00,77.00,44.60,31.62,290.00,7.00,0.00,30.03,,6.21,,,,,,,,,,,,,,,,,77.00,SBMT 181900Z 29007KT CAVOK 25/07 Q1017,
SBMT,2024-06-18 20:00,75.20,42.80,31.34,310.00,5.00,0.00,30.03,,6.21,,,,,,,,,,,,,,,,,75.20,SBMT 182000Z 31005KT CAVOK 24/06 Q1017,
SBMT,2024-06-18 21:00,73.40,44.60,35.66,10.00,3.00,0.00,30.06,,6.21,,,,,,,,,,,,,,,,,73.40,SBMT 182100Z 01003KT CAVOK 23/07 Q1018,
SBMT,2024-06-18 22:00,62.60,48.20,59.26,0.00,0.00,0.00,30.06,,6.21,,,,,,,,,,,,,,,,,62.60,SBMT 182200Z 00000KT CAVOK 17/09 Q1018,
SBMT,2024-06-18 23:00,60.80,48.20,63.15,0.00,0.00,0.00,30.09,,6.21,,,,,,,,,,,,,,,,,60.80,SBMT 182300Z 00000KT CAVOK 16/09 Q1019,
SBMT,2024-06-19 00:00,59.00,50.00,72.01,0.00,0.00,0.00,30.09,,6.21,,,,,,,,,,,,,,,,,59.00,SBMT 190000Z 00000KT CAVOK 15/10 Q1019,
SBMT,2024-06-19 01:00,59.00,50.00,72.01,270.00,1.00,0.00,30.09,,6.21,,,,,,,,,,,,,,,,,59.00,SBMT 190100Z 27001KT CAVOK 15/10 Q1019,
SBMT,2024-06-19 02:00,57.20,48.20,71.83,0.00,0.00,0.00,30.09,,6.21,,,,,,,,,,,,,,,,,57.20,SBMT 190200Z 00000KT CAVOK 14/09 Q1019,
SBMT,2024-06-19 09:00,51.80,48.20,87.47,190.00,1.00,0.00,30.06,,6.21,,,,,,,,,,,,,,,,,51.80,SBMT 190900Z 19001KT CAVOK 11/09 Q1018,
SBMT,2024-06-19 10:00,55.40,48.20,76.66,0.00,0.00,0.00,30.09,,6.21,,,,,,,,,,,,,,,,,55.40,SBMT 191000Z 00000KT CAVOK 13/09 Q1019,
SBMT,2024-06-19 11:00,64.40,51.80,63.60,290.00,2.00,0.00,30.12,,6.21,,,,,,,,,,,,,,,,,64.40,SBMT 191100Z 29002KT CAVOK 18/11 Q1020,
SBMT,2024-06-19 12:00,69.80,50.00,49.37,340.00,2.00,0.00,30.15,,6.21,,,,,,,,,,,,,,,,,69.80,SBMT 191200Z 34002KT CAVOK 21/10 Q1021,
SBMT,2024-06-19 13:00,73.40,50.00,43.69,10.00,6.00,0.00,30.18,,6.21,,,,,,,,,,,,,,,,,73.40,SBMT 191300Z 01006KT CAVOK 23/10 Q1022,
SBMT,2024-06-19 14:00,75.20,50.00,41.14,340.00,9.00,0.00,30.18,,6.21,,,,,,,,,,,,,,,,,75.20,SBMT 191400Z 34009KT CAVOK 24/10 Q1022,
SBMT,2024-06-19 15:00,77.00,50.00,38.74,310.00,9.00,0.00,30.15,,6.21,,,,,,,,,,,,,,,,,77.00,SBMT 191500Z 31009KT CAVOK 25/10 Q1021,
SBMT,2024-06-19 16:00,77.00,50.00,38.74,310.00,8.00,0.00,30.12,,6.21,,,,,,,,,,,,,,,,,77.00,SBMT 191600Z 31008KT CAVOK 25/10 Q1020,
SBMT,2024-06-19 17:00,78.80,48.20,34.13,290.00,8.00,0.00,30.09,,6.21,,,,,,,,,,,,,,,,,78.80,SBMT 191700Z 29008KT CAVOK 26/09 Q1019,
SBMT,2024-06-19 18:00,78.80,46.40,31.90,320.00,8.00,0.00,30.09,,6.21,,,,,,,,,,,,,,,,,78.80,SBMT 191800Z 32008KT CAVOK 26/08 Q1019,
SBMT,2024-06-19 19:00,78.80,46.40,31.90,310.00,5.00,0.00,30.09,,6.21,,,,,,,,,,,,,,,,,78.80,SBMT 191900Z 31005KT CAVOK 26/08 Q1019,
SBMT,2024-06-19 20:00,77.00,46.40,33.85,300.00,5.00,0.00,30.09,,6.21,,,,,,,,,,,,,,,,,77.00,SBMT 192000Z 30005KT CAVOK 25/08 Q1019,
SBMT,2024-06-19 21:00,68.00,50.00,52.51,290.00,2.00,0.00,30.12,,6.21,,,,,,,,,,,,,,,,,68.00,SBMT 192100Z 29002KT CAVOK 20/10 Q1020,
SBMT,2024-06-19 22:00,64.40,50.00,59.50,0.00,0.00,0.00,30.12,,6.21,,,,,,,,,,,,,,,,,64.40,SBMT 192200Z 00000KT CAVOK 18/10 Q1020,
SBMT,2024-06-19 23:00,62.60,50.00,63.38,30.00,2.00,0.00,30.15,,6.21,,,,,,,,,,,,,,,,,62.60,SBMT 192300Z 03002KT CAVOK 17/10 Q1021,
SBMT,2024-06-20 00:00,60.80,50.00,67.54,0.00,0.00,0.00,30.15,,6.21,,,,,,,,,,,,,,,,,60.80,SBMT 200000Z 00000KT CAVOK 16/10 Q1021,
SBMT,2024-06-20 01:00,57.20,50.00,76.82,0.00,0.00,0.00,30.15,,6.21,,,,,,,,,,,,,,,,,57.20,SBMT 200100Z 00000KT CAVOK 14/10 Q1021,
SBMT,2024-06-20 02:00,57.20,50.00,76.82,0.00,0.00,0.00,30.15,,6.21,,,,,,,,,,,,,,,,,57.20,SBMT 200200Z 00000KT CAVOK 14/10 Q1021,
SBMT,2024-06-20 09:00,50.00,48.20,93.50,0.00,0.00,0.00,30.15,,6.21,,,,,,,,,,,,,,,,,50.00,SBMT 200900Z 00000KT CAVOK 10/09 Q1021,
SBMT,2024-06-20 10:00,50.00,48.20,93.50,0.00,0.00,0.00,30.18,,6.21,,,,,,,,,,,,,,,,,50.00,SBMT 201000Z 00000KT CAVOK 10/09 Q1022,
SBMT,2024-06-20 11:00,59.00,48.20,67.33,100.00,3.00,0.00,30.18,,6.21,,,,,,,,,,,,,,,,,59.00,SBMT 201100Z 10003KT CAVOK 15/09 Q1022,
SBMT,2024-06-20 12:00,64.40,48.20,55.63,120.00,1.00,0.00,30.21,,6.21,,,,,,,,,,,,,,,,,64.40,SBMT 201200Z 12001KT CAVOK 18/09 Q1023,
SBMT,2024-06-20 13:00,69.80,48.20,46.16,80.00,1.00,0.00,30.21,,6.21,,,,,,,,,,,,,,,,,69.80,SBMT 201300Z 08001KT CAVOK 21/09 Q1023,
SBMT,2024-06-20 14:00,75.20,48.20,38.46,90.00,2.00,0.00,30.21,,6.21,,,,,,,,,,,,,,,,,75.20,SBMT 201400Z 09002KT CAVOK 24/09 Q1023,
SBMT,2024-06-20 15:00,77.00,41.00,27.53,40.00,4.00,0.00,30.18,,6.21,,,,,,,,,,,,,,,,,77.00,SBMT 201500Z 04004KT CAVOK 25/05 Q1022,
SBMT,2024-06-20 16:00,78.80,37.40,22.54,300.00,6.00,0.00,30.15,,6.21,,,,,,,,,,,,,,,,,78.80,SBMT 201600Z 30006KT CAVOK 26/03 Q1021,
SBMT,2024-06-20 17:00,78.80,35.60,21.00,,2.00,0.00,30.12,,6.21,,,,,,,,,,,,,,,,,78.80,SBMT 201700Z VRB02KT CAVOK 26/02 Q1020,
SBMT,2024-06-20 18:00,78.80,32.00,18.18,300.00,4.00,0.00,30.12,,6.21,,,,,,,,,,,,,,,,,78.80,SBMT 201800Z 30004KT 250V350 CAVOK 26/00 Q1020,
SBMT,2024-06-20 19:00,80.60,33.80,18.42,,2.00,0.00,30.09,,6.21,,,,,,,,,,,,,,,,,78.88,SBMT 201900Z VRB02KT CAVOK 27/01 Q1019,
SBMT,2024-06-20 20:00,77.00,44.60,31.62,150.00,6.00,0.00,30.09,,6.21,,,,,,,,,,,,,,,,,77.00,SBMT 202000Z 15006KT 120V190 CAVOK 25/07 Q1019,
SBMT,2024-06-20 21:00,73.40,48.20,40.85,120.00,6.00,0.00,30.12,,6.21,,,,,,,,,,,,,,,,,73.40,SBMT 202100Z 12006KT 090V150 CAVOK 23/09 Q1020,
SBMT,2024-06-20 22:00,69.80,50.00,49.37,100.00,4.00,0.00,30.12,,6.21,,,,,,,,,,,,,,,,,69.80,SBMT 202200Z 10004KT 070V130 CAVOK 21/10 Q1020,
SBMT,2024-06-20 23:00,68.00,50.00,52.51,90.00,3.00,0.00,30.15,,6.21,,,,,,,,,,,,,,,,,68.00,SBMT 202300Z 09003KT CAVOK 20/10 Q1021,
SBMT,2024-06-21 00:00,60.80,50.00,67.54,,2.00,0.00,30.18,,6.21,,,,,,,,,,,,,,,,,60.80,SBMT 210000Z VRB02KT CAVOK 16/10 Q1022,
SBMT,2024-06-21 01:00,60.80,50.00,67.54,80.00,3.00,0.00,30.18,,6.21,,,,,,,,,,,,,,,,,60.80,SBMT 210100Z 08003KT 050V120 CAVOK 16/10 Q1022,
SBMT,2024-06-21 02:00,60.80,50.00,67.54,,1.00,0.00,30.21,,6.21,,,,,,,,,,,,,,,,,60.80,SBMT 210200Z VRB01KT CAVOK 16/10 Q1023,
SBMT,2024-06-21 09:00,53.60,48.20,81.87,110.00,2.00,0.00,30.12,,6.21,,,,,,,,,,,,,,,,,53.60,SBMT 210900Z 11002KT CAVOK 12/09 Q1020,
SBMT,2024-06-21 10:00,51.80,48.20,87.47,120.00,2.00,0.00,30.15,,6.21,,,,,,,,,,,,,,,,,51.80,SBMT 211000Z 12002KT CAVOK 11/09 Q1021,
SBMT,2024-06-21 11:00,59.00,48.20,67.33,70.00,4.00,0.00,30.15,,6.21,,,,,,,,,,,,,,,,,59.00,SBMT 211100Z 07004KT CAVOK 15/09 Q1021,
SBMT,2024-06-21 12:00,62.60,46.40,55.37,100.00,2.00,0.00,30.18,,6.21,,,,,,,,,,,,,,,,,62.60,SBMT 211200Z 10002KT CAVOK 17/08 Q1022,
SBMT,2024-06-21 13:00,68.00,48.20,49.10,90.00,3.00,0.00,30.18,,6.21,,,,,,,,,,,,,,,,,68.00,SBMT 211300Z 09003KT CAVOK 20/09 Q1022,
SBMT,2024-06-21 14:00,71.60,48.20,43.42,90.00,4.00,0.00,30.18,,6.21,,,,,,,,,,,,,,,,,71.60,SBMT 211400Z 09004KT CAVOK 22/09 Q1022,
SBMT,2024-06-21 15:00,73.40,48.20,40.85,40.00,4.00,0.00,30.15,,6.21,,,,,,,,,,,,,,,,,73.40,SBMT 211500Z 04004KT CAVOK 23/09 Q1021,
SBMT,2024-06-21 16:00,75.20,46.40,35.94,60.00,4.00,0.00,30.12,,6.21,,,,,,,,,,,,,,,,,75.20,SBMT 211600Z 06004KT CAVOK 24/08 Q1020,
SBMT,2024-06-21 17:00,77.00,46.40,33.85,110.00,5.00,0.00,30.09,,6.21,,,,,,,,,,,,,,,,,77.00,SBMT 211700Z 11005KT CAVOK 25/08 Q1019,
SBMT,2024-06-21 18:00,77.00,46.40,33.85,90.00,5.00,0.00,30.09,,6.21,,,,,,,,,,,,,,,,,77.00,SBMT 211800Z 09005KT CAVOK 25/08 Q1019,
SBMT,2024-06-21 19:00,75.20,44.60,33.57,90.00,4.00,0.00,30.06,,6.21,,,,,,,,,,,,,,,,,75.20,SBMT 211900Z 09004KT CAVOK 24/07 Q1018,
SBMT,2024-06-21 20:00,73.40,42.80,33.29,80.00,6.00,0.00,30.09,,6.21,,,,,,,,,,,,,,,,,73.40,SBMT 212000Z 08006KT CAVOK 23/06 Q1019,
SBMT,2024-06-21 21:00,71.60,44.60,37.89,70.00,5.00,0.00,30.09,,6.21,,,,,,,,,,,,,,,,,71.60,SBMT 212100Z 07005KT CAVOK 22/07 Q1019,
SBMT,2024-06-21 22:00,69.80,48.20,46.16,50.00,5.00,0.00,30.12,,6.21,,,,,,,,,,,,,,,,,69.80,SBMT 212200Z 05005KT CAVOK 21/09 Q1020,
SBMT,2024-06-21 23:00,68.00,50.00,52.51,70.00,4.00,0.00,30.12,,6.21,,,,,,,,,,,,,,,,,68.00,SBMT 212300Z 07004KT CAVOK 20/10 Q1020,
SBMT,2024-06-22 00:00,62.60,50.00,63.38,90.00,3.00,0.00,30.15,,6.21,,,,,,,,,,,,,,,,,62.60,SBMT 220000Z 09003KT CAVOK 17/10 Q1021,
SBMT,2024-06-22 01:00,62.60,50.00,63.38,60.00,3.00,0.00,30.15,,6.21,,,,,,,,,,,,,,,,,62.60,SBMT 220100Z 06003KT CAVOK 17/10 Q1021,
SBMT,2024-06-22 02:00,59.00,51.80,76.98,120.00,2.00,0.00,30.15,,6.21,,,,,,,,,,,,,,,,,59.00,SBMT 220200Z 12002KT CAVOK 15/11 Q1021,
SBMT,2024-06-22 09:00,51.80,50.00,93.55,130.00,2.00,0.00,30.12,,1.86,,NSC,,,,,,,,BR MIFG,,,,,,,51.80,COR SBMT 220900Z 13002KT 3000 BR MIFG NSC 11/10 Q1020,
SBMT,2024-06-22 10:00,57.20,51.80,82.12,100.00,4.00,0.00,30.12,,4.97,,NSC,,,,,,,,,,,,,,,57.20,SBMT 221000Z 10004KT 8000 NSC 14/11 Q1020,
SBMT,2024-06-22 11:00,60.80,53.60,77.14,270.00,2.00,0.00,30.12,,6.21,,,,,,,,,,,,,,,,,60.80,SBMT 221100Z 27002KT CAVOK 16/12 Q1020,
SBMT,2024-06-22 12:00,64.40,51.80,63.60,210.00,2.00,0.00,30.15,,6.21,,,,,,,,,,,,,,,,,64.40,SBMT 221200Z 21002KT CAVOK 18/11 Q1021,
SBMT,2024-06-22 13:00,73.40,53.60,49.90,100.00,2.00,0.00,30.15,,6.21,,,,,,,,,,,,,,,,,73.40,SBMT 221300Z 10002KT CAVOK 23/12 Q1021,
SBMT,2024-06-22 14:00,77.00,55.40,47.25,10.00,5.00,0.00,30.12,,6.21,,,,,,,,,,,,,,,,,77.00,SBMT 221400Z 01005KT CAVOK 25/13 Q1020,
SBMT,2024-06-22 15:00,77.00,50.00,38.74,330.00,8.00,0.00,30.09,,6.21,,,,,,,,,,,,,,,,,77.00,SBMT 221500Z 33008KT CAVOK 25/10 Q1019,
SBMT,2024-06-22 16:00,78.80,48.20,34.13,340.00,9.00,0.00,30.06,,6.21,,,,,,,,,,,,,,,,,78.80,SBMT 221600Z 34009KT CAVOK 26/09 Q1018,
SBMT,2024-06-22 17:00,78.80,50.00,36.51,330.00,8.00,0.00,30.03,,6.21,,,,,,,,,,,,,,,,,78.80,SBMT 221700Z 33008KT CAVOK 26/10 Q1017,
SBMT,2024-06-22 18:00,80.60,48.20,32.18,310.00,7.00,0.00,30.03,,6.21,,,,,,,,,,,,,,,,,79.71,SBMT 221800Z 31007KT CAVOK 27/09 Q1017,
SBMT,2024-06-22 19:00,78.80,48.20,34.13,320.00,8.00,0.00,30.03,,6.21,,,,,,,,,,,,,,,,,78.80,SBMT 221900Z 32008KT CAVOK 26/09 Q1017,
SBMT,2024-06-22 20:00,78.80,46.40,31.90,320.00,7.00,0.00,30.03,,6.21,,,,,,,,,,,,,,,,,78.80,SBMT 222000Z 32007KT CAVOK 26/08 Q1017,
SBMT,2024-06-22 21:00,73.40,48.20,40.85,340.00,2.00,0.00,30.06,,6.21,,,,,,,,,,,,,,,,,73.40,SBMT 222100Z 34002KT CAVOK 23/09 Q1018,
SBMT,2024-06-22 22:00,66.20,51.80,59.74,0.00,0.00,0.00,30.06,,6.21,,,,,,,,,,,,,,,,,66.20,SBMT 222200Z 00000KT CAVOK 19/11 Q1018,
SBMT,2024-06-22 23:00,64.40,51.80,63.60,0.00,0.00,0.00,30.06,,6.21,,,,,,,,,,,,,,,,,64.40,SBMT 222300Z 00000KT CAVOK 18/11 Q1018,
SBMT,2024-06-23 00:00,62.60,51.80,67.75,0.00,0.00,0.00,30.06,,6.21,,,,,,,,,,,,,,,,,62.60,SBMT 230000Z 00000KT CAVOK 17/11 Q1018,
SBMT,2024-06-23 01:00,60.80,51.80,72.20,0.00,0.00,0.00,30.06,,6.21,,,,,,,,,,,,,,,,,60.80,SBMT 230100Z 00000KT CAVOK 16/11 Q1018,
SBMT,2024-06-23 02:00,60.80,51.80,72.20,0.00,0.00,0.00,30.06,,6.21,,,,,,,,,,,,,,,,,60.80,SBMT 230200Z 00000KT CAVOK 16/11 Q1018,
SBMT,2024-06-23 09:00,57.20,53.60,87.74,0.00,0.00,0.00,30.03,,6.21,,,,,,,,,,,,,,,,,57.20,SBMT 230900Z 00000KT CAVOK 14/12 Q1017,
SBMT,2024-06-23 10:00,55.40,53.60,93.65,0.00,0.00,0.00,30.06,,6.21,,,,,,,,,,,,,,,,,55.40,SBMT 231000Z 00000KT CAVOK 13/12 Q1018,
SBMT,2024-06-23 11:00,60.80,55.40,82.37,0.00,0.00,0.00,30.09,,6.21,,,,,,,,,,,,,,,,,60.80,SBMT 231100Z 00000KT CAVOK 16/13 Q1019,
SBMT,2024-06-23 12:00,68.00,53.60,59.97,80.00,3.00,0.00,30.09,,6.21,,,,,,,,,,,,,,,,,68.00,SBMT 231200Z 08003KT CAVOK 20/12 Q1019,
SBMT,2024-06-23 13:00,73.40,51.80,46.71,,3.00,0.00,30.09,,6.21,,,,,,,,,,,,,,,,,73.40,SBMT 231300Z VRB03KT CAVOK 23/11 Q1019,
SBMT,2024-06-23 14:00,77.00,51.80,41.42,340.00,7.00,0.00,30.09,,6.21,,,,,,,,,,,,,,,,,77.00,SBMT 231400Z 34007KT 280V040 CAVOK 25/11 Q1019,
SBMT,2024-06-23 15:00,78.80,53.60,41.69,320.00,9.00,0.00,30.09,,6.21,,,,,,,,,,,,,,,,,78.80,SBMT 231500Z 32009KT 280V010 CAVOK 26/12 Q1019,
SBMT,2024-06-23 16:00,80.60,53.60,39.30,310.00,8.00,0.00,30.06,,6.21,,,,,,,,,,,,,,,,,80.29,SBMT 231600Z 31008KT 270V350 CAVOK 27/12 Q1018,
SBMT,2024-06-23 17:00,80.60,50.00,34.41,320.00,7.00,0.00,30.03,,6.21,,,,,,,,,,,,,,,,,79.88,SBMT 231700Z 32007KT 270V030 CAVOK 27/10 Q1017,
SBMT,2024-06-23 18:00,80.60,50.00,34.41,330.00,9.00,0.00,30.03,,6.21,,,,,,,,,,,,,,,,,79.88,SBMT 231800Z 33009KT 270V020 CAVOK 27/10 Q1017,
SBMT,2024-06-23 19:00,80.60,50.00,34.41,310.00,8.00,0.00,30.03,,6.21,,,,,,,,,,,,,,,,,79.88,SBMT 231900Z 31008KT 270V350 CAVOK 27/10 Q1017,
SBMT,2024-06-23 20:00,78.80,50.00,36.51,320.00,4.00,0.00,30.03,,6.21,,,,,,,,,,,,,,,,,78.80,SBMT 232000Z 32004KT 290V360 CAVOK 26/10 Q1017,
SBMT,2024-06-23 21:00,75.20,51.80,43.97,340.00,4.00,0.00,30.03,,6.21,,,,,,,,,,,,,,,,,75.20,SBMT 232100Z 34004KT 290V010 CAVOK 24/11 Q1017,
SBMT,2024-06-23 22:00,73.40,51.80,46.71,360.00,3.00,0.00,30.03,,6.21,,,,,,,,,,,,,,,,,73.40,SBMT 232200Z 36003KT CAVOK 23/11 Q1017,
SBMT,2024-06-23 23:00,73.40,51.80,46.71,320.00,3.00,0.00,30.06,,6.21,,,,,,,,,,,,,,,,,73.40,SBMT 232300Z 32003KT 290V350 CAVOK 23/11 Q1018,
SBMT,2024-06-24 00:00,71.60,50.00,46.43,330.00,4.00,0.00,30.06,,6.21,,,,,,,,,,,,,,,,,71.60,SBMT 240000Z 33004KT 270V060 CAVOK 22/10 Q1018,
SBMT,2024-06-24 01:00,71.60,50.00,46.43,300.00,4.00,0.00,30.06,,6.21,,,,,,,,,,,,,,,,,71.60,SBMT 240100Z 30004KT 250V360 CAVOK 22/10 Q1018,
SBMT,2024-06-24 02:00,71.60,50.00,46.43,320.00,5.00,0.00,30.06,,6.21,,,,,,,,,,,,,,,,,71.60,SBMT 240200Z 32005KT 270V360 CAVOK 22/10 Q1018,
SBMT,2024-06-24 09:00,60.80,51.80,72.20,,2.00,0.00,30.03,,6.21,,,,,,,,,,,,,,,,,60.80,SBMT 240900Z VRB02KT CAVOK 16/11 Q1017,
SBMT,2024-06-24 10:00,57.20,51.80,82.12,0.00,0.00,0.00,30.06,,6.21,,,,,,,,,,,,,,,,,57.20,SBMT 241000Z 00000KT CAVOK 14/11 Q1018,
SBMT,2024-06-24 11:00,64.40,53.60,67.95,90.00,3.00,0.00,30.06,,6.21,,,,,,,,,,,,,,,,,64.40,SBMT 241100Z 09003KT CAVOK 18/12 Q1018,
SBMT,2024-06-24 12:00,69.80,53.60,56.38,,2.00,0.00,30.09,,6.21,,,,,,,,,,,,,,,,,69.80,SBMT 241200Z VRB02KT CAVOK 21/12 Q1019,
SBMT,2024-06-24 13:00,77.00,51.80,41.42,350.00,5.00,0.00,30.09,,6.21,,,,,,,,,,,,,,,,,77.00,SBMT 241300Z 35005KT 310V040 CAVOK 25/11 Q1019,
SBMT,2024-06-24 14:00,77.00,51.80,41.42,320.00,11.00,0.00,30.09,,6.21,,,,,,,,,,,,,,,,,77.00,SBMT 241400Z 32011KT 280V360 CAVOK 25/11 Q1019,
SBMT,2024-06-24 15:00,78.80,51.80,39.02,300.00,10.00,0.00,30.06,,6.21,,,,,,,,,,,,,,,,,78.80,SBMT 241500Z 30010KT 280V350 CAVOK 26/11 Q1018,
SBMT,2024-06-24 16:00,80.60,51.80,36.79,310.00,12.00,0.00,30.03,,6.21,,,,,,,,,,,,,,,,,80.08,SBMT 241600Z 31012KT CAVOK 27/11 Q1017,
SBMT,2024-06-24 17:00,82.40,51.80,34.69,280.00,11.00,0.00,30.00,,6.21,,,,,,,,,,,,,,,,,81.20,SBMT 241700Z 28011KT CAVOK 28/11 Q1016,
SBMT,2024-06-24 18:00,82.40,53.60,37.07,300.00,9.00,0.00,30.00,,6.21,,,,,,,,,,,,,,,,,81.46,SBMT 241800Z 30009KT CAVOK 28/12 Q1016,
SBMT,2024-06-24 19:00,82.40,51.80,34.69,290.00,8.00,0.00,30.00,,6.21,,,,,,,,,,,,,,,,,81.20,SBMT 241900Z 29008KT CAVOK 28/11 Q1016,
SBMT,2024-06-24 20:00,80.60,53.60,39.30,290.00,7.00,0.00,30.00,,6.21,,,,,,,,,,,,,,,,,80.29,SBMT 242000Z 29007KT CAVOK 27/12 Q1016,
SBMT,2024-06-24 21:00,75.20,55.40,50.17,350.00,2.00,0.00,30.03,,6.21,,,,,,,,,,,,,,,,,75.20,SBMT 242100Z 35002KT CAVOK 24/13 Q1017,
SBMT,2024-06-24 22:00,71.60,57.20,60.44,350.00,2.00,0.00,30.03,,6.21,,,,,,,,,,,,,,,,,71.60,SBMT 242200Z 35002KT CAVOK 22/14 Q1017,
SBMT,2024-06-24 23:00,68.00,62.60,82.86,170.00,6.00,0.00,30.06,,6.21,,,,,,,,,,,,,,,,,68.00,SBMT 242300Z 17006KT CAVOK 20/17 Q1018,
SBMT,2024-06-25 00:00,68.00,62.60,82.86,150.00,5.00,0.00,30.09,,6.21,,BKN,,,,1300.00,,,,,,,,,,,68.00,SBMT 250000Z 15005KT 9999 BKN013 20/17 Q1019,
SBMT,2024-06-25 01:00,68.00,62.60,82.86,120.00,5.00,0.00,30.12,,6.21,,SCT,BKN,,,1300.00,1500.00,,,,,,,,,,68.00,SBMT 250100Z 12005KT 9999 SCT013 BKN015 20/17 Q1020,
SBMT,2024-06-25 02:00,66.20,62.60,88.18,150.00,6.00,0.00,30.12,,6.21,,SCT,BKN,,,1300.00,1500.00,,,,,,,,,,66.20,SBMT 250200Z 15006KT 9999 SCT013 BKN015 19/17 Q1020,
SBMT,2024-06-25 09:00,64.40,59.00,82.62,100.00,8.00,0.00,30.12,,4.97,,BKN,BKN,,,1000.00,2000.00,,,,,,,,,,64.40,SBMT 250900Z 10008KT 8000 BKN010 BKN020 18/15 Q1020,
SBMT,2024-06-25 10:00,64.40,59.00,82.62,140.00,7.00,0.00,30.15,,4.97,,BKN,,,,1200.00,,,,,,,,,,,64.40,SBMT 251000Z 14007KT 8000 BKN012 18/15 Q1021,
SBMT,2024-06-25 11:00,66.20,59.00,77.60,120.00,6.00,0.00,30.18,,6.21,,BKN,,,,1300.00,,,,,,,,,,,66.20,SBMT 251100Z 12006KT 9999 BKN013 19/15 Q1022,
SBMT,2024-06-25 12:00,64.40,57.20,77.45,170.00,8.00,0.00,30.21,,6.21,,BKN,,,,1200.00,,,,,,,,,,,64.40,SBMT 251200Z 17008KT 9999 BKN012 18/14 Q1023,
SBMT,2024-06-25 13:00,64.40,57.20,77.45,130.00,6.00,0.00,30.21,,4.97,,BKN,,,,1300.00,,,,,,,,,,,64.40,SBMT 251300Z 13006KT 8000 BKN013 18/14 Q1023,
SBMT,2024-06-25 14:00,64.40,57.20,77.45,150.00,7.00,0.00,30.21,,6.21,,BKN,,,,1500.00,,,,,,,,,,,64.40,SBMT 251400Z 15007KT 9999 BKN015 18/14 Q1023,
SBMT,2024-06-25 15:00,66.20,57.20,72.74,180.00,7.00,0.00,30.21,,6.21,,BKN,BKN,,,1500.00,2500.00,,,,,,,,,,66.20,SBMT 251500Z 18007KT 9999 BKN015 BKN025 19/14 Q1023,
SBMT,2024-06-25 16:00,66.20,57.20,72.74,160.00,4.00,0.00,30.18,,6.21,,BKN,,,,2000.00,,,,,,,,,,,66.20,SBMT 251600Z 16004KT 9999 BKN020 19/14 Q1022,
SBMT,2024-06-25 17:00,66.20,59.00,77.60,150.00,6.00,0.00,30.15,,6.21,,BKN,BKN,,,1700.00,2300.00,,,,,,,,,,66.20,SBMT 251700Z 15006KT 9999 BKN017 BKN023 19/15 Q1021,
SBMT,2024-06-25 18:00,66.20,59.00,77.60,170.00,8.00,0.00,30.15,,6.21,,SCT,BKN,,,1500.00,1700.00,,,,,,,,,,66.20,SBMT 251800Z 17008KT 9999 SCT015 BKN017 19/15 Q1021,
SBMT,2024-06-25 19:00,66.20,59.00,77.60,130.00,8.00,0.00,30.15,,6.21,,SCT,BKN,,,1500.00,1700.00,,,,,,,,,,66.20,SBMT 251900Z 13008KT 9999 SCT015 BKN017 19/15 Q1021,
SBMT,2024-06-25 20:00,64.40,57.20,77.45,160.00,7.00,0.00,30.18,,6.21,,BKN,BKN,,,1700.00,2100.00,,,,,,,,,,64.40,SBMT 252000Z 16007KT 9999 BKN017 BKN021 18/14 Q1022,
SBMT,2024-06-25 21:00,64.40,57.20,77.45,130.00,7.00,0.00,30.18,,6.21,,BKN,BKN,,,1700.00,3000.00,,,,,,,,,,64.40,SBMT 252100Z 13007KT 9999 BKN017 BKN030 18/14 Q1022,
SBMT,2024-06-25 22:00,64.40,57.20,77.45,140.00,6.00,0.00,30.18,,6.21,,SCT,BKN,,,1500.00,1700.00,,,,,,,,,,64.40,SBMT 252200Z 14006KT 9999 SCT015 BKN017 18/14 Q1022,
SBMT,2024-06-25 23:00,62.60,57.20,82.50,140.00,5.00,0.00,30.21,,6.21,,SCT,BKN,,,1300.00,1500.00,,,,,,,,,,62.60,SBMT 252300Z 14005KT 9999 SCT013 BKN015 17/14 Q1023,
SBMT,2024-06-26 00:00,62.60,59.00,88.00,110.00,7.00,0.00,30.18,,6.21,,BKN,,,,1100.00,,,,,,,,,,,62.60,SBMT 260000Z 11007KT 9999 BKN011 17/15 Q1022,
SBMT,2024-06-26 01:00,62.60,59.00,88.00,90.00,8.00,0.00,30.18,,6.21,,BKN,,,,1100.00,,,,,,,,,,,62.60,SBMT 260100Z 09008KT 9999 BKN011 17/15 Q1022,
SBMT,2024-06-26 02:00,62.60,59.00,88.00,100.00,8.00,0.00,30.18,,6.21,,BKN,,,,1300.00,,,,,,,,,,,62.60,SBMT 260200Z 10008KT 9999 BKN013 17/15 Q1022,
SBMT,2024-06-26 09:00,62.60,59.00,88.00,70.00,4.00,0.00,30.09,,3.11,,BKN,,,,1100.00,,,,BR,,,,,,,62.60,SBMT 260900Z 07004KT 040V100 5000 BR BKN011 17/15 Q1019,
SBMT,2024-06-26 10:00,60.80,59.00,93.79,80.00,3.00,0.00,30.09,,3.11,,BKN,,,,900.00,,,,BR,,,,,,,60.80,SBMT 261000Z 08003KT 050V110 5000 BR BKN009 16/15 Q1019,
SBMT,2024-06-26 11:00,62.60,59.00,88.00,70.00,5.00,0.00,30.09,,4.35,,FEW,,,,900.00,,,,,,,,,,,62.60,SBMT 261100Z 07005KT 040V100 7000 FEW009 17/15 Q1019,
SBMT,2024-06-26 12:00,64.40,59.00,82.62,70.00,4.00,0.00,30.12,,6.21,,,,,,,,,,,,,,,,,64.40,SBMT 261200Z 07004KT 040V110 CAVOK 18/15 Q1020,
SBMT,2024-06-26 13:00,71.60,60.80,68.75,90.00,3.00,0.00,30.12,,6.21,,,,,,,,,,,,,,,,,71.60,SBMT 261300Z 09003KT CAVOK 22/16 Q1020,
SBMT,2024-06-26 14:00,77.00,59.00,53.80,350.00,7.00,0.00,30.09,,6.21,,,,,,,,,,,,,,,,,77.00,SBMT 261400Z 35007KT 270V030 CAVOK 25/15 Q1019,
SBMT,2024-06-26 15:00,78.80,57.20,47.52,320.00,9.00,0.00,30.06,,6.21,,,,,,,,,,,,,,,,,78.80,SBMT 261500Z 32009KT CAVOK 26/14 Q1018,
SBMT,2024-06-26 16:00,80.60,55.40,41.97,310.00,10.00,0.00,30.03,,6.21,,SCT,,,,4000.00,,,,,,,,,,,80.53,SBMT 261600Z 31010KT 9999 SCT040 27/13 Q1017,
SBMT,2024-06-26 17:00,80.60,55.40,41.97,320.00,13.00,0.00,30.00,,6.21,,SCT,,,,4000.00,,,,,,,,,,,80.53,SBMT 261700Z 32013KT 9999 SCT040 27/13 Q1016,
SBMT,2024-06-26 18:00,80.60,55.40,41.97,310.00,8.00,0.00,30.00,,6.21,,SCT,,,,4000.00,,,,,,,,,,,80.53,SBMT 261800Z 31008KT 9999 SCT040 27/13 Q1016,
SBMT,2024-06-26 19:00,80.60,57.20,44.80,300.00,9.00,0.00,29.97,,6.21,,SCT,,,,4000.00,,,,,,,,,,,80.81,SBMT 261900Z 30009KT 9999 SCT040 27/14 Q1015,
SBMT,2024-06-26 20:00,80.60,53.60,39.30,280.00,8.00,0.00,29.97,,6.21,,FEW,,,,4000.00,,,,,,,,,,,80.29,SBMT 262000Z 28008KT 9999 FEW040 27/12 Q1015,
SBMT,2024-06-26 21:00,78.80,53.60,41.69,310.00,4.00,0.00,30.00,,6.21,,,,,,,,,,,,,,,,,78.80,SBMT 262100Z 31004KT CAVOK 26/12 Q1016,
SBMT,2024-06-26 22:00,73.40,55.40,53.29,350.00,3.00,0.00,30.00,,6.21,,,,,,,,,,,,,,,,,73.40,SBMT 262200Z 35003KT CAVOK 23/13 Q1016,
SBMT,2024-06-26 23:00,73.40,55.40,53.29,330.00,2.00,0.00,30.00,,6.21,,,,,,,,,,,,,,,,,73.40,SBMT 262300Z 33002KT CAVOK 23/13 Q1016,
SBMT,2024-06-27 00:00,75.20,53.60,46.98,300.00,4.00,0.00,30.00,,6.21,,,,,,,,,,,,,,,,,75.20,SBMT 270000Z 30004KT CAVOK 24/12 Q1016,
SBMT,2024-06-27 01:00,71.60,55.40,56.63,290.00,5.00,0.00,30.03,,6.21,,,,,,,,,,,,,,,,,71.60,SBMT 270100Z 29005KT CAVOK 22/13 Q1017,
SBMT,2024-06-27 02:00,71.60,55.40,56.63,290.00,6.00,0.00,30.03,,6.21,,,,,,,,,,,,,,,,,71.60,SBMT 270200Z 29006KT CAVOK 22/13 Q1017,
SBMT,2024-06-27 09:00,64.40,60.80,88.09,170.00,3.00,0.00,30.03,,4.97,,FEW,BKN,,,1300.00,1500.00,,,,,,,,,,64.40,SBMT 270900Z 17003KT 100V250 8000 FEW013 BKN015 18/16 Q1017,
SBMT,2024-06-27 10:00,64.40,60.80,88.09,100.00,3.00,0.00,30.03,,4.97,,FEW,BKN,,,1300.00,1500.00,,,,,,,,,,64.40,SBMT 271000Z 10003KT 8000 FEW013 BKN015 18/16 Q1017,
SBMT,2024-06-27 11:00,66.20,60.80,82.74,60.00,3.00,0.00,30.03,,5.59,,SCT,BKN,,,1300.00,1700.00,,,,,,,,,,66.20,SBMT 271100Z 06003KT 030V090 9000 SCT013 BKN017 19/16 Q1017,
SBMT,2024-06-27 12:00,68.00,62.60,82.86,0.00,0.00,0.00,30.06,,5.59,,SCT,BKN,,,1700.00,2000.00,,,,,,,,,,68.00,SBMT 271200Z 00000KT 9000 SCT017 BKN020 20/17 Q1018,
SBMT,2024-06-27 13:00,69.80,59.00,68.55,,2.00,0.00,30.06,,6.21,,SCT,BKN,,,2000.00,3000.00,,,,,,,,,,69.80,SBMT 271300Z VRB02KT 9999 SCT020 BKN030 21/15 Q1018,
SBMT,2024-06-27 14:00,71.60,60.80,68.75,,2.00,0.00,30.06,,6.21,,SCT,BKN,,,2000.00,3000.00,,,,,,,,,,71.60,SBMT 271400Z VRB02KT 9999 SCT020 BKN030 22/16 Q1018,
SBMT,2024-06-27 15:00,69.80,60.80,73.09,170.00,7.00,0.00,30.03,,4.97,,BKN,BKN,,,2000.00,3000.00,,,,,,,,,,69.80,SBMT 271500Z 17007KT 120V210 8000 BKN020 BKN030 21/16 Q1017,
SBMT,2024-06-27 16:00,66.20,59.00,77.60,140.00,7.00,0.00,30.00,,4.97,,BKN,BKN,,,2000.00,3000.00,,,,,,,,,,66.20,SBMT 271600Z 14007KT 100V170 8000 BKN020 BKN030 19/15 Q1016,
SBMT,2024-06-27 17:00,71.60,59.00,64.48,0.00,0.00,0.00,29.97,,6.21,,FEW,,,,3000.00,,,,,,,,,,,71.60,SBMT 271700Z 00000KT 9999 FEW030 22/15 Q1015,
SBMT,2024-06-27 18:00,77.00,57.20,50.43,300.00,4.00,0.00,29.94,,6.21,,FEW,SCT,,,4000.00,9000.00,,,,,,,,,,77.00,SBMT 271800Z 30004KT 240V360 9999 FEW040 SCT090 25/14 Q1014,
SBMT,2024-06-27 19:00,77.00,57.20,50.43,280.00,8.00,0.00,29.94,,6.21,,SCT,SCT,,,4000.00,9000.00,,,,,,,,,,77.00,SBMT 271900Z 28008KT 250V310 9999 SCT040 SCT090 25/14 Q1014,
SBMT,2024-06-27 20:00,75.20,55.40,50.17,300.00,8.00,0.00,29.94,,6.21,,SCT,,,,4000.00,,,,,,,,,,,75.20,SBMT 272000Z 30008KT 270V340 9999 SCT040 24/13 Q1014,
SBMT,2024-06-27 21:00,71.60,55.40,56.63,280.00,7.00,0.00,29.97,,6.21,,FEW,,,,4000.00,,,,,,,,,,,71.60,SBMT 272100Z 28007KT 9999 FEW040 22/13 Q1015,
SBMT,2024-06-27 22:00,64.40,57.20,77.45,130.00,6.00,0.00,29.97,,6.21,,FEW,,,,4000.00,,,,,,,,,,,64.40,SBMT 272200Z 13006KT 100V170 9999 FEW040 18/14 Q1015,
SBMT,2024-06-27 23:00,62.60,57.20,82.50,100.00,4.00,0.00,30.00,,6.21,,,,,,,,,,,,,,,,,62.60,SBMT 272300Z 10004KT 060V120 CAVOK 17/14 Q1016,
SBMT,2024-06-28 00:00,64.40,57.20,77.45,130.00,3.00,0.00,30.00,,6.21,,,,,,,,,,,,,,,,,64.40,SBMT 280000Z 13003KT 100V160 CAVOK 18/14 Q1016,
SBMT,2024-06-28 01:00,60.80,57.20,87.92,,1.00,0.00,30.00,,6.21,,,,,,,,,,,,,,,,,60.80,SBMT 280100Z VRB01KT CAVOK 16/14 Q1016,
SBMT,2024-06-28 02:00,60.80,55.40,82.37,0.00,0.00,0.00,30.00,,6.21,,,,,,,,,,,,,,,,,60.80,SBMT 280200Z 00000KT CAVOK 16/13 Q1016,
SBMT,2024-06-28 09:00,55.40,53.60,93.65,330.00,2.00,0.00,29.97,,3.73,,NSC,,,,,,,,,,,,,,,55.40,SBMT 280900Z 33002KT 6000 NSC 13/12 Q1015,
SBMT,2024-06-28 10:00,55.40,55.40,100.00,0.00,0.00,0.00,29.97,,3.73,,NSC,,,,,,,,,,,,,,,55.40,SBMT 281000Z 00000KT 6000 NSC 13/13 Q1015,
SBMT,2024-06-28 11:00,59.00,57.20,93.74,110.00,2.00,0.00,30.00,,4.97,,NSC,,,,,,,,,,,,,,,59.00,SBMT 281100Z 11002KT 8000 NSC 15/14 Q1016,
SBMT,2024-06-28 12:00,64.40,57.20,77.45,90.00,4.00,0.00,30.03,,6.21,,,,,,,,,,,,,,,,,64.40,SBMT 281200Z 09004KT CAVOK 18/14 Q1017,
SBMT,2024-06-28 13:00,69.80,59.00,68.55,90.00,3.00,0.00,30.03,,6.21,,,,,,,,,,,,,,,,,69.80,SBMT 281300Z 09003KT CAVOK 21/15 Q1017,
SBMT,2024-06-28 14:00,73.40,57.20,56.88,360.00,2.00,0.00,30.03,,6.21,,,,,,,,,,,,,,,,,73.40,SBMT 281400Z 36002KT CAVOK 23/14 Q1017,
SBMT,2024-06-28 15:00,73.40,57.20,56.88,300.00,5.00,0.00,30.00,,6.21,,,,,,,,,,,,,,,,,73.40,SBMT 281500Z 30005KT CAVOK 23/14 Q1016,
SBMT,2024-06-28 16:00,77.00,55.40,47.25,310.00,11.00,0.00,30.00,,6.21,,FEW,,,,4000.00,,,,,,,,,,,77.00,SBMT 281600Z 31011KT 9999 FEW040 25/13 Q1016,
SBMT,2024-06-28 17:00,77.00,53.60,44.25,280.00,12.00,0.00,29.97,,6.21,,BKN,,,,4000.00,,,,,,,,,,,77.00,SBMT 281700Z 28012KT 9999 BKN040 25/12 Q1015,
SBMT,2024-06-28 18:00,77.00,51.80,41.42,300.00,10.00,0.00,29.97,,6.21,,SCT,,,,4000.00,,,,,,,,,,,77.00,SBMT 281800Z 30010KT 9999 SCT040 25/11 Q1015,
SBMT,2024-06-28 19:00,77.00,51.80,41.42,290.00,10.00,0.00,29.97,,6.21,,SCT,SCT,,,4000.00,8000.00,,,,,,,,,,77.00,SBMT 281900Z 29010KT 260V320 9999 SCT040 SCT080 25/11 Q1015,
SBMT,2024-06-28 20:00,75.20,50.00,41.14,290.00,8.00,0.00,29.97,,6.21,,SCT,BKN,,,4000.00,8000.00,,,,,,,,,,75.20,SBMT 282000Z 29008KT 9999 SCT040 BKN080 24/10 Q1015,
SBMT,2024-06-28 21:00,73.40,50.00,43.69,280.00,5.00,0.00,30.00,,6.21,,FEW,BKN,,,4000.00,8000.00,,,,,,,,,,73.40,SBMT 282100Z 28005KT 9999 FEW040 BKN080 23/10 Q1016,
SBMT,2024-06-28 22:00,71.60,51.80,49.64,320.00,3.00,0.00,30.00,,6.21,,,,,,,,,,,,,,,,,71.60,SBMT 282200Z 32003KT CAVOK 22/11 Q1016,
SBMT,2024-06-28 23:00,66.20,51.80,59.74,0.00,0.00,0.00,30.03,,6.21,,,,,,,,,,,,,,,,,66.20,SBMT 282300Z 00000KT CAVOK 19/11 Q1017,
SBMT,2024-06-29 00:00,64.40,53.60,67.95,350.00,2.00,0.00,30.03,,6.21,,,,,,,,,,,,,,,,,64.40,SBMT 290000Z 35002KT CAVOK 18/12 Q1017,
SBMT,2024-06-29 01:00,64.40,53.60,67.95,310.00,3.00,0.00,30.03,,6.21,,,,,,,,,,,,,,,,,64.40,SBMT 290100Z 31003KT CAVOK 18/12 Q1017,
SBMT,2024-06-29 02:00,62.60,53.60,72.38,0.00,0.00,0.00,30.06,,6.21,,,,,,,,,,,,,,,,,62.60,SBMT 290200Z 00000KT CAVOK 17/12 Q1018,
SBMT,2024-06-29 09:00,55.40,51.80,87.65,0.00,0.00,0.00,30.00,,6.21,,,,,,,,,,,,,,,,,55.40,SBMT 290900Z 00000KT CAVOK 13/11 Q1016,
SBMT,2024-06-29 10:00,57.20,51.80,82.12,20.00,2.00,0.00,30.03,,6.21,,,,,,,,,,,,,,,,,57.20,SBMT 291000Z 02002KT CAVOK 14/11 Q1017,
SBMT,2024-06-29 11:00,62.60,53.60,72.38,80.00,2.00,0.00,30.06,,6.21,,,,,,,,,,,,,,,,,62.60,SBMT 291100Z 08002KT CAVOK 17/12 Q1018,
SBMT,2024-06-29 12:00,66.20,55.40,68.15,70.00,3.00,0.00,30.09,,6.21,,,,,,,,,,,,,,,,,66.20,SBMT 291200Z 07003KT CAVOK 19/13 Q1019,
SBMT,2024-06-29 13:00,69.80,53.60,56.38,0.00,0.00,0.00,30.09,,6.21,,,,,,,,,,,,,,,,,69.80,SBMT 291300Z 00000KT CAVOK 21/12 Q1019,
SBMT,2024-06-29 14:00,73.40,53.60,49.90,50.00,2.00,0.00,30.09,,6.21,,,,,,,,,,,,,,,,,73.40,SBMT 291400Z 05002KT CAVOK 23/12 Q1019,
SBMT,2024-06-29 15:00,75.20,53.60,46.98,230.00,6.00,0.00,30.06,,6.21,,,,,,,,,,,,,,,,,75.20,SBMT 291500Z 23006KT CAVOK 24/12 Q1018,
SBMT,2024-06-29 16:00,75.20,55.40,50.17,180.00,4.00,0.00,30.03,,6.21,,,,,,,,,,,,,,,,,75.20,SBMT 291600Z 18004KT CAVOK 24/13 Q1017,
SBMT,2024-06-29 17:00,77.00,55.40,47.25,210.00,5.00,0.00,30.00,,6.21,,,,,,,,,,,,,,,,,77.00,SBMT 291700Z 21005KT CAVOK 25/13 Q1016,
SBMT,2024-06-29 18:00,73.40,60.80,64.69,150.00,7.00,0.00,30.00,,6.21,,,,,,,,,,,,,,,,,73.40,SBMT 291800Z 15007KT CAVOK 23/16 Q1016,
SBMT,2024-06-29 19:00,66.20,59.00,77.60,130.00,11.00,0.00,30.03,,6.21,,SCT,BKN,,,4000.00,10000.00,,,,,,,,,,66.20,SBMT 291900Z 13011KT 9999 SCT040 BKN100 19/15 Q1017,
SBMT,2024-06-29 20:00,64.40,59.00,82.62,140.00,7.00,0.00,30.06,,6.21,,FEW,SCT,BKN,,1500.00,4000.00,10000.00,,,,,,,,,64.40,SBMT 292000Z 14007KT 9999 FEW015 SCT040 BKN100 18/15 Q1018,
SBMT,2024-06-29 21:00,62.60,59.00,88.00,150.00,7.00,0.00,30.09,,6.21,,SCT,BKN,BKN,,1300.00,1500.00,10000.00,,,,,,,,,62.60,SBMT 292100Z 15007KT 9999 SCT013 BKN015 BKN100 17/15 Q1019,
SBMT,2024-06-29 22:00,60.80,57.20,87.92,140.00,7.00,0.00,30.09,,6.21,,FEW,BKN,BKN,,800.00,1100.00,1500.00,,,,,,,,,60.80,SBMT 292200Z 14007KT 9999 FEW008 BKN011 BKN015 16/14 Q1019,
SBMT,2024-06-29 23:00,60.80,57.20,87.92,140.00,5.00,0.00,30.12,,6.21,,OVC,,,,1000.00,,,,,,,,,,,60.80,SBMT 292300Z 14005KT 9999 OVC010 16/14 Q1020,
SBMT,2024-06-30 00:00,60.80,57.20,87.92,140.00,3.00,0.00,30.12,,6.21,,SCT,BKN,,,1300.00,10000.00,,,,,,,,,,60.80,SBMT 300000Z 14003KT 9999 SCT013 BKN100 16/14 Q1020,
SBMT,2024-06-30 01:00,60.80,57.20,87.92,100.00,4.00,0.00,30.12,,6.21,,SCT,BKN,,,1300.00,10000.00,,,,,,,,,,60.80,SBMT 300100Z 10004KT 9999 SCT013 BKN100 16/14 Q1020,
SBMT,2024-06-30 02:00,60.80,57.20,87.92,120.00,7.00,0.00,30.12,,6.21,,BKN,BKN,,,1500.00,10000.00,,,,,,,,,,60.80,SBMT 300200Z 12007KT 9999 BKN015 BKN100 16/14 Q1020,
SBMT,2024-06-30 09:00,57.20,50.00,76.82,130.00,9.00,0.00,30.12,,6.21,,FEW,BKN,,,1700.00,3000.00,,,-RA,,,,,,,57.20,SBMT 300900Z 13009KT 100V160 9999 -RA FEW017 BKN030 14/10 Q1020,
SBMT,2024-06-30 10:00,57.20,50.00,76.82,120.00,5.00,0.00,30.15,,6.21,,FEW,BKN,,,1700.00,2100.00,,,-RA,,,,,,,57.20,SBMT 301000Z 12005KT 090V160 9999 -RA FEW017 BKN021 14/10 Q1021,
SBMT,2024-06-30 11:00,57.20,51.80,82.12,110.00,7.00,0.00,30.15,,6.21,,SCT,OVC,,,1300.00,1500.00,,,,,,,,,,57.20,SBMT 301100Z 11007KT 9999 SCT013 OVC015 14/11 Q1021,
SBMT,2024-06-30 12:00,57.20,50.00,76.82,120.00,8.00,0.00,30.15,,6.21,,SCT,OVC,,,1500.00,1700.00,,,,,,,,,,57.20,SBMT 301200Z 12008KT 9999 SCT015 OVC017 14/10 Q1021,
SBMT,2024-06-30 13:00,55.40,50.00,81.99,150.00,8.00,0.00,30.18,,6.21,,SCT,BKN,,,1100.00,1300.00,,,,,,,,,,55.40,SBMT 301300Z 15008KT 110V180 9999 SCT011 BKN013 13/10 Q1022,
SBMT,2024-06-30 13:05,55.40,50.00,81.99,140.00,7.00,0.00,30.18,,6.21,,BKN,BKN,,,1100.00,1300.00,,,,,,,,,,55.40,SBMT 301305Z 14007KT 110V180 9999 BKN011 BKN013 13/10 Q1022,
SBMT,2024-06-30 14:00,55.40,50.00,81.99,130.00,6.00,0.00,30.18,,4.97,,BKN,BKN,,,900.00,1300.00,,,-DZ,,,,,,,55.40,SBMT 301400Z 13006KT 090V190 8000 -DZ BKN009 BKN013 13/10 Q1022,
SBMT,2024-06-30 15:00,55.40,50.00,81.99,130.00,6.00,0.00,30.18,,6.21,,BKN,BKN,,,900.00,1100.00,,,-DZ,,,,,,,55.40,SBMT 301500Z 13006KT 090V170 9999 -DZ BKN009 BKN011 13/10 Q1022,
SBMT,2024-06-30 16:00,53.60,50.00,87.56,130.00,6.00,0.00,30.15,,3.11,,BKN,OVC,,,800.00,900.00,,,-DZ,,,,,,,53.60,SBMT 301600Z 13006KT 080V180 5000 -DZ BKN008 OVC009 12/10 Q1021,
SBMT,2024-06-30 17:00,53.60,50.00,87.56,170.00,7.00,0.00,30.15,,3.11,,BKN,,,,900.00,,,,BR,,,,,,,53.60,SBMT 301700Z 17007KT 5000 BR BKN009 12/10 Q1021,
SBMT,2024-06-30 18:00,53.60,50.00,87.56,140.00,5.00,0.00,30.15,,4.35,,BKN,,,,900.00,,,,,,,,,,,53.60,SBMT 301800Z 14005KT 7000 BKN009 12/10 Q1021,
SBMT,2024-06-30 19:00,53.60,50.00,87.56,150.00,6.00,0.00,30.15,,4.35,,BKN,,,,900.00,,,,,,,,,,,53.60,SBMT 301900Z 15006KT 7000 BKN009 12/10 Q1021,
SBMT,2024-06-30 20:00,53.60,50.00,87.56,140.00,6.00,0.00,30.15,,3.11,,SCT,BKN,,,900.00,1100.00,,,BR,,,,,,,53.60,SBMT 302000Z 14006KT 5000 BR SCT009 BKN011 12/10 Q1021,
SBMT,2024-06-30 21:00,53.60,50.00,87.56,130.00,6.00,0.00,30.18,,1.86,,SCT,BKN,,,900.00,1100.00,,,BR,,,,,,,53.60,SBMT 302100Z 13006KT 3000 BR SCT009 BKN011 12/10 Q1022,
SBMT,2024-06-30 22:00,53.60,50.00,87.56,120.00,5.00,0.00,30.18,,1.24,,BKN,,,,900.00,,,,BR,,,,,,,53.60,SBMT 302200Z 12005KT 2000 BR BKN009 12/10 Q1022,
SBMT,2024-06-30 23:00,53.60,50.00,87.56,90.00,6.00,0.00,30.18,,1.86,,BKN,,,,900.00,,,,BR,,,,,,,53.60,SBMT 302300Z 09006KT 3000 BR BKN009 12/10 Q1022,
SBMT,2024-07-01 00:00,53.60,50.00,87.56,110.00,7.00,0.00,30.18,,4.35,,SCT,BKN,,,900.00,1100.00,,,,,,,,,,53.60,SBMT 010000Z 11007KT 7000 SCT009 BKN011 12/10 Q1022,
SBMT,2024-07-01 01:00,53.60,50.00,87.56,100.00,6.00,0.00,30.21,,4.35,,BKN,,,,900.00,,,,,,,,,,,53.60,SBMT 010100Z 10006KT 7000 BKN009 12/10 Q1023,
SBMT,2024-07-01 02:00,53.60,50.00,87.56,100.00,6.00,0.00,30.21,,3.11,,BKN,,,,900.00,,,,BR,,,,,,,53.60,SBMT 010200Z 10006KT 5000 BR BKN009 12/10 Q1023,
SBMT,2024-07-01 09:00,53.60,51.80,93.60,120.00,6.00,0.00,30.15,,5.59,,OVC,,,,900.00,,,,,,,,,,,53.60,SBMT 010900Z 12006KT 9000 OVC009 12/11 Q1021,
SBMT,2024-07-01 10:00,55.40,51.80,87.65,120.00,5.00,0.00,30.18,,6.21,,OVC,,,,900.00,,,,,,,,,,,55.40,SBMT 011000Z 12005KT 9999 OVC009 13/11 Q1022,
SBMT,2024-07-01 11:00,55.40,51.80,87.65,110.00,8.00,0.00,30.21,,6.21,,OVC,,,,1000.00,,,,,,,,,,,55.40,SBMT 011100Z 11008KT 9999 OVC010 13/11 Q1023,
SBMT,2024-07-01 12:00,57.20,51.80,82.12,90.00,6.00,0.00,30.24,,6.21,,OVC,,,,1100.00,,,,,,,,,,,57.20,SBMT 011200Z 09006KT 9999 OVC011 14/11 Q1024,
SBMT,2024-07-01 13:00,57.20,51.80,82.12,80.00,7.00,0.00,30.24,,6.21,,OVC,,,,1100.00,,,,,,,,,,,57.20,SBMT 011300Z 08007KT 9999 OVC011 14/11 Q1024,
SBMT,2024-07-01 14:00,59.00,53.60,82.25,60.00,4.00,0.00,30.24,,6.21,,OVC,,,,1200.00,,,,,,,,,,,59.00,SBMT 011400Z 06004KT 9999 OVC012 15/12 Q1024,
SBMT,2024-07-01 15:00,59.00,53.60,82.25,90.00,7.00,0.00,30.24,,6.21,,SCT,BKN,,,1400.00,10000.00,,,,,,,,,,59.00,SBMT 011500Z 09007KT 9999 SCT014 BKN100 15/12 Q1024,
SBMT,2024-07-01 16:00,59.00,53.60,82.25,150.00,4.00,0.00,30.18,,6.21,,BKN,BKN,,,1500.00,10000.00,,,,,,,,,,59.00,SBMT 011600Z 15004KT 9999 BKN015 BKN100 15/12 Q1022,
SBMT,2024-07-01 17:00,60.80,53.60,77.14,100.00,3.00,0.00,30.18,,6.21,,SCT,BKN,,,1700.00,2100.00,,,,,,,,,,60.80,SBMT 011700Z 10003KT 9999 SCT017 BKN021 16/12 Q1022,
SBMT,2024-07-01 18:00,62.60,53.60,72.38,50.00,5.00,0.00,30.18,,6.21,,SCT,BKN,,,2100.00,3000.00,,,,,,,,,,62.60,SBMT 011800Z 05005KT 9999 SCT021 BKN030 17/12 Q1022,
SBMT,2024-07-01 19:00,62.60,53.60,72.38,30.00,3.00,0.00,30.18,,6.21,,,,,,,,,,,,,,,,,62.60,SBMT 011900Z 03003KT CAVOK 17/12 Q1022,
SBMT,2024-07-01 20:00,60.80,53.60,77.14,60.00,4.00,0.00,30.18,,6.21,,,,,,,,,,,,,,,,,60.80,SBMT 012000Z 06004KT CAVOK 16/12 Q1022,
SBMT,2024-07-01 21:00,59.00,53.60,82.25,50.00,3.00,0.00,30.21,,6.21,,,,,,,,,,,,,,,,,59.00,SBMT 012100Z 05003KT CAVOK 15/12 Q1023,
SBMT,2024-07-01 22:00,59.00,55.40,87.83,60.00,4.00,0.00,30.21,,4.97,,NSC,,,,,,,,,,,,,,,59.00,SBMT 012200Z 06004KT 8000 NSC 15/13 Q1023,
SBMT,2024-07-01 23:00,57.20,55.40,93.69,100.00,3.00,0.00,30.21,,6.21,,,,,,,,,,,,,,,,,57.20,SBMT 012300Z 10003KT CAVOK 14/13 Q1023,
SBMT,2024-07-02 00:00,53.60,51.80,93.60,110.00,2.00,0.00,30.21,,3.73,,NSC,,,,,,,,,,,,,,,53.60,SBMT 020000Z 11002KT 6000 NSC 12/11 Q1023,
SBMT,2024-07-02 01:00,51.80,51.80,100.00,90.00,3.00,0.00,30.21,,1.86,,NSC,,,,,,,,BR MIFG,,,,,,,51.80,SBMT 020100Z 09003KT 3000 BR MIFG NSC 11/11 Q1023,
SBMT,2024-07-02 02:00,55.40,53.60,93.65,60.00,5.00,0.00,30.24,,0.50,,BKN,,,,500.00,,,,FG,,,,,,,55.40,SBMT 020200Z 06005KT 0800 FG BKN005 13/12 Q1024,
SBMT,2024-07-02 09:00,53.60,51.80,93.60,70.00,6.00,0.00,30.21,,2.49,,BKN,,,,600.00,,,,BR,,,,,,,53.60,SBMT 020900Z 07006KT 4000 BR BKN006 12/11 Q1023,
SBMT,2024-07-02 10:00,55.40,51.80,87.65,80.00,5.00,0.00,30.21,,2.49,,BKN,,,,800.00,,,,BR,,,,,,,55.40,SBMT 021000Z 08005KT 4000 BR BKN008 13/11 Q1023,
SBMT,2024-07-02 11:00,55.40,50.00,81.99,90.00,7.00,0.00,30.24,,3.11,,BKN,,,,800.00,,,,BR,,,,,,,55.40,SBMT 021100Z 09007KT 5000 BR BKN008 13/10 Q1024,
SBMT,2024-07-02 12:00,57.20,50.00,76.82,80.00,8.00,0.00,30.24,,6.21,,SCT,,,,1100.00,,,,,,,,,,,57.20,COR SBMT 021200Z 08008KT 9999 SCT011 14/10 Q1024,
SBMT,2024-07-02 13:00,59.00,50.00,72.01,100.00,8.00,0.00,30.27,,6.21,,FEW,,,,1300.00,,,,,,,,,,,59.00,SBMT 021300Z 10008KT 9999 FEW013 15/10 Q1025,
SBMT,2024-07-02 14:00,60.80,50.00,67.54,80.00,6.00,0.00,30.24,,6.21,,,,,,,,,,,,,,,,,60.80,SBMT 021400Z 08006KT CAVOK 16/10 Q1024,
SBMT,2024-07-02 15:00,64.40,51.80,63.60,60.00,4.00,0.00,30.21,,6.21,,,,,,,,,,,,,,,,,64.40,SBMT 021500Z 06004KT CAVOK 18/11 Q1023,
SBMT,2024-07-02 16:00,69.80,51.80,52.77,120.00,3.00,0.00,30.18,,6.21,,,,,,,,,,,,,,,,,69.80,SBMT 021600Z 12003KT CAVOK 21/11 Q1022,
SBMT,2024-07-02 17:00,73.40,53.60,49.90,230.00,3.00,0.00,30.15,,6.21,,,,,,,,,,,,,,,,,73.40,SBMT 021700Z 23003KT CAVOK 23/12 Q1021,
SBMT,2024-07-02 18:00,75.20,51.80,43.97,60.00,2.00,0.00,30.12,,6.21,,,,,,,,,,,,,,,,,75.20,SBMT 021800Z 06002KT CAVOK 24/11 Q1020,
SBMT,2024-07-02 19:00,75.20,48.20,38.46,310.00,7.00,0.00,30.12,,6.21,,,,,,,,,,,,,,,,,75.20,SBMT 021900Z 31007KT CAVOK 24/09 Q1020,
SBMT,2024-07-02 20:00,75.20,50.00,41.14,350.00,2.00,0.00,30.12,,6.21,,,,,,,,,,,,,,,,,75.20,SBMT 022000Z 35002KT CAVOK 24/10 Q1020,
SBMT,2024-07-02 21:00,66.20,51.80,59.74,350.00,2.00,0.00,30.15,,6.21,,,,,,,,,,,,,,,,,66.20,SBMT 022100Z 35002KT CAVOK 19/11 Q1021,
SBMT,2024-07-02 22:00,66.20,55.40,68.15,80.00,4.00,0.00,30.15,,6.21,,,,,,,,,,,,,,,,,66.20,SBMT 022200Z 08004KT CAVOK 19/13 Q1021,
SBMT,2024-07-02 23:00,64.40,57.20,77.45,100.00,4.00,0.00,30.15,,6.21,,,,,,,,,,,,,,,,,64.40,SBMT 022300Z 10004KT CAVOK 18/14 Q1021,
SBMT,2024-07-03 00:00,62.60,57.20,82.50,100.00,4.00,0.00,30.15,,6.21,,,,,,,,,,,,,,,,,62.60,SBMT 030000Z 10004KT CAVOK 17/14 Q1021,
SBMT,2024-07-03 01:00,59.00,55.40,87.83,80.00,2.00,0.00,30.15,,6.21,,,,,,,,,,,,,,,,,59.00,SBMT 030100Z 08002KT CAVOK 15/13 Q1021,
SBMT,2024-07-03 02:00,59.00,55.40,87.83,100.00,4.00,0.00,30.15,,6.21,,,,,,,,,,,,,,,,,59.00,SBMT 030200Z 10004KT CAVOK 15/13 Q1021,
SBMT,2024-07-03 09:00,55.40,55.40,100.00,50.00,3.00,0.00,30.15,,0.62,,BKN,,,,400.00,,,,BR,,,,,,,55.40,SBMT 030900Z 05003KT 1000 BR BKN004 13/13 Q1021,
SBMT,2024-07-03 10:00,55.40,53.60,93.65,40.00,3.00,0.00,30.15,,0.50,,VV ,,,,200.00,,,,FG,,,,,,,55.40,SBMT 031000Z 04003KT 0800 FG VV002 13/12 Q1021,
SBMT,2024-07-03 11:00,55.40,55.40,100.00,90.00,4.00,0.00,30.21,,0.62,,BKN,,,,300.00,,,,BR,,,,,,,55.40,SBMT 031100Z 09004KT 1000 BR BKN003 13/13 Q1023,
SBMT,2024-07-03 12:00,57.20,55.40,93.69,,2.00,0.00,30.21,,3.11,,BKN,,,,700.00,,,,BR,,,,,,,57.20,SBMT 031200Z VRB02KT 5000 BR BKN007 14/13 Q1023,
SBMT,2024-07-03 12:05,57.20,55.40,93.69,70.00,3.00,0.00,30.21,,3.11,,SCT,,,,700.00,,,,BR,,,,,,,57.20,SBMT 031205Z 07003KT 5000 BR SCT007 14/13 Q1023,
SBMT,2024-07-03 13:00,62.60,55.40,77.29,90.00,3.00,0.00,30.21,,6.21,,,,,,,,,,,,,,,,,62.60,SBMT 031300Z 09003KT 020V140 CAVOK 17/13 Q1023,
SBMT,2024-07-03 14:00,68.00,55.40,64.04,20.00,2.00,0.00,30.18,,6.21,,,,,,,,,,,,,,,,,68.00,SBMT 031400Z 02002KT CAVOK 20/13 Q1022,
SBMT,2024-07-03 15:00,75.20,53.60,46.98,30.00,3.00,0.00,30.15,,6.21,,,,,,,,,,,,,,,,,75.20,SBMT 031500Z 03003KT CAVOK 24/12 Q1021,
SBMT,2024-07-03 16:00,77.00,50.00,38.74,250.00,5.00,0.00,30.12,,6.21,,,,,,,,,,,,,,,,,77.00,SBMT 031600Z 25005KT CAVOK 25/10 Q1020,
SBMT,2024-07-03 17:00,77.00,46.40,33.85,280.00,8.00,0.00,30.09,,6.21,,,,,,,,,,,,,,,,,77.00,SBMT 031700Z 28008KT CAVOK 25/08 Q1019,
SBMT,2024-07-03 18:00,78.80,41.00,25.95,260.00,10.00,0.00,30.06,,6.21,,,,,,,,,,,,,,,,,78.80,SBMT 031800Z 26010KT CAVOK 26/05 Q1018,
SBMT,2024-07-03 19:00,77.00,41.00,27.53,290.00,9.00,0.00,30.06,,6.21,,,,,,,,,,,,,,,,,77.00,SBMT 031900Z 29009KT CAVOK 25/05 Q1018,
SBMT,2024-07-03 20:00,75.20,42.80,31.34,280.00,7.00,0.00,30.06,,6.21,,,,,,,,,,,,,,,,,75.20,SBMT 032000Z 28007KT CAVOK 24/06 Q1018,
SBMT,2024-07-03 21:00,69.80,46.40,43.13,310.00,2.00,0.00,30.06,,6.21,,,,,,,,,,,,,,,,,69.80,SBMT 032100Z 31002KT CAVOK 21/08 Q1018,
SBMT,2024-07-03 22:00,64.40,48.20,55.63,0.00,0.00,0.00,30.09,,6.21,,,,,,,,,,,,,,,,,64.40,SBMT 032200Z 00000KT CAVOK 18/09 Q1019,
SBMT,2024-07-03 23:00,62.60,48.20,59.26,0.00,0.00,0.00,30.09,,6.21,,,,,,,,,,,,,,,,,62.60,SBMT 032300Z 00000KT CAVOK 17/09 Q1019,
SBMT,2024-07-04 00:00,60.80,48.20,63.15,0.00,0.00,0.00,30.09,,6.21,,,,,,,,,,,,,,,,,60.80,SBMT 040000Z 00000KT CAVOK 16/09 Q1019,
SBMT,2024-07-04 01:00,60.80,50.00,67.54,0.00,0.00,0.00,30.12,,6.21,,,,,,,,,,,,,,,,,60.80,SBMT 040100Z 00000KT CAVOK 16/10 Q1020,
SBMT,2024-07-04 02:00,59.00,48.20,67.33,0.00,0.00,0.00,30.09,,6.21,,,,,,,,,,,,,,,,,59.00,SBMT 040200Z 00000KT CAVOK 15/09 Q1019,
SBMT,2024-07-04 09:00,62.60,55.40,77.29,60.00,3.00,0.00,30.06,,6.21,,,,,,,,,,,,,,,,,62.60,SBMT 040900Z 06003KT CAVOK 17/13 Q1018,
SBMT,2024-07-04 10:00,59.00,55.40,87.83,90.00,2.00,0.00,30.09,,4.97,,NSC,,,,,,,,,,,,,,,59.00,SBMT 041000Z 09002KT 8000 NSC 15/13 Q1019,
SBMT,2024-07-04 11:00,62.60,55.40,77.29,70.00,3.00,0.00,30.12,,4.97,,NSC,,,,,,,,,,,,,,,62.60,SBMT 041100Z 07003KT 8000 NSC 17/13 Q1020,
SBMT,2024-07-04 12:00,64.40,55.40,72.56,90.00,2.00,0.00,30.12,,4.97,,NSC,,,,,,,,,,,,,,,64.40,SBMT 041200Z 09002KT 8000 NSC 18/13 Q1020,
SBMT,2024-07-04 13:00,68.00,55.40,64.04,80.00,3.00,0.00,30.15,,4.97,,NSC,,,,,,,,,,,,,,,68.00,SBMT 041300Z 08003KT 8000 NSC 20/13 Q1021,
SBMT,2024-07-04 14:00,68.00,53.60,59.97,70.00,3.00,0.00,30.15,,4.97,,NSC,,,,,,,,,,,,,,,68.00,SBMT 041400Z 07003KT 8000 NSC 20/12 Q1021,
SBMT,2024-07-04 15:00,71.60,53.60,53.03,70.00,3.00,0.00,30.12,,4.97,,NSC,,,,,,,,,,,,,,,71.60,SBMT 041500Z 07003KT 8000 NSC 22/12 Q1020,
SBMT,2024-07-04 16:00,75.20,53.60,46.98,0.00,0.00,0.00,30.09,,4.97,,NSC,,,,,,,,,,,,,,,75.20,SBMT 041600Z 00000KT 8000 NSC 24/12 Q1019,
SBMT,2024-07-04 17:00,78.80,50.00,36.51,,2.00,0.00,30.06,,6.21,,,,,,,,,,,,,,,,,78.80,SBMT 041700Z VRB02KT CAVOK 26/10 Q1018,
SBMT,2024-07-04 18:00,78.80,44.60,29.79,300.00,5.00,0.00,30.06,,6.21,,,,,,,,,,,,,,,,,78.80,SBMT 041800Z 30005KT 250V360 CAVOK 26/07 Q1018,
SBMT,2024-07-04 19:00,77.00,48.20,36.22,270.00,6.00,0.00,30.06,,6.21,,,,,,,,,,,,,,,,,77.00,SBMT 041900Z 27006KT CAVOK 25/09 Q1018,
SBMT,2024-07-04 20:00,75.20,48.20,38.46,280.00,3.00,0.00,30.06,,6.21,,,,,,,,,,,,,,,,,75.20,SBMT 042000Z 28003KT CAVOK 24/09 Q1018,
SBMT,2024-07-04 21:00,71.60,50.00,46.43,0.00,0.00,0.00,30.09,,6.21,,,,,,,,,,,,,,,,,71.60,SBMT 042100Z 00000KT CAVOK 22/10 Q1019,
SBMT,2024-07-04 22:00,68.00,53.60,59.97,0.00,0.00,0.00,30.09,,6.21,,,,,,,,,,,,,,,,,68.00,SBMT 042200Z 00000KT CAVOK 20/12 Q1019,
SBMT,2024-07-04 23:00,68.00,53.60,59.97,,1.00,0.00,30.12,,6.21,,,,,,,,,,,,,,,,,68.00,SBMT 042300Z VRB01KT CAVOK 20/12 Q1020,
SBMT,2024-07-05 00:00,69.80,53.60,56.38,50.00,4.00,0.00,30.12,,6.21,,,,,,,,,,,,,,,,,69.80,SBMT 050000Z 05004KT CAVOK 21/12 Q1020,
SBMT,2024-07-05 01:00,62.60,53.60,72.38,0.00,0.00,0.00,30.12,,6.21,,,,,,,,,,,,,,,,,62.60,SBMT 050100Z 00000KT CAVOK 17/12 Q1020,
SBMT,2024-07-05 02:00,59.00,53.60,82.25,0.00,0.00,0.00,30.12,,6.21,,,,,,,,,,,,,,,,,59.00,SBMT 050200Z 00000KT CAVOK 15/12 Q1020,
SBMT,2024-07-05 09:00,51.80,51.80,100.00,0.00,0.00,0.00,30.12,,6.21,,,,,,,,,,,,,,,,,51.80,SBMT 050900Z 00000KT CAVOK 11/11 Q1020,
SBMT,2024-07-05 10:00,51.80,51.80,100.00,120.00,2.00,0.00,30.15,,1.86,,NSC,,,,,,,,BR,,,,,,,51.80,SBMT 051000Z 12002KT 3000 BR NSC 11/11 Q1021,
SBMT,2024-07-05 11:00,60.80,57.20,87.92,110.00,3.00,0.00,30.18,,4.35,,NSC,,,,,,,,,,,,,,,60.80,SBMT 051100Z 11003KT 7000 NSC 16/14 Q1022,
SBMT,2024-07-05 12:00,64.40,55.40,72.56,110.00,3.00,0.00,30.18,,4.97,,NSC,,,,,,,,,,,,,,,64.40,SBMT 051200Z 11003KT 8000 NSC 18/13 Q1022,
SBMT,2024-07-05 13:00,68.00,53.60,59.97,100.00,3.00,0.00,30.21,,6.21,,,,,,,,,,,,,,,,,68.00,SBMT 051300Z 10003KT CAVOK 20/12 Q1023,
SBMT,2024-07-05 14:00,75.20,51.80,43.97,0.00,0.00,0.00,30.18,,6.21,,,,,,,,,,,,,,,,,75.20,SBMT 051400Z 00000KT CAVOK 24/11 Q1022,
SBMT,2024-07-05 15:00,78.80,44.60,29.79,260.00,3.00,0.00,30.15,,6.21,,,,,,,,,,,,,,,,,78.80,SBMT 051500Z 26003KT CAVOK 26/07 Q1021,
SBMT,2024-07-05 16:00,77.00,41.00,27.53,100.00,3.00,0.00,30.15,,6.21,,,,,,,,,,,,,,,,,77.00,SBMT 051600Z 10003KT CAVOK 25/05 Q1021,
SBMT,2024-07-05 17:00,80.60,41.00,24.46,130.00,3.00,0.00,30.12,,6.21,,,,,,,,,,,,,,,,,79.20,SBMT 051700Z 13003KT CAVOK 27/05 Q1020,
SBMT,2024-07-05 18:00,80.60,41.00,24.46,10.00,4.00,0.00,30.09,,6.21,,,,,,,,,,,,,,,,,79.20,SBMT 051800Z 01004KT CAVOK 27/05 Q1019,
SBMT,2024-07-05 19:00,77.00,42.80,29.51,310.00,5.00,0.00,30.09,,6.21,,,,,,,,,,,,,,,,,77.00,SBMT 051900Z 31005KT CAVOK 25/06 Q1019,
SBMT,2024-07-05 20:00,73.40,44.60,35.66,290.00,4.00,0.00,30.12,,6.21,,,,,,,,,,,,,,,,,73.40,SBMT 052000Z 29004KT CAVOK 23/07 Q1020,
SBMT,2024-07-05 21:00,71.60,46.40,40.57,330.00,2.00,0.00,30.12,,6.21,,,,,,,,,,,,,,,,,71.60,SBMT 052100Z 33002KT CAVOK 22/08 Q1020,
SBMT,2024-07-05 22:00,69.80,48.20,46.16,0.00,0.00,0.00,30.15,,6.21,,,,,,,,,,,,,,,,,69.80,SBMT 052200Z 00000KT CAVOK 21/09 Q1021,
SBMT,2024-07-05 23:00,68.00,50.00,52.51,270.00,3.00,0.00,30.15,,6.21,,,,,,,,,,,,,,,,,68.00,SBMT 052300Z 27003KT CAVOK 20/10 Q1021,
SBMT,2024-07-06 00:00,64.40,50.00,59.50,0.00,0.00,0.00,30.15,,6.21,,,,,,,,,,,,,,,,,64.40,SBMT 060000Z 00000KT CAVOK 18/10 Q1021,
SBMT,2024-07-06 01:00,62.60,48.20,59.26,0.00,0.00,0.00,30.18,,6.21,,,,,,,,,,,,,,,,,62.60,SBMT 060100Z 00000KT CAVOK 17/09 Q1022,
SBMT,2024-07-06 02:00,62.60,50.00,63.38,0.00,0.00,0.00,30.18,,6.21,,,,,,,,,,,,,,,,,62.60,SBMT 060200Z 00000KT CAVOK 17/10 Q1022,
SBMT,2024-07-06 09:00,60.80,53.60,77.14,120.00,6.00,0.00,30.21,,5.59,,BKN,,,,1900.00,,,,,,,,,,,60.80,SBMT 060900Z 12006KT 9000 BKN019 16/12 Q1023,
SBMT,2024-07-06 10:00,60.80,53.60,77.14,130.00,5.00,0.00,30.24,,5.59,,BKN,,,,1700.00,,,,,,,,,,,60.80,SBMT 061000Z 13005KT 9000 BKN017 16/12 Q1024,
SBMT,2024-07-06 11:00,60.80,55.40,82.37,160.00,6.00,0.00,30.24,,6.21,,SCT,BKN,,,1500.00,1700.00,,,,,,,,,,60.80,SBMT 061100Z 16006KT 9999 SCT015 BKN017 16/13 Q1024,
SBMT,2024-07-06 12:00,60.80,55.40,82.37,130.00,7.00,0.00,30.27,,6.21,,BKN,,,,1500.00,,,,,,,,,,,60.80,SBMT 061200Z 13007KT 9999 BKN015 16/13 Q1025,
SBMT,2024-07-06 13:00,62.60,53.60,72.38,170.00,6.00,0.00,30.30,,6.21,,BKN,,,,2300.00,,,,,,,,,,,62.60,SBMT 061300Z 17006KT 9999 BKN023 17/12 Q1026,
SBMT,2024-07-06 14:00,64.40,51.80,63.60,150.00,5.00,0.00,30.27,,6.21,,BKN,,,,2600.00,,,,,,,,,,,64.40,SBMT 061400Z 15005KT 9999 BKN026 18/11 Q1025,
SBMT,2024-07-06 15:00,68.00,53.60,59.97,150.00,7.00,0.00,30.27,,6.21,,BKN,,,,2600.00,,,,,,,,,,,68.00,SBMT 061500Z 15007KT 9999 BKN026 20/12 Q1025,
SBMT,2024-07-06 16:00,66.20,53.60,63.82,170.00,7.00,0.00,30.24,,6.21,,BKN,,,,2600.00,,,,,,,,,,,66.20,SBMT 061600Z 17007KT 9999 BKN026 19/12 Q1024,
SBMT,2024-07-06 17:00,68.00,53.60,59.97,180.00,7.00,0.00,30.21,,6.21,,BKN,,,,2600.00,,,,,,,,,,,68.00,SBMT 061700Z 18007KT 110V220 9999 BKN026 20/12 Q1023,
SBMT,2024-07-06 18:00,66.20,53.60,63.82,150.00,8.00,0.00,30.21,,6.21,,BKN,,,,2500.00,,,,,,,,,,,66.20,SBMT 061800Z 15008KT 090V200 9999 BKN025 19/12 Q1023,
SBMT,2024-07-06 19:00,66.20,53.60,63.82,150.00,7.00,0.00,30.21,,6.21,,BKN,,,,2300.00,,,,,,,,,,,66.20,SBMT 061900Z 15007KT 110V190 9999 BKN023 19/12 Q1023,
SBMT,2024-07-06 20:00,64.40,53.60,67.95,130.00,8.00,0.00,30.21,,6.21,,BKN,,,,2300.00,,,,,,,,,,,64.40,SBMT 062000Z 13008KT 100V160 9999 BKN023 18/12 Q1023,
SBMT,2024-07-06 21:00,62.60,53.60,72.38,120.00,8.00,0.00,30.21,,6.21,,BKN,,,,2300.00,,,,,,,,,,,62.60,SBMT 062100Z 12008KT 9999 BKN023 17/12 Q1023,
SBMT,2024-07-06 22:00,60.80,53.60,77.14,130.00,7.00,0.00,30.21,,6.21,,BKN,,,,2300.00,,,,,,,,,,,60.80,SBMT 062200Z 13007KT 100V160 9999 BKN023 16/12 Q1023,
SBMT,2024-07-06 23:00,60.80,53.60,77.14,80.00,7.00,0.00,30.21,,6.21,,SCT,BKN,,,1900.00,2000.00,,,,,,,,,,60.80,SBMT 062300Z 08007KT 050V110 9999 SCT019 BKN020 16/12 Q1023,
SBMT,2024-07-07 00:00,62.60,53.60,72.38,100.00,9.00,0.00,30.21,,6.21,,BKN,OVC,,,1700.00,1900.00,,,,,,,,,,62.60,SBMT 070000Z 10009KT 070V150 9999 BKN017 OVC019 17/12 Q1023,
SBMT,2024-07-07 01:00,60.80,53.60,77.14,100.00,7.00,0.00,30.21,,6.21,,SCT,,,,1700.00,,,,,,,,,,,60.80,SBMT 070100Z 10007KT 9999 SCT017 16/12 Q1023,
SBMT,2024-07-07 02:00,60.80,53.60,77.14,90.00,6.00,0.00,30.21,,6.21,,SCT,BKN,,,1300.00,1500.00,,,,,,,,,,60.80,SBMT 070200Z 09006KT 9999 SCT013 BKN015 16/12 Q1023,
SBMT,2024-07-07 09:00,57.20,55.40,93.69,90.00,8.00,0.00,30.12,,4.97,,BKN,,,,700.00,,,,,,,,,,,57.20,SBMT 070900Z 09008KT 8000 BKN007 14/13 Q1020,
SBMT,2024-07-07 10:00,57.20,55.40,93.69,80.00,7.00,0.00,30.15,,2.49,,OVC,,,,500.00,,,,BR,,,,,,,57.20,SBMT 071000Z 08007KT 4000 BR OVC005 14/13 Q1021,
SBMT,2024-07-07 11:00,57.20,55.40,93.69,70.00,7.00,0.00,30.15,,2.49,,OVC,,,,600.00,,,,BR,,,,,,,57.20,SBMT 071100Z 07007KT 4000 BR OVC006 14/13 Q1021,
SBMT,2024-07-07 12:00,59.00,55.40,87.83,90.00,8.00,0.00,30.15,,3.11,,OVC,,,,700.00,,,,BR,,,,,,,59.00,SBMT 071200Z 09008KT 5000 BR OVC007 15/13 Q1021,
SBMT,2024-07-07 13:00,60.80,57.20,87.92,80.00,6.00,0.00,30.15,,6.21,,SCT,,,,900.00,,,,,,,,,,,60.80,SBMT 071300Z 08006KT 9999 SCT009 16/14 Q1021,
SBMT,2024-07-07 14:00,66.20,55.40,68.15,60.00,6.00,0.00,30.15,,6.21,,,,,,,,,,,,,,,,,66.20,SBMT 071400Z 06006KT 020V100 CAVOK 19/13 Q1021,
SBMT,2024-07-07 15:00,69.80,55.40,60.21,30.00,3.00,0.00,30.12,,6.21,,,,,,,,,,,,,,,,,69.80,SBMT 071500Z 03003KT 340V080 CAVOK 21/13 Q1020,
SBMT,2024-07-07 16:00,78.80,55.40,44.52,350.00,3.00,0.00,30.06,,6.21,,,,,,,,,,,,,,,,,78.80,SBMT 071600Z 35003KT CAVOK 26/13 Q1018,
SBMT,2024-07-07 17:00,80.60,51.80,36.79,310.00,8.00,0.00,30.03,,6.21,,FEW,,,,4000.00,,,,,,,,,,,80.08,SBMT 071700Z 31008KT 9999 FEW040 27/11 Q1017,
SBMT,2024-07-07 18:00,78.80,50.00,36.51,300.00,10.00,0.00,30.03,,6.21,,SCT,,,,4000.00,,,,,,,,,,,78.80,SBMT 071800Z 30010KT 9999 SCT040 26/10 Q1017,
SBMT,2024-07-07 19:00,78.80,50.00,36.51,70.00,7.00,0.00,30.03,,6.21,,FEW,,,,4000.00,,,,,,,,,,,78.80,SBMT 071900Z 07007KT 9999 FEW040 26/10 Q1017,
SBMT,2024-07-07 20:00,77.00,51.80,41.42,300.00,5.00,0.00,30.03,,6.21,,,,,,,,,,,,,,,,,77.00,SBMT 072000Z 30005KT CAVOK 25/11 Q1017,
SBMT,2024-07-07 21:00,71.60,51.80,49.64,0.00,0.00,0.00,30.06,,6.21,,,,,,,,,,,,,,,,,71.60,SBMT 072100Z 00000KT CAVOK 22/11 Q1018,
SBMT,2024-07-07 22:00,66.20,55.40,68.15,130.00,6.00,0.00,30.06,,6.21,,,,,,,,,,,,,,,,,66.20,SBMT 072200Z 13006KT CAVOK 19/13 Q1018,
SBMT,2024-07-07 23:00,60.80,55.40,82.37,130.00,6.00,0.00,30.09,,6.21,,,,,,,,,,,,,,,,,60.80,SBMT 072300Z 13006KT CAVOK 16/13 Q1019,
SBMT,2024-07-08 00:00,59.00,55.40,87.83,130.00,7.00,0.00,30.12,,6.21,,,,,,,,,,,,,,,,,59.00,SBMT 080000Z 13007KT CAVOK 15/13 Q1020,
SBMT,2024-07-08 01:00,59.00,55.40,87.83,130.00,5.00,0.00,30.09,,6.21,,,,,,,,,,,,,,,,,59.00,SBMT 080100Z 13005KT 110V170 CAVOK 15/13 Q1019,
SBMT,2024-07-08 02:00,59.00,55.40,87.83,150.00,5.00,0.00,30.09,,6.21,,,,,,,,,,,,,,,,,59.00,SBMT 080200Z 15005KT CAVOK 15/13 Q1019,
SBMT,2024-07-08 09:00,57.20,51.80,82.12,170.00,5.00,0.00,30.12,,6.21,,BKN,OVC,,,1100.00,1300.00,,,,,,,,,,57.20,SBMT 080900Z 17005KT 130V200 9999 BKN011 OVC013 14/11 Q1020,
SBMT,2024-07-08 10:00,57.20,51.80,82.12,180.00,4.00,0.00,30.12,,6.21,,BKN,BKN,,,1100.00,1300.00,,,,,,,,,,57.20,SBMT 081000Z 18004KT 110V200 9999 BKN011 BKN013 14/11 Q1020,
SBMT,2024-07-08 11:00,57.20,51.80,82.12,140.00,4.00,0.00,30.15,,6.21,,BKN,OVC,,,1100.00,1300.00,,,,,,,,,,57.20,SBMT 081100Z 14004KT 100V190 9999 BKN011 OVC013 14/11 Q1021,
SBMT,2024-07-08 12:00,59.00,51.80,76.98,110.00,4.00,0.00,30.15,,6.21,,BKN,BKN,,,1100.00,1300.00,,,,,,,,,,59.00,SBMT 081200Z 11004KT 070V150 9999 BKN011 BKN013 15/11 Q1021,
SBMT,2024-07-08 13:00,59.00,51.80,76.98,110.00,6.00,0.00,30.15,,6.21,,BKN,BKN,,,1300.00,1500.00,,,,,,,,,,59.00,SBMT 081300Z 11006KT 080V140 9999 BKN013 BKN015 15/11 Q1021,
SBMT,2024-07-08 14:00,60.80,51.80,72.20,130.00,6.00,0.00,30.15,,6.21,,BKN,BKN,,,1300.00,1500.00,,,,,,,,,,60.80,SBMT 081400Z 13006KT 110V170 9999 BKN013 BKN015 16/11 Q1021,
SBMT,2024-07-08 15:00,62.60,51.80,67.75,80.00,7.00,0.00,30.12,,6.21,,BKN,BKN,,,1700.00,7000.00,,,,,,,,,,62.60,SBMT 081500Z 08007KT 010V140 9999 BKN017 BKN070 17/11 Q1020,
SBMT,2024-07-08 16:00,62.60,51.80,67.75,80.00,7.00,0.00,30.09,,6.21,,SCT,BKN,,,1800.00,8000.00,,,,,,,,,,62.60,SBMT 081600Z 08007KT 030V130 9999 SCT018 BKN080 17/11 Q1019,
SBMT,2024-07-08 17:00,62.60,55.40,77.29,110.00,6.00,0.00,30.09,,6.21,,BKN,BKN,,,1800.00,8000.00,,,,,,,,,,62.60,SBMT 081700Z 11006KT 080V160 9999 BKN018 BKN080 17/13 Q1019,
SBMT,2024-07-08 18:00,64.40,57.20,77.45,70.00,6.00,0.00,30.06,,6.21,,BKN,BKN,,,1800.00,8000.00,,,,,,,,,,64.40,SBMT 081800Z 07006KT 040V100 9999 BKN018 BKN080 18/14 Q1018,
SBMT,2024-07-08 19:00,60.80,55.40,82.37,130.00,7.00,0.00,30.06,,4.35,,SCT,BKN,,,1300.00,1800.00,,,,,,,,,,60.80,SBMT 081900Z 13007KT 100V160 7000 SCT013 BKN018 16/13 Q1018,
SBMT,2024-07-08 20:00,59.00,55.40,87.83,140.00,7.00,0.00,30.09,,3.11,,SCT,BKN,,,1300.00,1500.00,,,BR,,,,,,,59.00,SBMT 082000Z 14007KT 110V180 5000 BR SCT013 BKN015 15/13 Q1019,
SBMT,2024-07-08 20:08,59.00,55.40,87.83,140.00,6.00,0.00,30.09,,2.49,,BKN,BKN,,,1100.00,1300.00,,,BR,,,,,,,59.00,SBMT 082008Z 14006KT 100V180 4000 BR BKN011 BKN013 15/13 Q1019,
SBMT,2024-07-08 21:00,57.20,55.40,93.69,130.00,6.00,0.00,30.09,,1.24,,SCT,OVC,,,800.00,900.00,,,-RA,,,,,,,57.20,SBMT 082100Z 13006KT 100V180 2000 -RA SCT008 OVC009 14/13 Q1019,
SBMT,2024-07-08 22:00,57.20,55.40,93.69,100.00,6.00,0.00,30.09,,1.24,,SCT,OVC,,,700.00,800.00,,,BR,,,,,,,57.20,SBMT 082200Z 10006KT 2000 BR SCT007 OVC008 14/13 Q1019,
SBMT,2024-07-08 23:00,57.20,55.40,93.69,120.00,6.00,0.00,30.09,,1.86,,SCT,OVC,,,700.00,900.00,,,-DZ BR,,,,,,,57.20,SBMT 082300Z 12006KT 3000 -DZ BR SCT007 OVC009 14/13 Q1019,
SBMT,2024-07-09 00:00,57.20,53.60,87.74,160.00,6.00,0.00,30.09,,2.49,,SCT,OVC,,,700.00,800.00,,,BR,,,,,,,57.20,SBMT 090000Z 16006KT 130V200 4000 BR SCT007 OVC008 14/12 Q1019,
SBMT,2024-07-09 01:00,55.40,53.60,93.65,170.00,5.00,0.00,30.12,,3.11,,SCT,OVC,,,700.00,800.00,,,BR,,,,,,,55.40,SBMT 090100Z 17005KT 5000 BR SCT007 OVC008 13/12 Q1020,
SBMT,2024-07-09 02:00,55.40,53.60,93.65,150.00,3.00,0.00,30.12,,3.11,,SCT,OVC,,,700.00,800.00,,,-RA BR,,,,,,,55.40,SBMT 090200Z 15003KT 120V220 5000 -RA BR SCT007 OVC008 13/12 Q1020,
SBMT,2024-07-09 09:00,55.40,53.60,93.65,270.00,4.00,0.00,30.09,,6.21,,BKN,OVC,,,900.00,1000.00,,,,,,,,,,55.40,SBMT 090900Z 27004KT 9999 BKN009 OVC010 13/12 Q1019,
SBMT,2024-07-09 10:00,55.40,53.60,93.65,,4.00,0.00,30.09,,4.35,,BKN,OVC,,,900.00,1100.00,,,-RA,,,,,,,55.40,SBMT 091000Z VRB04KT 7000 -RA BKN009 OVC011 13/12 Q1019 RERA,
SBMT,2024-07-09 11:00,55.40,53.60,93.65,,2.00,0.00,30.09,,6.21,,BKN,OVC,,,900.00,1100.00,,,-RA,,,,,,,55.40,SBMT 091100Z VRB02KT 9999 -RA BKN009 OVC011 13/12 Q1019,
SBMT,2024-07-09 12:00,55.40,53.60,93.65,0.00,0.00,0.00,30.12,,6.21,,SCT,BKN,,,800.00,900.00,,,,,,,,,,55.40,SBMT 091200Z 00000KT 9999 SCT008 BKN009 13/12 Q1020,
SBMT,2024-07-09 13:00,57.20,53.60,87.74,260.00,5.00,0.00,30.15,,3.73,,SCT,BKN,,,800.00,900.00,,,-DZ,,,,,,,57.20,SBMT 091300Z 26005KT 230V300 6000 -DZ SCT008 BKN009 14/12 Q1021,
SBMT,2024-07-09 14:00,57.20,53.60,87.74,0.00,0.00,0.00,30.12,,3.73,,BKN,OVC,,,700.00,800.00,,,-RA,,,,,,,57.20,SBMT 091400Z 00000KT 6000 -RA BKN007 OVC008 14/12 Q1020,
SBMT,2024-07-09 15:00,57.20,55.40,93.69,,2.00,0.00,30.12,,3.73,,BKN,OVC,,,900.00,1100.00,,,-RA,,,,,,,57.20,SBMT 091500Z VRB02KT 6000 -RA BKN009 OVC011 14/13 Q1020,
SBMT,2024-07-09 16:00,57.20,55.40,93.69,250.00,5.00,0.00,30.09,,1.86,,BKN,OVC,,,800.00,900.00,,,RA,,,,,,,57.20,SBMT 091600Z 25005KT 200V310 3000 RA BKN008 OVC009 14/13 Q1019,
SBMT,2024-07-09 17:00,57.20,55.40,93.69,250.00,2.00,0.00,30.09,,1.86,,FEW,BKN,OVC,,600.00,800.00,900.00,,-RA BR,,,,,,,57.20,SBMT 091700Z 25002KT 3000 -RA BR FEW006 BKN008 OVC009 14/13 Q1019,
SBMT,2024-07-09 18:00,57.20,55.40,93.69,290.00,4.00,0.00,30.06,,2.17,,FEW,BKN,OVC,,600.00,800.00,900.00,,-RA,,,,,,,57.20,SBMT 091800Z 29004KT 3500 -RA FEW006 BKN008 OVC009 14/13 Q1018,
SBMT,2024-07-09 19:00,57.20,55.40,93.69,270.00,7.00,0.00,30.06,,3.11,,BKN,OVC,,,800.00,1100.00,,,-RA BR,,,,,,,57.20,SBMT 091900Z 27007KT 5000 -RA BR BKN008 OVC011 14/13 Q1018,
SBMT,2024-07-09 20:00,57.20,55.40,93.69,0.00,0.00,0.00,30.06,,3.73,,BKN,OVC,,,800.00,8000.00,,,,,,,,,,57.20,SBMT 092000Z 00000KT 6000 BKN008 OVC080 14/13 Q1018,
SBMT,2024-07-09 21:00,57.20,57.20,100.00,250.00,1.00,0.00,30.06,,3.11,,BKN,OVC,,,800.00,8000.00,,,-RA BR,,,,,,,57.20,SBMT 092100Z 25001KT 5000 -RA BR BKN008 OVC080 14/14 Q1018,
SBMT,2024-07-09 22:00,57.20,57.20,100.00,0.00,0.00,0.00,30.03,,3.11,,BKN,OVC,,,800.00,8000.00,,,-RA BR,,,,,,,57.20,SBMT 092200Z 00000KT 5000 -RA BR BKN008 OVC080 14/14 Q1017,
SBMT,2024-07-09 23:00,57.20,57.20,100.00,0.00,0.00,0.00,30.03,,3.11,,BKN,OVC,,,800.00,8000.00,,,-RA BR,,,,,,,57.20,SBMT 092300Z 00000KT 5000 -RA BR BKN008 OVC080 14/14 Q1017,
SBMT,2024-07-10 00:00,57.20,57.20,100.00,0.00,0.00,0.00,30.06,,3.11,,BKN,OVC,,,800.00,8000.00,,,-RA BR,,,,,,,57.20,SBMT 100000Z 00000KT 5000 -RA BR BKN008 OVC080 14/14 Q1018,
SBMT,2024-07-10 01:00,57.20,57.20,100.00,80.00,3.00,0.00,30.03,,3.73,,BKN,OVC,,,800.00,8000.00,,,-RA,,,,,,,57.20,SBMT 100100Z 08003KT 6000 -RA BKN008 OVC080 14/14 Q1017,
SBMT,2024-07-10 02:00,57.20,57.20,100.00,110.00,2.00,0.00,30.06,,3.73,,BKN,OVC,,,800.00,8000.00,,,-RA,,,,,,,57.20,SBMT 100200Z 11002KT 6000 -RA BKN008 OVC080 14/14 Q1018,
SBMT,2024-07-10 09:00,59.00,57.20,93.74,,1.00,0.00,30.03,,3.73,,FEW,BKN,OVC,,1300.00,2500.00,7000.00,,,,,,,,,59.00,SBMT 100900Z VRB01KT 6000 FEW013 BKN025 OVC070 15/14 Q1017,
SBMT,2024-07-10 10:00,59.00,57.20,93.74,,3.00,0.00,30.03,,3.11,,FEW,BKN,OVC,,1300.00,2500.00,7000.00,,-RA BR,,,,,,,59.00,SBMT 101000Z VRB03KT 5000 -RA BR FEW013 BKN025 OVC070 15/14 Q1017,
SBMT,2024-07-10 11:00,59.00,57.20,93.74,50.00,3.00,0.00,30.03,,5.59,,SCT,BKN,,,2500.00,7000.00,,,,,,,,,,59.00,SBMT 101100Z 05003KT 360V080 9000 SCT025 BKN070 15/14 Q1017,
SBMT,2024-07-10 12:00,60.80,59.00,93.79,70.00,3.00,0.00,30.06,,6.21,,FEW,BKN,,,3500.00,7000.00,,,,,,,,,,60.80,SBMT 101200Z 07003KT 040V100 9999 FEW035 BKN070 16/15 Q1018,
SBMT,2024-07-10 13:00,64.40,60.80,88.09,90.00,4.00,0.00,30.06,,6.21,,,,,,,,,,,,,,,,,64.40,SBMT 101300Z 09004KT 050V130 CAVOK 18/16 Q1018,
SBMT,2024-07-10 14:00,68.00,60.80,77.75,,4.00,0.00,30.06,,6.21,,,,,,,,,,,,,,,,,68.00,SBMT 101400Z VRB04KT CAVOK 20/16 Q1018,
SBMT,2024-07-10 15:00,68.00,59.00,72.92,320.00,5.00,0.00,30.06,,6.21,,SCT,BKN,,,2500.00,7000.00,,,,,,,,,,68.00,SBMT 101500Z 32005KT 270V020 9999 SCT025 BKN070 20/15 Q1018,
SBMT,2024-07-10 16:00,68.00,62.60,82.86,350.00,3.00,0.00,30.03,,6.21,,SCT,BKN,,,2500.00,7000.00,,,,,,,,,,68.00,SBMT 101600Z 35003KT 320V020 9999 SCT025 BKN070 20/17 Q1017,
SBMT,2024-07-10 17:00,69.80,62.60,77.90,290.00,8.00,0.00,30.00,,6.21,,FEW,SCT,,,2100.00,4500.00,,,,,,,,,,69.80,SBMT 101700Z 29008KT 9999 FEW021 SCT045 21/17 Q1016,
SBMT,2024-07-10 18:00,69.80,60.80,73.09,310.00,5.00,0.00,30.00,,6.21,,BKN,,,,2500.00,,,,,,,,,,,69.80,SBMT 101800Z 31005KT 9999 BKN025 21/16 Q1016,
SBMT,2024-07-10 19:00,69.80,60.80,73.09,320.00,7.00,0.00,30.00,,6.21,,SCT,,,,2500.00,,,,,,,,,,,69.80,SBMT 101900Z 32007KT 9999 SCT025 21/16 Q1016,
SBMT,2024-07-10 20:00,68.00,60.80,77.75,290.00,7.00,0.00,30.03,,6.21,,BKN,,,,4500.00,,,,,,,,,,,68.00,SBMT 102000Z 29007KT 9999 BKN045 20/16 Q1017,
SBMT,2024-07-10 21:00,66.20,60.80,82.74,290.00,3.00,0.00,30.03,,6.21,,BKN,,,,4500.00,,,,,,,,,,,66.20,SBMT 102100Z 29003KT 9999 BKN045 19/16 Q1017,
SBMT,2024-07-10 22:00,64.40,60.80,88.09,10.00,2.00,0.00,30.06,,6.21,,,,,,,,,,,,,,,,,64.40,SBMT 102200Z 01002KT CAVOK 18/16 Q1018,
SBMT,2024-07-10 23:00,62.60,60.80,93.83,0.00,0.00,0.00,30.09,,6.21,,SCT,,,,4900.00,,,,,,,,,,,62.60,SBMT 102300Z 00000KT 9999 SCT049 17/16 Q1019,
SBMT,2024-07-11 00:00,62.60,60.80,93.83,0.00,0.00,0.00,30.09,,6.21,,FEW,,,,4500.00,,,,,,,,,,,62.60,SBMT 110000Z 00000KT 9999 FEW045 17/16 Q1019,
SBMT,2024-07-11 01:00,60.80,60.80,100.00,0.00,0.00,0.00,30.09,,6.21,,,,,,,,,,,,,,,,,60.80,SBMT 110100Z 00000KT CAVOK 16/16 Q1019,
SBMT,2024-07-11 02:00,60.80,59.00,93.79,10.00,2.00,0.00,30.09,,6.21,,,,,,,,,,,,,,,,,60.80,SBMT 110200Z 01002KT CAVOK 16/15 Q1019,
SBMT,2024-07-11 09:00,60.80,59.00,93.79,70.00,1.00,0.00,30.12,,3.11,,NSC,,,,,,,,BR,,,,,,,60.80,SBMT 110900Z 07001KT 5000 BR NSC 16/15 Q1020,
SBMT,2024-07-11 10:00,60.80,60.80,100.00,70.00,3.00,0.00,30.15,,1.55,,OVC,,,,600.00,,,,BR,,,,,,,60.80,SBMT 111000Z 07003KT 030V100 2500 BR OVC006 16/16 Q1021,
SBMT,2024-07-11 11:00,62.60,60.80,93.83,70.00,4.00,0.00,30.15,,1.55,,OVC,,,,600.00,,,,BR,,,,,,,62.60,SBMT 111100Z 07004KT 2500 BR OVC006 17/16 Q1021,
SBMT,2024-07-11 12:00,62.60,60.80,93.83,100.00,5.00,0.00,30.18,,2.17,,SCT,OVC,,,600.00,700.00,,,BR,,,,,,,62.60,SBMT 111200Z 10005KT 060V150 3500 BR SCT006 OVC007 17/16 Q1022,
SBMT,2024-07-11 13:00,64.40,59.00,82.62,150.00,4.00,0.00,30.21,,1.86,,BKN,OVC,,,900.00,1100.00,,,BR,,,,,,,64.40,SBMT 111300Z 15004KT 110V180 3000 BR BKN009 OVC011 18/15 Q1023,
SBMT,2024-07-11 14:00,64.40,59.00,82.62,150.00,6.00,0.00,30.21,,1.86,,BKN,OVC,,,1100.00,1300.00,,,BR,,,,,,,64.40,SBMT 111400Z 15006KT 130V190 3000 BR BKN011 OVC013 18/15 Q1023,
SBMT,2024-07-11 15:00,66.20,60.80,82.74,120.00,4.00,0.00,30.18,,3.11,,FEW,BKN,,,1100.00,1300.00,,,BR,,,,,,,66.20,SBMT 111500Z 12004KT 050V190 5000 BR FEW011 BKN013 19/16 Q1022,
SBMT,2024-07-11 16:00,69.80,60.80,73.09,90.00,5.00,0.00,30.12,,6.21,,,,,,,,,,,,,,,,,69.80,SBMT 111600Z 09005KT 050V160 CAVOK 21/16 Q1020,
SBMT,2024-07-11 17:00,73.40,62.60,68.94,110.00,2.00,0.00,30.12,,6.21,,,,,,,,,,,,,,,,,73.40,SBMT 111700Z 11002KT CAVOK 23/17 Q1020,
SBMT,2024-07-11 18:00,73.40,62.60,68.94,90.00,5.00,0.00,30.09,,6.21,,,,,,,,,,,,,,,,,73.40,SBMT 111800Z 09005KT CAVOK 23/17 Q1019,
SBMT,2024-07-11 19:00,73.40,64.40,73.44,90.00,4.00,0.00,30.09,,6.21,,,,,,,,,,,,,,,,,73.40,SBMT 111900Z 09004KT CAVOK 23/18 Q1019,
SBMT,2024-07-11 20:00,73.40,64.40,73.44,90.00,5.00,0.00,30.12,,6.21,,,,,,,,,,,,,,,,,73.40,SBMT 112000Z 09005KT CAVOK 23/18 Q1020,
SBMT,2024-07-11 21:00,71.60,64.40,78.04,80.00,4.00,0.00,30.12,,6.21,,,,,,,,,,,,,,,,,71.60,SBMT 112100Z 08004KT CAVOK 22/18 Q1020,
SBMT,2024-07-11 22:00,69.80,64.40,82.98,110.00,2.00,0.00,30.15,,6.21,,,,,,,,,,,,,,,,,69.80,SBMT 112200Z 11002KT CAVOK 21/18 Q1021,
SBMT,2024-07-11 23:00,68.00,64.40,88.26,130.00,5.00,0.00,30.18,,6.21,,,,,,,,,,,,,,,,,68.00,SBMT 112300Z 13005KT CAVOK 20/18 Q1022,
SBMT,2024-07-12 00:00,64.40,60.80,88.09,160.00,5.00,0.00,30.21,,6.21,,,,,,,,,,,,,,,,,64.40,SBMT 120000Z 16005KT CAVOK 18/16 Q1023,
SBMT,2024-07-12 01:00,62.60,60.80,93.83,130.00,4.00,0.00,30.24,,6.21,,,,,,,,,,,,,,,,,62.60,SBMT 120100Z 13004KT CAVOK 17/16 Q1024,
SBMT,2024-07-12 02:00,62.60,59.00,88.00,150.00,6.00,0.00,30.27,,6.21,,SCT,BKN,,,800.00,8000.00,,,,,,,,,,62.60,SBMT 120200Z 15006KT 9999 SCT008 BKN080 17/15 Q1025,
SBMT,2024-07-12 09:00,59.00,57.20,93.74,140.00,5.00,0.00,30.30,,0.62,,OVC,,,,600.00,,,,BR,,,,,,,59.00,SBMT 120900Z 14005KT 1000 BR OVC006 15/14 Q1026,
SBMT,2024-07-12 10:00,59.00,57.20,93.74,130.00,4.00,0.00,30.33,,3.11,,OVC,,,,800.00,,,,BR,,,,,,,59.00,SBMT 121000Z 13004KT 5000 BR OVC008 15/14 Q1027,
SBMT,2024-07-12 11:00,60.80,57.20,87.92,150.00,6.00,0.00,30.33,,4.97,,OVC,,,,900.00,,,,,,,,,,,60.80,SBMT 121100Z 15006KT 8000 OVC009 16/14 Q1027,
SBMT,2024-07-12 12:00,60.80,57.20,87.92,120.00,8.00,0.00,30.36,,4.97,,BKN,,,,900.00,,,,,,,,,,,60.80,SBMT 121200Z 12008KT 8000 BKN009 16/14 Q1028,
SBMT,2024-07-12 13:00,62.60,59.00,88.00,130.00,5.00,0.00,30.39,,6.21,,BKN,,,,900.00,,,,,,,,,,,62.60,SBMT 121300Z 13005KT 9999 BKN009 17/15 Q1029,
SBMT,2024-07-12 14:00,64.40,59.00,82.62,120.00,7.00,0.00,30.36,,6.21,,BKN,,,,1300.00,,,,,,,,,,,64.40,SBMT 121400Z 12007KT 9999 BKN013 18/15 Q1028,
SBMT,2024-07-12 15:00,64.40,59.00,82.62,120.00,8.00,0.00,30.33,,6.21,,BKN,,,,1300.00,,,,,,,,,,,64.40,SBMT 121500Z 12008KT 9999 BKN013 18/15 Q1027,
SBMT,2024-07-12 16:00,68.00,60.80,77.75,80.00,6.00,0.00,30.33,,6.21,,BKN,,,,2000.00,,,,,,,,,,,68.00,SBMT 121600Z 08006KT 9999 BKN020 20/16 Q1027,
SBMT,2024-07-12 17:00,69.80,60.80,73.09,80.00,9.00,0.00,30.30,,6.21,,BKN,,,,3600.00,,,,,,,,,,,69.80,SBMT 121700Z 08009KT 9999 BKN036 21/16 Q1026,
SBMT,2024-07-12 18:00,71.60,59.00,64.48,90.00,8.00,0.00,30.30,,6.21,,BKN,,,,3600.00,,,,,,,,,,,71.60,SBMT 121800Z 09008KT 9999 BKN036 22/15 Q1026,
SBMT,2024-07-12 19:00,68.00,59.00,72.92,130.00,11.00,0.00,30.30,,6.21,,SCT,,,,3600.00,,,,,,,,,,,68.00,SBMT 121900Z 13011KT 9999 SCT036 20/15 Q1026,
SBMT,2024-07-12 20:00,64.40,59.00,82.62,130.00,10.00,0.00,30.33,,6.21,,FEW,SCT,,,2000.00,3600.00,,,,,,,,,,64.40,SBMT 122000Z 13010KT 9999 FEW020 SCT036 18/15 Q1027,
SBMT,2024-07-12 21:00,62.60,57.20,82.50,150.00,7.00,0.00,30.33,,6.21,,BKN,BKN,,,1300.00,1500.00,,,,,,,,,,62.60,SBMT 122100Z 15007KT 9999 BKN013 BKN015 17/14 Q1027,
SBMT,2024-07-12 22:00,60.80,57.20,87.92,110.00,8.00,0.00,30.36,,6.21,,BKN,BKN,,,1300.00,1500.00,,,,,,,,,,60.80,SBMT 122200Z 11008KT 9999 BKN013 BKN015 16/14 Q1028,
SBMT,2024-07-12 23:00,60.80,55.40,82.37,160.00,8.00,0.00,30.39,,6.21,,BKN,BKN,,,1200.00,1500.00,,,,,,,,,,60.80,SBMT 122300Z 16008KT 9999 BKN012 BKN015 16/13 Q1029,
SBMT,2024-07-13 00:00,59.00,55.40,87.83,130.00,7.00,0.00,30.39,,6.21,,BKN,BKN,,,1200.00,1500.00,,,,,,,,,,59.00,SBMT 130000Z 13007KT 100V180 9999 BKN012 BKN015 15/13 Q1029,
SBMT,2024-07-13 01:00,59.00,53.60,82.25,140.00,8.00,0.00,30.39,,6.21,,BKN,BKN,,,1200.00,1500.00,,,,,,,,,,59.00,SBMT 130100Z 14008KT 110V190 9999 BKN012 BKN015 15/12 Q1029,
SBMT,2024-07-13 02:00,57.20,53.60,87.74,130.00,7.00,0.00,30.39,,6.21,,BKN,BKN,,,1200.00,1500.00,,,,,,,,,,57.20,SBMT 130200Z 13007KT 9999 BKN012 BKN015 14/12 Q1029,
SBMT,2024-07-13 09:00,57.20,53.60,87.74,130.00,7.00,0.00,30.33,,4.97,,OVC,,,,900.00,,,,,,,,,,,57.20,SBMT 130900Z 13007KT 8000 OVC009 14/12 Q1027,
SBMT,2024-07-13 10:00,57.20,53.60,87.74,120.00,7.00,0.00,30.33,,6.21,,OVC,,,,1100.00,,,,,,,,,,,57.20,SBMT 131000Z 12007KT 9999 OVC011 14/12 Q1027,
SBMT,2024-07-13 11:00,57.20,51.80,82.12,130.00,7.00,0.00,30.36,,6.21,,OVC,,,,1100.00,,,,,,,,,,,57.20,SBMT 131100Z 13007KT 9999 OVC011 14/11 Q1028,
SBMT,2024-07-13 12:00,57.20,53.60,87.74,120.00,8.00,0.00,30.39,,6.21,,BKN,SCT,,,1300.00,4000.00,,,,,,,,,,57.20,SBMT 131200Z 12008KT 9999 BKN013 SCT040 14/12 Q1029,
SBMT,2024-07-13 13:00,60.80,53.60,77.14,110.00,7.00,0.00,30.39,,6.21,,BKN,BKN,,,1500.00,10000.00,,,,,,,,,,60.80,SBMT 131300Z 11007KT 9999 BKN015 BKN100 16/12 Q1029,
SBMT,2024-07-13 14:00,60.80,53.60,77.14,130.00,6.00,0.00,30.36,,6.21,,BKN,,,,1700.00,,,,,,,,,,,60.80,SBMT 131400Z 13006KT 9999 BKN017 16/12 Q1028,
SBMT,2024-07-13 15:00,60.80,55.40,82.37,150.00,6.00,0.00,30.36,,6.21,,BKN,,,,1800.00,,,,,,,,,,,60.80,SBMT 131500Z 15006KT 9999 BKN018 16/13 Q1028,
SBMT,2024-07-13 16:00,62.60,55.40,77.29,130.00,7.00,0.00,30.33,,6.21,,BKN,,,,1800.00,,,,,,,,,,,62.60,SBMT 131600Z 13007KT 9999 BKN018 17/13 Q1027,
SBMT,2024-07-13 17:00,62.60,55.40,77.29,130.00,8.00,0.00,30.30,,6.21,,BKN,,,,1800.00,,,,,,,,,,,62.60,SBMT 131700Z 13008KT 9999 BKN018 17/13 Q1026,
SBMT,2024-07-13 18:00,59.00,53.60,82.25,140.00,7.00,0.00,30.30,,6.21,,OVC,,,,1300.00,,,,,,,,,,,59.00,SBMT 131800Z 14007KT 9999 OVC013 15/12 Q1026,
SBMT,2024-07-13 19:00,59.00,53.60,82.25,130.00,7.00,0.00,30.30,,6.21,,OVC,,,,1300.00,,,,,,,,,,,59.00,SBMT 131900Z 13007KT 100V170 9999 OVC013 15/12 Q1026,
SBMT,2024-07-13 20:00,59.00,53.60,82.25,120.00,6.00,0.00,30.30,,6.21,,BKN,OVC,,,1300.00,2000.00,,,,,,,,,,59.00,SBMT 132000Z 12006KT 100V170 9999 BKN013 OVC020 15/12 Q1026,
SBMT,2024-07-13 21:00,57.20,53.60,87.74,130.00,5.00,0.00,30.30,,6.21,,BKN,OVC,,,1300.00,2000.00,,,,,,,,,,57.20,SBMT 132100Z 13005KT 9999 BKN013 OVC020 14/12 Q1026,
SBMT,2024-07-13 22:00,57.20,53.60,87.74,140.00,6.00,0.00,30.30,,6.21,,BKN,OVC,,,1300.00,2000.00,,,,,,,,,,57.20,SBMT 132200Z 14006KT 110V180 9999 BKN013 OVC020 14/12 Q1026,
SBMT,2024-07-13 23:00,57.20,53.60,87.74,130.00,6.00,0.00,30.30,,6.21,,BKN,OVC,,,1300.00,2000.00,,,,,,,,,,57.20,SBMT 132300Z 13006KT 9999 BKN013 OVC020 14/12 Q1026,
SBMT,2024-07-14 00:00,59.00,53.60,82.25,100.00,4.00,0.00,30.30,,6.21,,SCT,OVC,,,1300.00,2000.00,,,,,,,,,,59.00,SBMT 140000Z 10004KT 9999 SCT013 OVC020 15/12 Q1026,
SBMT,2024-07-14 01:00,57.20,53.60,87.74,130.00,6.00,0.00,30.30,,6.21,,SCT,OVC,,,1300.00,1500.00,,,,,,,,,,57.20,SBMT 140100Z 13006KT 9999 SCT013 OVC015 14/12 Q1026,
SBMT,2024-07-14 02:00,57.20,53.60,87.74,130.00,6.00,0.00,30.27,,6.21,,SCT,OVC,,,1300.00,1500.00,,,,,,,,,,57.20,SBMT 140200Z 13006KT 9999 SCT013 OVC015 14/12 Q1025,
SBMT,2024-07-14 09:00,59.00,57.20,93.74,70.00,6.00,0.00,30.21,,3.11,,BKN,,,,800.00,,,,BR,,,,,,,59.00,SBMT 140900Z 07006KT 5000 BR BKN008 15/14 Q1023,
SBMT,2024-07-14 10:00,59.00,57.20,93.74,70.00,4.00,0.00,30.21,,3.11,,OVC,,,,800.00,,,,BR,,,,,,,59.00,SBMT 141000Z 07004KT 5000 BR OVC008 15/14 Q1023,
SBMT,2024-07-14 11:00,60.80,57.20,87.92,110.00,5.00,0.00,30.24,,4.97,,SCT,,,,800.00,,,,,,,,,,,60.80,SBMT 141100Z 11005KT 8000 SCT008 16/14 Q1024,
SBMT,2024-07-14 12:00,62.60,57.20,82.50,70.00,4.00,0.00,30.24,,6.21,,,,,,,,,,,,,,,,,62.60,SBMT 141200Z 07004KT CAVOK 17/14 Q1024,
SBMT,2024-07-14 13:00,66.20,57.20,72.74,90.00,3.00,0.00,30.24,,6.21,,,,,,,,,,,,,,,,,66.20,SBMT 141300Z 09003KT CAVOK 19/14 Q1024,
SBMT,2024-07-14 14:00,69.80,57.20,64.26,30.00,2.00,0.00,30.24,,6.21,,,,,,,,,,,,,,,,,69.80,SBMT 141400Z 03002KT CAVOK 21/14 Q1024,
SBMT,2024-07-14 15:00,73.40,55.40,53.29,340.00,8.00,0.00,30.21,,6.21,,,,,,,,,,,,,,,,,73.40,SBMT 141500Z 34008KT CAVOK 23/13 Q1023,
SBMT,2024-07-14 16:00,75.20,51.80,43.97,320.00,10.00,0.00,30.15,,6.21,,,,,,,,,,,,,,,,,75.20,SBMT 141600Z 32010KT CAVOK 24/11 Q1021,
SBMT,2024-07-14 17:00,77.00,53.60,44.25,310.00,8.00,0.00,30.15,,6.21,,,,,,,,,,,,,,,,,77.00,SBMT 141700Z 31008KT 260V350 CAVOK 25/12 Q1021,
SBMT,2024-07-14 18:00,77.00,53.60,44.25,310.00,8.00,0.00,30.15,,6.21,,,,,,,,,,,,,,,,,77.00,SBMT 141800Z 31008KT 260V350 CAVOK 25/12 Q1021,
SBMT,2024-07-14 19:00,77.00,53.60,44.25,320.00,8.00,0.00,30.15,,6.21,,,,,,,,,,,,,,,,,77.00,SBMT 141900Z 32008KT 270V010 CAVOK 25/12 Q1021,
SBMT,2024-07-14 20:00,75.20,53.60,46.98,280.00,6.00,0.00,30.15,,6.21,,,,,,,,,,,,,,,,,75.20,SBMT 142000Z 28006KT 250V310 CAVOK 24/12 Q1021,
SBMT,2024-07-14 21:00,64.40,55.40,72.56,140.00,8.00,0.00,30.18,,6.21,,,,,,,,,,,,,,,,,64.40,SBMT 142100Z 14008KT 110V170 CAVOK 18/13 Q1022,
SBMT,2024-07-14 22:00,59.00,53.60,82.25,140.00,7.00,0.00,30.21,,6.21,,FEW,,,,2500.00,,,,,,,,,,,59.00,SBMT 142200Z 14007KT 110V170 9999 FEW025 15/12 Q1023,
SBMT,2024-07-14 23:00,57.20,53.60,87.74,130.00,5.00,0.00,30.24,,6.21,,SCT,SCT,,,900.00,1100.00,,,,,,,,,,57.20,SBMT 142300Z 13005KT 100V170 9999 SCT009 SCT011 14/12 Q1024,
SBMT,2024-07-15 00:00,57.20,53.60,87.74,110.00,3.00,0.00,30.24,,6.21,,FEW,SCT,,,900.00,1100.00,,,,,,,,,,57.20,SBMT 150000Z 11003KT 9999 FEW009 SCT011 14/12 Q1024,
SBMT,2024-07-15 01:00,57.20,53.60,87.74,140.00,3.00,0.00,30.24,,6.21,,FEW,SCT,,,900.00,1100.00,,,,,,,,,,57.20,SBMT 150100Z 14003KT 070V180 9999 FEW009 SCT011 14/12 Q1024,
SBMT,2024-07-15 02:00,57.20,53.60,87.74,,2.00,0.00,30.24,,6.21,,FEW,SCT,,,900.00,1100.00,,,,,,,,,,57.20,SBMT 150200Z VRB02KT 9999 FEW009 SCT011 14/12 Q1024,
SBMT,2024-07-15 09:00,55.40,51.80,87.65,170.00,3.00,0.00,30.27,,5.59,,NSC,,,,,,,,,,,,,,,55.40,SBMT 150900Z 17003KT 9000 NSC 13/11 Q1025,
SBMT,2024-07-15 10:00,55.40,53.60,93.65,150.00,4.00,0.00,30.30,,5.59,,BKN,,,,900.00,,,,,,,,,,,55.40,SBMT 151000Z 15004KT 9000 BKN009 13/12 Q1026,
SBMT,2024-07-15 11:00,57.20,53.60,87.74,150.00,2.00,0.00,30.30,,6.21,,OVC,,,,1000.00,,,,,,,,,,,57.20,SBMT 151100Z 15002KT 9999 OVC010 14/12 Q1026,
SBMT,2024-07-15 12:00,59.00,53.60,82.25,,2.00,0.00,30.33,,6.21,,OVC,,,,1200.00,,,,,,,,,,,59.00,SBMT 151200Z VRB02KT 9999 OVC012 15/12 Q1027,
SBMT,2024-07-15 13:00,62.60,55.40,77.29,,2.00,0.00,30.36,,6.21,,BKN,BKN,,,1600.00,2000.00,,,,,,,,,,62.60,SBMT 151300Z VRB02KT 9999 BKN016 BKN020 17/13 Q1028,
SBMT,2024-07-15 14:00,64.40,55.40,72.56,,2.00,0.00,30.33,,6.21,,BKN,,,,2100.00,,,,,,,,,,,64.40,SBMT 151400Z VRB02KT 9999 BKN021 18/13 Q1027,
SBMT,2024-07-15 15:00,66.20,55.40,68.15,150.00,4.00,0.00,30.33,,6.21,,FEW,,,,2200.00,,,,,,,,,,,66.20,SBMT 151500Z 15004KT 080V200 9999 FEW022 19/13 Q1027,
SBMT,2024-07-15 16:00,68.00,55.40,64.04,,4.00,0.00,30.30,,6.21,,FEW,,,,2600.00,,,,,,,,,,,68.00,SBMT 151600Z VRB04KT 9999 FEW026 20/13 Q1026,
SBMT,2024-07-15 17:00,69.80,55.40,60.21,,4.00,0.00,30.27,,6.21,,,,,,,,,,,,,,,,,69.80,SBMT 151700Z VRB04KT CAVOK 21/13 Q1025,
SBMT,2024-07-15 18:00,71.60,55.40,56.63,180.00,6.00,0.00,30.24,,6.21,,SCT,,,,3000.00,,,,,,,,,,,71.60,SBMT 151800Z 18006KT 120V220 9999 SCT030 22/13 Q1024,
SBMT,2024-07-15 19:00,68.00,57.20,68.35,140.00,8.00,0.00,30.27,,6.21,,BKN,,,,3000.00,,,,,,,,,,,68.00,SBMT 151900Z 14008KT 9999 BKN030 20/14 Q1025,
SBMT,2024-07-15 20:00,66.20,57.20,72.74,150.00,7.00,0.00,30.27,,3.11,,SCT,,,,3500.00,,,,HZ,,,,,,,66.20,SBMT 152000Z 15007KT 100V190 5000 HZ SCT035 19/14 Q1025,
SBMT,2024-07-15 21:00,62.60,57.20,82.50,140.00,7.00,0.00,30.30,,2.49,,BKN,,,,1500.00,,,,BR,,,,,,,62.60,SBMT 152100Z 14007KT 110V180 4000 BR BKN015 17/14 Q1026,
SBMT,2024-07-15 22:00,60.80,57.20,87.92,170.00,7.00,0.00,30.33,,3.11,,BKN,BKN,,,900.00,1100.00,,,BR,,,,,,,60.80,SBMT 152200Z 17007KT 140V200 5000 BR BKN009 BKN011 16/14 Q1027,
SBMT,2024-07-15 23:00,59.00,57.20,93.74,120.00,5.00,0.00,30.33,,3.11,,SCT,BKN,,,800.00,900.00,,,BR,,,,,,,59.00,SBMT 152300Z 12005KT 090V150 5000 BR SCT008 BKN009 15/14 Q1027,
SBMT,2024-07-16 00:00,59.00,55.40,87.83,100.00,6.00,0.00,30.33,,3.11,,BKN,BKN,,,900.00,1100.00,,,BR,,,,,,,59.00,SBMT 160000Z 10006KT 070V130 5000 BR BKN009 BKN011 15/13 Q1027,
SBMT,2024-07-16 01:00,59.00,55.40,87.83,90.00,5.00,0.00,30.36,,3.11,,BKN,BKN,,,900.00,1100.00,,,BR,,,,,,,59.00,SBMT 160100Z 09005KT 5000 BR BKN009 BKN011 15/13 Q1028,
SBMT,2024-07-16 02:00,59.00,55.40,87.83,140.00,5.00,0.00,30.36,,3.11,,BKN,BKN,,,900.00,1100.00,,,BR,,,,,,,59.00,SBMT 160200Z 14005KT 110V180 5000 BR BKN009 BKN011 15/13 Q1028,
SBMT,2024-07-16 09:00,57.20,55.40,93.69,110.00,6.00,0.00,30.30,,2.49,,SCT,OVC,,,700.00,900.00,,,BR,,,,,,,57.20,SBMT 160900Z 11006KT 080V150 4000 BR SCT007 OVC009 14/13 Q1026,
SBMT,2024-07-16 10:00,57.20,55.40,93.69,100.00,7.00,0.00,30.33,,2.49,,FEW,OVC,,,500.00,700.00,,,BR,,,,,,,57.20,SBMT 161000Z 10007KT 4000 BR FEW005 OVC007 14/13 Q1027,
SBMT,2024-07-16 11:00,59.00,55.40,87.83,110.00,5.00,0.00,30.33,,2.49,,FEW,OVC,,,700.00,900.00,,,BR,,,,,,,59.00,SBMT 161100Z 11005KT 4000 BR FEW007 OVC009 15/13 Q1027,
SBMT,2024-07-16 12:00,59.00,55.40,87.83,100.00,7.00,0.00,30.36,,1.86,,SCT,OVC,,,600.00,800.00,,,BR,,,,,,,59.00,SBMT 161200Z 10007KT 3000 BR SCT006 OVC008 15/13 Q1028,
SBMT,2024-07-16 13:00,60.80,57.20,87.92,60.00,5.00,0.00,30.36,,2.49,,SCT,OVC,,,600.00,900.00,,,BR,,,,,,,60.80,SBMT 161300Z 06005KT 360V110 4000 BR SCT006 OVC009 16/14 Q1028,
SBMT,2024-07-16 14:00,62.60,57.20,82.50,80.00,6.00,0.00,30.36,,3.11,,SCT,SCT,,,1300.00,1500.00,,,BR,,,,,,,62.60,SBMT 161400Z 08006KT 5000 BR SCT013 SCT015 17/14 Q1028,
SBMT,2024-07-16 15:00,66.20,57.20,72.74,70.00,4.00,0.00,30.33,,3.11,,NSC,,,,,,,,HZ,,,,,,,66.20,SBMT 161500Z 07004KT 340V110 5000 HZ NSC 19/14 Q1027,
SBMT,2024-07-16 16:00,69.80,57.20,64.26,,2.00,0.00,30.30,,3.11,,NSC,,,,,,,,HZ,,,,,,,69.80,SBMT 161600Z VRB02KT 5000 HZ NSC 21/14 Q1026,
SBMT,2024-07-16 17:00,71.60,57.20,60.44,,3.00,0.00,30.27,,5.59,,NSC,,,,,,,,,,,,,,,71.60,SBMT 161700Z VRB03KT 9000 NSC 22/14 Q1025,
SBMT,2024-07-16 18:00,73.40,55.40,53.29,,2.00,0.00,30.27,,5.59,,NSC,,,,,,,,,,,,,,,73.40,SBMT 161800Z VRB02KT 9000 NSC 23/13 Q1025,
SBMT,2024-07-16 19:00,68.00,59.00,72.92,160.00,9.00,0.00,30.27,,4.97,,NSC,,,,,,,,,,,,,,,68.00,SBMT 161900Z 16009KT 8000 NSC 20/15 Q1025,
SBMT,2024-07-16 20:00,62.60,57.20,82.50,140.00,7.00,0.00,30.30,,3.73,,FEW,,,,1200.00,,,,,,,,,,,62.60,SBMT 162000Z 14007KT 6000 FEW012 17/14 Q1026,
SBMT,2024-07-16 21:00,60.80,57.20,87.92,140.00,6.00,0.00,30.30,,2.49,,OVC,,,,1000.00,,,,BR,,,,,,,60.80,SBMT 162100Z 14006KT 4000 BR OVC010 16/14 Q1026,
SBMT,2024-07-16 22:00,59.00,57.20,93.74,130.00,6.00,0.00,30.33,,2.49,,OVC,,,,900.00,,,,BR,,,,,,,59.00,SBMT 162200Z 13006KT 4000 BR OVC009 15/14 Q1027,
SBMT,2024-07-16 23:00,59.00,57.20,93.74,110.00,5.00,0.00,30.33,,3.73,,OVC,,,,900.00,,,,,,,,,,,59.00,SBMT 162300Z 11005KT 6000 OVC009 15/14 Q1027,
SBMT,2024-07-17 00:00,59.00,57.20,93.74,180.00,4.00,0.00,30.36,,2.49,,OVC,,,,800.00,,,,BR,,,,,,,59.00,SBMT 170000Z 18004KT 4000 BR OVC008 15/14 Q1028,
SBMT,2024-07-17 01:00,59.00,55.40,87.83,140.00,4.00,0.00,30.36,,3.73,,OVC,,,,900.00,,,,,,,,,,,59.00,SBMT 170100Z 14004KT 6000 OVC009 15/13 Q1028,
SBMT,2024-07-17 02:00,59.00,55.40,87.83,140.00,5.00,0.00,30.39,,3.73,,OVC,,,,1100.00,,,,,,,,,,,59.00,SBMT 170200Z 14005KT 6000 OVC011 15/13 Q1029,
SBMT,2024-07-17 09:00,55.40,51.80,87.65,80.00,1.00,0.00,30.33,,6.21,,SCT,,,,1100.00,,,,,,,,,,,55.40,SBMT 170900Z 08001KT 9999 SCT011 13/11 Q1027,
SBMT,2024-07-17 10:00,53.60,51.80,93.60,0.00,0.00,0.00,30.33,,6.21,,FEW,,,,1100.00,,,,,,,,,,,53.60,SBMT 171000Z 00000KT 9999 FEW011 12/11 Q1027,
SBMT,2024-07-17 11:00,59.00,53.60,82.25,80.00,4.00,0.00,30.36,,6.21,,SCT,,,,1100.00,,,,,,,,,,,59.00,SBMT 171100Z 08004KT 9999 SCT011 15/12 Q1028,
SBMT,2024-07-17 11:04,59.00,53.60,82.25,70.00,4.00,0.00,30.36,,6.21,,BKN,SCT,,,1100.00,1300.00,,,,,,,,,,59.00,SBMT 171104Z 07004KT 9999 BKN011 SCT013 15/12 Q1028,
SBMT,2024-07-17 12:00,60.80,53.60,77.14,110.00,3.00,0.00,30.36,,6.21,,SCT,BKN,,,1100.00,1300.00,,,,,,,,,,60.80,SBMT 171200Z 11003KT 040V160 9999 SCT011 BKN013 16/12 Q1028,
SBMT,2024-07-17 13:00,62.60,53.60,72.38,,3.00,0.00,30.36,,6.21,,FEW,,,,1300.00,,,,,,,,,,,62.60,SBMT 171300Z VRB03KT 9999 FEW013 17/12 Q1028,
SBMT,2024-07-17 14:00,66.20,53.60,63.82,50.00,4.00,0.00,30.36,,6.21,,,,,,,,,,,,,,,,,66.20,SBMT 171400Z 05004KT 340V100 CAVOK 19/12 Q1028,
SBMT,2024-07-17 15:00,68.00,53.60,59.97,100.00,3.00,0.00,30.33,,6.21,,,,,,,,,,,,,,,,,68.00,SBMT 171500Z 10003KT 040V180 CAVOK 20/12 Q1027,
SBMT,2024-07-17 16:00,71.60,55.40,56.63,,3.00,0.00,30.27,,6.21,,,,,,,,,,,,,,,,,71.60,SBMT 171600Z VRB03KT CAVOK 22/13 Q1025,
SBMT,2024-07-17 17:00,73.40,53.60,49.90,200.00,2.00,0.00,30.24,,6.21,,,,,,,,,,,,,,,,,73.40,SBMT 171700Z 20002KT CAVOK 23/12 Q1024,
SBMT,2024-07-17 18:00,75.20,53.60,46.98,260.00,4.00,0.00,30.21,,6.21,,,,,,,,,,,,,,,,,75.20,SBMT 171800Z 26004KT CAVOK 24/12 Q1023,
SBMT,2024-07-17 19:00,75.20,50.00,41.14,220.00,3.00,0.00,30.21,,6.21,,,,,,,,,,,,,,,,,75.20,SBMT 171900Z 22003KT CAVOK 24/10 Q1023,
SBMT,2024-07-17 20:00,75.20,50.00,41.14,220.00,2.00,0.00,30.21,,6.21,,SCT,,,,4000.00,,,,,,,,,,,75.20,SBMT 172000Z 22002KT 9999 SCT040 24/10 Q1023,
SBMT,2024-07-17 21:00,71.60,53.60,53.03,270.00,2.00,0.00,30.21,,6.21,,BKN,,,,4000.00,,,,,,,,,,,71.60,SBMT 172100Z 27002KT 9999 BKN040 22/12 Q1023,
SBMT,2024-07-17 22:00,71.60,53.60,53.03,320.00,4.00,0.00,30.21,,6.21,,SCT,,,,4000.00,,,,,,,,,,,71.60,SBMT 172200Z 32004KT 9999 SCT040 22/12 Q1023,
SBMT,2024-07-17 23:00,66.20,53.60,63.82,0.00,0.00,0.00,30.24,,6.21,,,,,,,,,,,,,,,,,66.20,SBMT 172300Z 00000KT CAVOK 19/12 Q1024,
SBMT,2024-07-18 00:00,62.60,53.60,72.38,0.00,0.00,0.00,30.24,,6.21,,,,,,,,,,,,,,,,,62.60,SBMT 180000Z 00000KT CAVOK 17/12 Q1024,
SBMT,2024-07-18 01:00,60.80,53.60,77.14,0.00,0.00,0.00,30.24,,6.21,,,,,,,,,,,,,,,,,60.80,SBMT 180100Z 00000KT CAVOK 16/12 Q1024,
SBMT,2024-07-18 02:00,59.00,53.60,82.25,0.00,0.00,0.00,30.24,,6.21,,,,,,,,,,,,,,,,,59.00,SBMT 180200Z 00000KT CAVOK 15/12 Q1024,
SBMT,2024-07-18 09:00,53.60,51.80,93.60,270.00,2.00,0.00,30.21,,4.97,,NSC,,,,,,,,,,,,,,,53.60,SBMT 180900Z 27002KT 8000 NSC 12/11 Q1023,
SBMT,2024-07-18 10:00,51.80,51.80,100.00,260.00,2.00,0.00,30.24,,4.97,,NSC,,,,,,,,,,,,,,,51.80,SBMT 181000Z 26002KT 8000 NSC 11/11 Q1024,
SBMT,2024-07-18 11:00,57.20,55.40,93.69,0.00,0.00,0.00,30.27,,5.59,,NSC,,,,,,,,,,,,,,,57.20,SBMT 181100Z 00000KT 9000 NSC 14/13 Q1025,
SBMT,2024-07-18 12:00,64.40,55.40,72.56,0.00,0.00,0.00,30.30,,6.21,,,,,,,,,,,,,,,,,64.40,SBMT 181200Z 00000KT CAVOK 18/13 Q1026,
SBMT,2024-07-18 13:00,69.80,55.40,60.21,,2.00,0.00,30.30,,6.21,,,,,,,,,,,,,,,,,69.80,SBMT 181300Z VRB02KT CAVOK 21/13 Q1026,
SBMT,2024-07-18 14:00,73.40,55.40,53.29,280.00,3.00,0.00,30.27,,6.21,,,,,,,,,,,,,,,,,73.40,SBMT 181400Z 28003KT 230V330 CAVOK 23/13 Q1025,
SBMT,2024-07-18 15:00,73.40,50.00,43.69,210.00,5.00,0.00,30.27,,6.21,,FEW,,,,4500.00,,,,,,,,,,,73.40,SBMT 181500Z 21005KT 9999 FEW045 23/10 Q1025,
SBMT,2024-07-18 16:00,75.20,50.00,41.14,300.00,3.00,0.00,30.24,,6.21,,,,,,,,,,,,,,,,,75.20,SBMT 181600Z 30003KT CAVOK 24/10 Q1024,
SBMT,2024-07-18 17:00,75.20,48.20,38.46,0.00,0.00,0.00,30.21,,6.21,,,,,,,,,,,,,,,,,75.20,SBMT 181700Z 00000KT CAVOK 24/09 Q1023,
SBMT,2024-07-18 18:00,75.20,48.20,38.46,280.00,3.00,0.00,30.18,,6.21,,,,,,,,,,,,,,,,,75.20,SBMT 181800Z 28003KT CAVOK 24/09 Q1022,
SBMT,2024-07-18 19:00,71.60,57.20,60.44,160.00,10.00,0.00,30.21,,6.21,,,,,,,,,,,,,,,,,71.60,SBMT 181900Z 16010KT CAVOK 22/14 Q1023,
SBMT,2024-07-18 20:00,62.60,55.40,77.29,150.00,9.00,0.00,30.24,,6.21,,,,,,,,,,,,,,,,,62.60,SBMT 182000Z 15009KT CAVOK 17/13 Q1024,
SBMT,2024-07-18 21:00,60.80,53.60,77.14,120.00,7.00,0.00,30.27,,2.49,,BKN,,,,1200.00,,,,HZ,,,,,,,60.80,SBMT 182100Z 12007KT 4000 HZ BKN012 16/12 Q1025,
SBMT,2024-07-18 22:00,59.00,53.60,82.25,150.00,6.00,0.00,30.27,,3.73,,BKN,,,,1500.00,,,,,,,,,,,59.00,SBMT 182200Z 15006KT 6000 BKN015 15/12 Q1025,
SBMT,2024-07-18 23:00,59.00,51.80,76.98,150.00,4.00,0.00,30.27,,4.97,,SCT,,,,1500.00,,,,,,,,,,,59.00,SBMT 182300Z 15004KT 8000 SCT015 15/11 Q1025,
SBMT,2024-07-19 00:00,59.00,51.80,76.98,130.00,4.00,0.00,30.30,,4.97,,SCT,,,,1300.00,,,,,,,,,,,59.00,SBMT 190000Z 13004KT 8000 SCT013 15/11 Q1026,
SBMT,2024-07-19 01:00,57.20,50.00,76.82,100.00,5.00,0.00,30.30,,6.21,,,,,,,,,,,,,,,,,57.20,SBMT 190100Z 10005KT CAVOK 14/10 Q1026,
SBMT,2024-07-19 02:00,57.20,51.80,82.12,120.00,6.00,0.00,30.33,,3.11,,BKN,,,,1300.00,,,,HZ,,,,,,,57.20,SBMT 190200Z 12006KT 5000 HZ BKN013 14/11 Q1027,
SBMT,2024-07-19 09:00,55.40,50.00,81.99,90.00,6.00,0.00,30.30,,3.11,,OVC,,,,1100.00,,,,BR,,,,,,,55.40,SBMT 190900Z 09006KT 5000 BR OVC011 13/10 Q1026,
SBMT,2024-07-19 10:00,53.60,50.00,87.56,110.00,8.00,0.00,30.33,,3.11,,OVC,,,,1100.00,,,,BR,,,,,,,53.60,SBMT 191000Z 11008KT 5000 BR OVC011 12/10 Q1027,
SBMT,2024-07-19 11:00,55.40,51.80,87.65,70.00,6.00,0.00,30.36,,3.11,,OVC,,,,1100.00,,,,BR,,,,,,,55.40,SBMT 191100Z 07006KT 5000 BR OVC011 13/11 Q1028,
SBMT,2024-07-19 12:00,55.40,51.80,87.65,110.00,6.00,0.00,30.39,,4.35,,SCT,BKN,,,1100.00,1300.00,,,,,,,,,,55.40,COR SBMT 191200Z 11006KT 7000 SCT011 BKN013 13/11 Q1029,
SBMT,2024-07-19 13:00,57.20,51.80,82.12,90.00,5.00,0.00,30.39,,4.97,,SCT,,,,1300.00,,,,,,,,,,,57.20,SBMT 191300Z 09005KT 8000 SCT013 14/11 Q1029,
SBMT,2024-07-19 14:00,62.60,51.80,67.75,80.00,5.00,0.00,30.39,,6.21,,,,,,,,,,,,,,,,,62.60,SBMT 191400Z 08005KT CAVOK 17/11 Q1029,
SBMT,2024-07-19 15:00,64.40,50.00,59.50,110.00,4.00,0.00,30.36,,6.21,,,,,,,,,,,,,,,,,64.40,SBMT 191500Z 11004KT CAVOK 18/10 Q1028,
SBMT,2024-07-19 16:00,68.00,51.80,56.13,0.00,0.00,0.00,30.33,,6.21,,,,,,,,,,,,,,,,,68.00,SBMT 191600Z 00000KT CAVOK 20/11 Q1027,
SBMT,2024-07-19 17:00,69.80,48.20,46.16,180.00,5.00,0.00,30.30,,6.21,,,,,,,,,,,,,,,,,69.80,SBMT 191700Z 18005KT 100V250 CAVOK 21/09 Q1026,
SBMT,2024-07-19 18:00,71.60,50.00,46.43,,2.00,0.00,30.27,,6.21,,,,,,,,,,,,,,,,,71.60,SBMT 191800Z VRB02KT CAVOK 22/10 Q1025,
SBMT,2024-07-19 19:00,71.60,50.00,46.43,130.00,6.00,0.00,30.27,,6.21,,,,,,,,,,,,,,,,,71.60,SBMT 191900Z 13006KT 100V170 CAVOK 22/10 Q1025,
SBMT,2024-07-19 20:00,69.80,50.00,49.37,110.00,4.00,0.00,30.27,,6.21,,,,,,,,,,,,,,,,,69.80,SBMT 192000Z 11004KT 080V150 CAVOK 21/10 Q1025,
SBMT,2024-07-19 21:00,66.20,48.20,52.25,120.00,4.00,0.00,30.27,,6.21,,,,,,,,,,,,,,,,,66.20,SBMT 192100Z 12004KT CAVOK 19/09 Q1025,
SBMT,2024-07-19 22:00,60.80,50.00,67.54,0.00,0.00,0.00,30.30,,6.21,,,,,,,,,,,,,,,,,60.80,SBMT 192200Z 00000KT CAVOK 16/10 Q1026,
SBMT,2024-07-19 23:00,59.00,50.00,72.01,70.00,3.00,0.00,30.30,,4.97,,NSC,,,,,,,,,,,,,,,59.00,SBMT 192300Z 07003KT 040V100 8000 NSC 15/10 Q1026,
SBMT,2024-07-20 00:00,57.20,51.80,82.12,,2.00,0.00,30.30,,4.97,,NSC,,,,,,,,,,,,,,,57.20,SBMT 200000Z VRB02KT 8000 NSC 14/11 Q1026,
SBMT,2024-07-20 01:00,57.20,51.80,82.12,0.00,0.00,0.00,30.33,,4.97,,NSC,,,,,,,,,,,,,,,57.20,SBMT 200100Z 00000KT 8000 NSC 14/11 Q1027,
SBMT,2024-07-20 02:00,55.40,53.60,93.65,,1.00,0.00,30.33,,4.97,,NSC,,,,,,,,,,,,,,,55.40,SBMT 200200Z VRB01KT 8000 NSC 13/12 Q1027,
SBMT,2024-07-20 09:00,55.40,53.60,93.65,80.00,2.00,0.00,30.27,,2.49,,BKN,,,,500.00,,,,BR,,,,,,,55.40,SBMT 200900Z 08002KT 4000 BR BKN005 13/12 Q1025,
SBMT,2024-07-20 10:00,55.40,53.60,93.65,90.00,4.00,0.00,30.30,,0.93,,OVC,,,,400.00,,,,BR,,,,,,,55.40,SBMT 201000Z 09004KT 1500 BR OVC004 13/12 Q1026,
SBMT,2024-07-20 11:00,55.40,53.60,93.65,60.00,5.00,0.00,30.33,,0.93,,OVC,,,,400.00,,,,BR,,,,,,,55.40,SBMT 201100Z 06005KT 1500 BR OVC004 13/12 Q1027,
SBMT,2024-07-20 12:00,55.40,51.80,87.65,40.00,5.00,0.00,30.33,,0.93,,OVC,,,,400.00,,,,BR,,,,,,,55.40,SBMT 201200Z 04005KT 1500 BR OVC004 13/11 Q1027,
SBMT,2024-07-20 13:00,57.20,51.80,82.12,140.00,3.00,0.00,30.33,,1.86,,BKN,,,,800.00,,,,BR,,,,,,,57.20,SBMT 201300Z 14003KT 3000 BR BKN008 14/11 Q1027,
SBMT,2024-07-20 14:00,62.60,53.60,72.38,110.00,5.00,0.00,30.33,,4.35,,NSC,,,,,,,,,,,,,,,62.60,SBMT 201400Z 11005KT 7000 NSC 17/12 Q1027,
SBMT,2024-07-20 15:00,64.40,51.80,63.60,100.00,5.00,0.00,30.33,,6.21,,,,,,,,,,,,,,,,,64.40,SBMT 201500Z 10005KT CAVOK 18/11 Q1027,
SBMT,2024-07-20 16:00,66.20,51.80,59.74,100.00,7.00,0.00,30.30,,6.21,,,,,,,,,,,,,,,,,66.20,SBMT 201600Z 10007KT CAVOK 19/11 Q1026,
SBMT,2024-07-20 17:00,69.80,44.60,40.29,80.00,6.00,0.00,30.27,,6.21,,,,,,,,,,,,,,,,,69.80,SBMT 201700Z 08006KT 040V130 CAVOK 21/07 Q1025,
SBMT,2024-07-20 18:00,69.80,41.00,35.09,100.00,5.00,0.00,30.24,,6.21,,,,,,,,,,,,,,,,,69.80,SBMT 201800Z 10005KT 050V150 CAVOK 21/05 Q1024,
SBMT,2024-07-20 19:00,71.60,42.80,35.37,70.00,5.00,0.00,30.21,,6.21,,,,,,,,,,,,,,,,,71.60,SBMT 201900Z 07005KT 040V110 CAVOK 22/06 Q1023,
SBMT,2024-07-20 20:00,69.80,41.00,35.09,80.00,4.00,0.00,30.21,,6.21,,,,,,,,,,,,,,,,,69.80,SBMT 202000Z 08004KT 050V110 CAVOK 21/05 Q1023,
SBMT,2024-07-20 21:00,66.20,51.80,59.74,150.00,5.00,0.00,30.21,,3.11,,NSC,,,,,,,,HZ,,,,,,,66.20,SBMT 202100Z 15005KT 5000 HZ NSC 19/11 Q1023,
SBMT,2024-07-20 22:00,59.00,51.80,76.98,140.00,7.00,0.00,30.27,,3.11,,NSC,,,,,,,,HZ,,,,,,,59.00,SBMT 202200Z 14007KT 100V160 5000 HZ NSC 15/11 Q1025,
SBMT,2024-07-20 23:00,57.20,51.80,82.12,140.00,6.00,0.00,30.27,,2.49,,NSC,,,,,,,,BR,,,,,,,57.20,SBMT 202300Z 14006KT 4000 BR NSC 14/11 Q1025,
SBMT,2024-07-21 00:00,55.40,50.00,81.99,130.00,7.00,0.00,30.27,,2.49,,NSC,,,,,,,,BR,,,,,,,55.40,SBMT 210000Z 13007KT 100V160 4000 BR NSC 13/10 Q1025,
SBMT,2024-07-21 01:00,57.20,50.00,76.82,80.00,8.00,0.00,30.30,,2.49,,SCT,BKN,,,900.00,1100.00,,,HZ,,,,,,,57.20,SBMT 210100Z 08008KT 060V120 4000 HZ SCT009 BKN011 14/10 Q1026,
SBMT,2024-07-21 02:00,55.40,50.00,81.99,90.00,7.00,0.00,30.30,,2.49,,BKN,,,,1500.00,,,,HZ,,,,,,,55.40,SBMT 210200Z 09007KT 4000 HZ BKN015 13/10 Q1026,
SBMT,2024-07-21 09:00,55.40,51.80,87.65,80.00,8.00,0.00,30.24,,4.97,,OVC,,,,900.00,,,,,,,,,,,55.40,SBMT 210900Z 08008KT 8000 OVC009 13/11 Q1024,
SBMT,2024-07-21 10:00,55.40,51.80,87.65,80.00,9.00,0.00,30.24,,4.97,,OVC,,,,1100.00,,,,,,,,,,,55.40,SBMT 211000Z 08009KT 8000 OVC011 13/11 Q1024,
SBMT,2024-07-21 11:00,57.20,51.80,82.12,70.00,7.00,0.00,30.27,,4.97,,BKN,,,,1300.00,,,,,,,,,,,57.20,SBMT 211100Z 07007KT 8000 BKN013 14/11 Q1025,
SBMT,2024-07-21 12:00,57.20,51.80,82.12,70.00,9.00,0.00,30.30,,5.59,,SCT,,,,1500.00,,,,,,,,,,,57.20,SBMT 211200Z 07009KT 9000 SCT015 14/11 Q1026,
SBMT,2024-07-21 13:00,60.80,51.80,72.20,60.00,7.00,0.00,30.30,,6.21,,,,,,,,,,,,,,,,,60.80,SBMT 211300Z 06007KT CAVOK 16/11 Q1026,
SBMT,2024-07-21 14:00,64.40,51.80,63.60,90.00,6.00,0.00,30.30,,6.21,,,,,,,,,,,,,,,,,64.40,SBMT 211400Z 09006KT 040V140 CAVOK 18/11 Q1026,
SBMT,2024-07-21 15:00,66.20,51.80,59.74,20.00,4.00,0.00,30.30,,6.21,,,,,,,,,,,,,,,,,66.20,SBMT 211500Z 02004KT CAVOK 19/11 Q1026,
SBMT,2024-07-21 16:00,69.80,53.60,56.38,,2.00,0.00,30.24,,6.21,,,,,,,,,,,,,,,,,69.80,SBMT 211600Z VRB02KT CAVOK 21/12 Q1024,
SBMT,2024-07-21 17:00,73.40,53.60,49.90,90.00,4.00,0.00,30.21,,6.21,,,,,,,,,,,,,,,,,73.40,SBMT 211700Z 09004KT CAVOK 23/12 Q1023,
SBMT,2024-07-21 18:00,73.40,51.80,46.71,0.00,0.00,0.00,30.21,,6.21,,,,,,,,,,,,,,,,,73.40,SBMT 211800Z 00000KT CAVOK 23/11 Q1023,
SBMT,2024-07-21 19:00,75.20,50.00,41.14,30.00,2.00,0.00,30.18,,6.21,,,,,,,,,,,,,,,,,75.20,SBMT 211900Z 03002KT CAVOK 24/10 Q1022,
SBMT,2024-07-21 20:00,75.20,50.00,41.14,0.00,0.00,0.00,30.18,,6.21,,,,,,,,,,,,,,,,,75.20,SBMT 212000Z 00000KT CAVOK 24/10 Q1022,
SBMT,2024-07-21 21:00,69.80,51.80,52.77,70.00,4.00,0.00,30.21,,6.21,,,,,,,,,,,,,,,,,69.80,SBMT 212100Z 07004KT CAVOK 21/11 Q1023,
SBMT,2024-07-21 22:00,68.00,53.60,59.97,70.00,4.00,0.00,30.21,,6.21,,,,,,,,,,,,,,,,,68.00,SBMT 212200Z 07004KT CAVOK 20/12 Q1023,
SBMT,2024-07-21 23:00,62.60,53.60,72.38,80.00,4.00,0.00,30.24,,6.21,,,,,,,,,,,,,,,,,62.60,SBMT 212300Z 08004KT CAVOK 17/12 Q1024,
SBMT,2024-07-22 00:00,60.80,51.80,72.20,100.00,5.00,0.00,30.24,,6.21,,,,,,,,,,,,,,,,,60.80,SBMT 220000Z 10005KT CAVOK 16/11 Q1024,
SBMT,2024-07-22 01:00,57.20,51.80,82.12,0.00,0.00,0.00,30.24,,6.21,,,,,,,,,,,,,,,,,57.20,SBMT 220100Z 00000KT CAVOK 14/11 Q1024,
SBMT,2024-07-22 02:00,55.40,51.80,87.65,0.00,0.00,0.00,30.24,,6.21,,,,,,,,,,,,,,,,,55.40,SBMT 220200Z 00000KT CAVOK 13/11 Q1024,
SBMT,2024-07-22 09:00,50.00,48.20,93.50,0.00,0.00,0.00,30.24,,4.35,,NSC,,,,,,,,,,,,,,,50.00,SBMT 220900Z 00000KT 7000 NSC 10/09 Q1024,
SBMT,2024-07-22 10:00,50.00,48.20,93.50,10.00,1.00,0.00,30.27,,1.86,,NSC,,,,,,,,BR,,,,,,,50.00,SBMT 221000Z 01001KT 3000 BR NSC 10/09 Q1025,
SBMT,2024-07-22 11:00,55.40,53.60,93.65,0.00,0.00,0.00,30.27,,3.11,,NSC,,,,,,,,BR,,,,,,,55.40,SBMT 221100Z 00000KT 5000 BR NSC 13/12 Q1025,
SBMT,2024-07-22 12:00,62.60,53.60,72.38,0.00,0.00,0.00,30.30,,6.21,,,,,,,,,,,,,,,,,62.60,SBMT 221200Z 00000KT CAVOK 17/12 Q1026,
SBMT,2024-07-22 13:00,68.00,53.60,59.97,260.00,2.00,0.00,30.30,,6.21,,,,,,,,,,,,,,,,,68.00,SBMT 221300Z 26002KT CAVOK 20/12 Q1026,
SBMT,2024-07-22 14:00,73.40,50.00,43.69,290.00,4.00,0.00,30.30,,6.21,,,,,,,,,,,,,,,,,73.40,SBMT 221400Z 29004KT CAVOK 23/10 Q1026,
SBMT,2024-07-22 15:00,75.20,48.20,38.46,270.00,7.00,0.00,30.27,,6.21,,,,,,,,,,,,,,,,,75.20,SBMT 221500Z 27007KT CAVOK 24/09 Q1025,
SBMT,2024-07-22 16:00,77.00,46.40,33.85,250.00,7.00,0.00,30.24,,6.21,,,,,,,,,,,,,,,,,77.00,SBMT 221600Z 25007KT CAVOK 25/08 Q1024,
SBMT,2024-07-22 17:00,77.00,48.20,36.22,,3.00,0.00,30.21,,6.21,,,,,,,,,,,,,,,,,77.00,SBMT 221700Z VRB03KT CAVOK 25/09 Q1023,
SBMT,2024-07-22 18:00,78.80,46.40,31.90,230.00,6.00,0.00,30.21,,6.21,,,,,,,,,,,,,,,,,78.80,SBMT 221800Z 23006KT 180V290 CAVOK 26/08 Q1023,
SBMT,2024-07-22 19:00,77.00,46.40,33.85,180.00,4.00,0.00,30.21,,6.21,,,,,,,,,,,,,,,,,77.00,SBMT 221900Z 18004KT 150V210 CAVOK 25/08 Q1023,
SBMT,2024-07-22 20:00,71.60,51.80,49.64,140.00,11.00,0.00,30.21,,6.21,,,,,,,,,,,,,,,,,71.60,SBMT 222000Z 14011KT 120V180 CAVOK 22/11 Q1023,
SBMT,2024-07-22 21:00,69.80,50.00,49.37,170.00,4.00,0.00,30.24,,6.21,,,,,,,,,,,,,,,,,69.80,SBMT 222100Z 17004KT 100V220 CAVOK 21/10 Q1024,
SBMT,2024-07-22 22:00,66.20,48.20,52.25,170.00,4.00,0.00,30.27,,6.21,,,,,,,,,,,,,,,,,66.20,SBMT 222200Z 17004KT 130V200 CAVOK 19/09 Q1025,
SBMT,2024-07-22 23:00,62.60,50.00,63.38,110.00,3.00,0.00,30.27,,6.21,,,,,,,,,,,,,,,,,62.60,SBMT 222300Z 11003KT CAVOK 17/10 Q1025,
SBMT,2024-07-23 00:00,59.00,50.00,72.01,0.00,0.00,0.00,30.27,,6.21,,,,,,,,,,,,,,,,,59.00,SBMT 230000Z 00000KT CAVOK 15/10 Q1025,
SBMT,2024-07-23 01:00,55.40,50.00,81.99,0.00,0.00,0.00,30.30,,6.21,,,,,,,,,,,,,,,,,55.40,SBMT 230100Z 00000KT CAVOK 13/10 Q1026,
SBMT,2024-07-23 02:00,55.40,51.80,87.65,0.00,0.00,0.00,30.30,,6.21,,,,,,,,,,,,,,,,,55.40,SBMT 230200Z 00000KT CAVOK 13/11 Q1026,
SBMT,2024-07-23 09:00,46.40,46.40,100.00,0.00,0.00,0.00,30.30,,1.24,,NSC,,,,,,,,BR MIFG,,,,,,,46.40,SBMT 230900Z 00000KT 2000 BR MIFG NSC 08/08 Q1026,
SBMT,2024-07-23 10:00,44.60,44.60,100.00,0.00,0.00,0.00,30.30,,2.49,,NSC,,,,,,,,BR MIFG,,,,,,,44.60,SBMT 231000Z 00000KT 4000 BR MIFG NSC 07/07 Q1026,
SBMT,2024-07-23 11:00,51.80,50.00,93.55,0.00,0.00,0.00,30.33,,4.97,,NSC,,,,,,,,,,,,,,,51.80,SBMT 231100Z 00000KT 8000 NSC 11/10 Q1027,
SBMT,2024-07-23 12:00,62.60,48.20,59.26,70.00,2.00,0.00,30.33,,6.21,,,,,,,,,,,,,,,,,62.60,SBMT 231200Z 07002KT CAVOK 17/09 Q1027,
SBMT,2024-07-23 13:00,66.20,44.60,45.60,100.00,3.00,0.00,30.36,,6.21,,,,,,,,,,,,,,,,,66.20,SBMT 231300Z 10003KT CAVOK 19/07 Q1028,
SBMT,2024-07-23 14:00,69.80,39.20,32.72,80.00,6.00,0.00,30.33,,6.21,,,,,,,,,,,,,,,,,69.80,SBMT 231400Z 08006KT CAVOK 21/04 Q1027,
SBMT,2024-07-23 15:00,73.40,33.80,23.39,80.00,5.00,0.00,30.33,,6.21,,,,,,,,,,,,,,,,,73.40,SBMT 231500Z 08005KT CAVOK 23/01 Q1027,
SBMT,2024-07-23 16:00,75.20,39.20,27.26,80.00,9.00,0.00,30.30,,6.21,,,,,,,,,,,,,,,,,75.20,SBMT 231600Z 08009KT CAVOK 24/04 Q1026,
SBMT,2024-07-23 17:00,77.00,30.20,17.94,80.00,7.00,0.00,30.30,,6.21,,,,,,,,,,,,,,,,,77.00,SBMT 231700Z 08007KT CAVOK 25/M01 Q1026,
SBMT,2024-07-23 18:00,77.00,32.00,19.30,80.00,7.00,0.00,30.27,,6.21,,,,,,,,,,,,,,,,,77.00,SBMT 231800Z 08007KT CAVOK 25/00 Q1025,
SBMT,2024-07-23 19:00,75.20,32.00,20.49,120.00,5.00,0.00,30.27,,6.21,,,,,,,,,,,,,,,,,75.20,SBMT 231900Z 12005KT CAVOK 24/00 Q1025,
SBMT,2024-07-23 20:00,73.40,35.60,25.13,110.00,7.00,0.00,30.27,,6.21,,,,,,,,,,,,,,,,,73.40,SBMT 232000Z 11007KT CAVOK 23/02 Q1025,
SBMT,2024-07-23 21:00,69.80,39.20,32.72,100.00,10.00,0.00,30.27,,6.21,,,,,,,,,,,,,,,,,69.80,SBMT 232100Z 10010KT CAVOK 21/04 Q1025,
SBMT,2024-07-23 22:00,68.00,41.00,37.32,100.00,7.00,0.00,30.27,,6.21,,,,,,,,,,,,,,,,,68.00,SBMT 232200Z 10007KT CAVOK 20/05 Q1025,
SBMT,2024-07-23 23:00,64.40,42.80,45.32,100.00,6.00,0.00,30.27,,6.21,,,,,,,,,,,,,,,,,64.40,SBMT 232300Z 10006KT CAVOK 18/06 Q1025,
SBMT,2024-07-24 00:00,64.40,42.80,45.32,90.00,5.00,0.00,30.30,,6.21,,,,,,,,,,,,,,,,,64.40,SBMT 240000Z 09005KT CAVOK 18/06 Q1026,
SBMT,2024-07-24 01:00,62.60,42.80,48.28,90.00,5.00,0.00,30.30,,6.21,,,,,,,,,,,,,,,,,62.60,SBMT 240100Z 09005KT CAVOK 17/06 Q1026,
SBMT,2024-07-24 02:00,53.60,44.60,71.45,0.00,0.00,0.00,30.30,,6.21,,,,,,,,,,,,,,,,,53.60,SBMT 240200Z 00000KT CAVOK 12/07 Q1026,
SBMT,2024-07-24 09:00,55.40,44.60,66.91,100.00,5.00,0.00,30.30,,4.97,,NSC,,,,,,,,,,,,,,,55.40,SBMT 240900Z 10005KT 8000 NSC 13/07 Q1026,
SBMT,2024-07-24 10:00,55.40,44.60,66.91,100.00,5.00,0.00,30.30,,6.21,,,,,,,,,,,,,,,,,55.40,SBMT 241000Z 10005KT CAVOK 13/07 Q1026,
SBMT,2024-07-24 11:00,59.00,48.20,67.33,140.00,5.00,0.00,30.30,,6.21,,,,,,,,,,,,,,,,,59.00,SBMT 241100Z 14005KT CAVOK 15/09 Q1026,
SBMT,2024-07-24 12:00,62.60,48.20,59.26,100.00,8.00,0.00,30.33,,6.21,,,,,,,,,,,,,,,,,62.60,SBMT 241200Z 10008KT CAVOK 17/09 Q1027,
SBMT,2024-07-24 13:00,68.00,46.40,45.88,80.00,10.00,0.00,30.33,,6.21,,,,,,,,,,,,,,,,,68.00,SBMT 241300Z 08010KT CAVOK 20/08 Q1027,
SBMT,2024-07-24 14:00,69.80,44.60,40.29,80.00,9.00,0.00,30.33,,6.21,,,,,,,,,,,,,,,,,69.80,SBMT 241400Z 08009KT CAVOK 21/07 Q1027,
SBMT,2024-07-24 15:00,73.40,44.60,35.66,80.00,7.00,0.00,30.33,,6.21,,,,,,,,,,,,,,,,,73.40,SBMT 241500Z 08007KT CAVOK 23/07 Q1027,
SBMT,2024-07-24 16:00,75.20,44.60,33.57,110.00,6.00,0.00,30.27,,6.21,,,,,,,,,,,,,,,,,75.20,SBMT 241600Z 11006KT CAVOK 24/07 Q1025,
SBMT,2024-07-24 17:00,77.00,44.60,31.62,170.00,3.00,0.00,30.24,,6.21,,,,,,,,,,,,,,,,,77.00,SBMT 241700Z 17003KT 070V240 CAVOK 25/07 Q1024,
SBMT,2024-07-24 18:00,78.80,46.40,31.90,,3.00,0.00,30.24,,6.21,,,,,,,,,,,,,,,,,78.80,SBMT 241800Z VRB03KT CAVOK 26/08 Q1024,
SBMT,2024-07-24 19:00,78.80,42.80,27.81,270.00,1.00,0.00,30.24,,6.21,,,,,,,,,,,,,,,,,78.80,SBMT 241900Z 27001KT CAVOK 26/06 Q1024,
SBMT,2024-07-24 20:00,73.40,48.20,40.85,150.00,6.00,0.00,30.24,,6.21,,,,,,,,,,,,,,,,,73.40,SBMT 242000Z 15006KT 100V220 CAVOK 23/09 Q1024,
SBMT,2024-07-24 21:00,69.80,50.00,49.37,130.00,7.00,0.00,30.24,,6.21,,,,,,,,,,,,,,,,,69.80,SBMT 242100Z 13007KT 100V160 CAVOK 21/10 Q1024,
SBMT,2024-07-24 22:00,68.00,53.60,59.97,140.00,3.00,0.00,30.24,,6.21,,,,,,,,,,,,,,,,,68.00,SBMT 242200Z 14003KT 110V170 CAVOK 20/12 Q1024,
SBMT,2024-07-24 23:00,66.20,50.00,55.88,80.00,5.00,0.00,30.27,,6.21,,,,,,,,,,,,,,,,,66.20,SBMT 242300Z 08005KT CAVOK 19/10 Q1025,
SBMT,2024-07-25 00:00,64.40,48.20,55.63,80.00,4.00,0.00,30.27,,6.21,,,,,,,,,,,,,,,,,64.40,SBMT 250000Z 08004KT 040V100 CAVOK 18/09 Q1025,
SBMT,2024-07-25 01:00,59.00,48.20,67.33,100.00,2.00,0.00,30.27,,6.21,,,,,,,,,,,,,,,,,59.00,SBMT 250100Z 10002KT CAVOK 15/09 Q1025,
SBMT,2024-07-25 02:00,57.20,48.20,71.83,100.00,1.00,0.00,30.27,,6.21,,,,,,,,,,,,,,,,,57.20,SBMT 250200Z 10001KT CAVOK 14/09 Q1025,
SBMT,2024-07-25 09:00,48.20,46.40,93.45,,2.00,0.00,30.24,,6.21,,,,,,,,,,,,,,,,,48.20,SBMT 250900Z VRB02KT CAVOK 09/08 Q1024,
SBMT,2024-07-25 10:00,50.00,48.20,93.50,110.00,2.00,0.00,30.24,,6.21,,,,,,,,,,,,,,,,,50.00,SBMT 251000Z 11002KT CAVOK 10/09 Q1024,
SBMT,2024-07-25 11:00,55.40,51.80,87.65,100.00,2.00,0.00,30.27,,6.21,,,,,,,,,,,,,,,,,55.40,SBMT 251100Z 10002KT CAVOK 13/11 Q1025,
SBMT,2024-07-25 12:00,60.80,50.00,67.54,90.00,3.00,0.00,30.27,,6.21,,,,,,,,,,,,,,,,,60.80,SBMT 251200Z 09003KT 050V160 CAVOK 16/10 Q1025,
SBMT,2024-07-25 13:00,66.20,50.00,55.88,,2.00,0.00,30.30,,6.21,,,,,,,,,,,,,,,,,66.20,SBMT 251300Z VRB02KT CAVOK 19/10 Q1026,
SBMT,2024-07-25 14:00,71.60,50.00,46.43,0.00,0.00,0.00,30.27,,6.21,,,,,,,,,,,,,,,,,71.60,SBMT 251400Z 00000KT CAVOK 22/10 Q1025,
SBMT,2024-07-25 15:00,77.00,44.60,31.62,270.00,5.00,0.00,30.24,,6.21,,,,,,,,,,,,,,,,,77.00,SBMT 251500Z 27005KT 230V040 CAVOK 25/07 Q1024,
SBMT,2024-07-25 16:00,77.00,46.40,33.85,270.00,8.00,0.00,30.21,,6.21,,,,,,,,,,,,,,,,,77.00,SBMT 251600Z 27008KT 240V310 CAVOK 25/08 Q1023,
SBMT,2024-07-25 17:00,77.00,46.40,33.85,270.00,10.00,0.00,30.18,,6.21,,,,,,,,,,,,,,,,,77.00,SBMT 251700Z 27010KT 230V310 CAVOK 25/08 Q1022,
SBMT,2024-07-25 18:00,77.00,48.20,36.22,290.00,7.00,0.00,30.15,,6.21,,,,,,,,,,,,,,,,,77.00,SBMT 251800Z 29007KT CAVOK 25/09 Q1021,
SBMT,2024-07-25 19:00,77.00,44.60,31.62,280.00,4.00,0.00,30.15,,6.21,,,,,,,,,,,,,,,,,77.00,SBMT 251900Z 28004KT CAVOK 25/07 Q1021,
SBMT,2024-07-25 20:00,75.20,46.40,35.94,270.00,6.00,0.00,30.15,,6.21,,,,,,,,,,,,,,,,,75.20,SBMT 252000Z 27006KT CAVOK 24/08 Q1021,
SBMT,2024-07-25 21:00,69.80,46.40,43.13,310.00,3.00,0.00,30.15,,6.21,,,,,,,,,,,,,,,,,69.80,SBMT 252100Z 31003KT CAVOK 21/08 Q1021,
SBMT,2024-07-25 22:00,66.20,48.20,52.25,,2.00,0.00,30.15,,6.21,,,,,,,,,,,,,,,,,66.20,SBMT 252200Z VRB02KT CAVOK 19/09 Q1021,
SBMT,2024-07-25 23:00,64.40,48.20,55.63,30.00,2.00,0.00,30.18,,6.21,,,,,,,,,,,,,,,,,64.40,SBMT 252300Z 03002KT CAVOK 18/09 Q1022,
SBMT,2024-07-26 00:00,60.80,48.20,63.15,0.00,0.00,0.00,30.18,,6.21,,,,,,,,,,,,,,,,,60.80,SBMT 260000Z 00000KT CAVOK 16/09 Q1022,
SBMT,2024-07-26 01:00,59.00,50.00,72.01,0.00,0.00,0.00,30.18,,6.21,,,,,,,,,,,,,,,,,59.00,SBMT 260100Z 00000KT CAVOK 15/10 Q1022,
SBMT,2024-07-26 02:00,57.20,50.00,76.82,10.00,2.00,0.00,30.18,,6.21,,,,,,,,,,,,,,,,,57.20,SBMT 260200Z 01002KT CAVOK 14/10 Q1022,
SBMT,2024-07-26 09:00,50.00,48.20,93.50,0.00,0.00,0.00,30.15,,6.21,,,,,,,,,,,,,,,,,50.00,SBMT 260900Z 00000KT CAVOK 10/09 Q1021,
SBMT,2024-07-26 10:00,50.00,46.40,87.37,0.00,0.00,0.00,30.18,,6.21,,,,,,,,,,,,,,,,,50.00,SBMT 261000Z 00000KT CAVOK 10/08 Q1022,
SBMT,2024-07-26 11:00,55.40,51.80,87.65,0.00,0.00,0.00,30.21,,6.21,,,,,,,,,,,,,,,,,55.40,SBMT 261100Z 00000KT CAVOK 13/11 Q1023,
SBMT,2024-07-26 12:00,64.40,50.00,59.50,90.00,3.00,0.00,30.21,,6.21,,,,,,,,,,,,,,,,,64.40,SBMT 261200Z 09003KT 040V130 CAVOK 18/10 Q1023,
SBMT,2024-07-26 13:00,68.00,48.20,49.10,,2.00,0.00,30.21,,6.21,,,,,,,,,,,,,,,,,68.00,SBMT 261300Z VRB02KT CAVOK 20/09 Q1023,
SBMT,2024-07-26 14:00,71.60,48.20,43.42,130.00,1.00,0.00,30.24,,6.21,,,,,,,,,,,,,,,,,71.60,SBMT 261400Z 13001KT CAVOK 22/09 Q1024,
SBMT,2024-07-26 15:00,75.20,46.40,35.94,,2.00,0.00,30.21,,6.21,,,,,,,,,,,,,,,,,75.20,SBMT 261500Z VRB02KT CAVOK 24/08 Q1023,
SBMT,2024-07-26 16:00,77.00,44.60,31.62,,3.00,0.00,30.15,,6.21,,,,,,,,,,,,,,,,,77.00,SBMT 261600Z VRB03KT CAVOK 25/07 Q1021,
SBMT,2024-07-26 17:00,78.80,46.40,31.90,,2.00,0.00,30.12,,6.21,,,,,,,,,,,,,,,,,78.80,SBMT 261700Z VRB02KT CAVOK 26/08 Q1020,
SBMT,2024-07-26 18:00,77.00,46.40,33.85,10.00,5.00,0.00,30.12,,6.21,,,,,,,,,,,,,,,,,77.00,SBMT 261800Z 01005KT 300V070 CAVOK 25/08 Q1020,
SBMT,2024-07-26 19:00,77.00,44.60,31.62,,2.00,0.00,30.12,,6.21,,,,,,,,,,,,,,,,,77.00,SBMT 261900Z VRB02KT CAVOK 25/07 Q1020,
SBMT,2024-07-26 20:00,75.20,44.60,33.57,0.00,0.00,0.00,30.12,,6.21,,,,,,,,,,,,,,,,,75.20,SBMT 262000Z 00000KT CAVOK 24/07 Q1020,
SBMT,2024-07-26 21:00,71.60,48.20,43.42,140.00,5.00,0.00,30.15,,6.21,,,,,,,,,,,,,,,,,71.60,SBMT 262100Z 14005KT CAVOK 22/09 Q1021,
SBMT,2024-07-26 22:00,69.80,48.20,46.16,140.00,4.00,0.00,30.15,,6.21,,,,,,,,,,,,,,,,,69.80,SBMT 262200Z 14004KT CAVOK 21/09 Q1021,
SBMT,2024-07-26 23:00,62.60,50.00,63.38,0.00,0.00,0.00,30.18,,6.21,,,,,,,,,,,,,,,,,62.60,SBMT 262300Z 00000KT CAVOK 17/10 Q1022,
SBMT,2024-07-27 00:00,62.60,48.20,59.26,0.00,0.00,0.00,30.18,,6.21,,,,,,,,,,,,,,,,,62.60,SBMT 270000Z 00000KT CAVOK 17/09 Q1022,
SBMT,2024-07-27 01:00,60.80,50.00,67.54,80.00,2.00,0.00,30.18,,6.21,,,,,,,,,,,,,,,,,60.80,SBMT 270100Z 08002KT CAVOK 16/10 Q1022,
SBMT,2024-07-27 02:00,59.00,50.00,72.01,130.00,2.00,0.00,30.18,,6.21,,,,,,,,,,,,,,,,,59.00,SBMT 270200Z 13002KT CAVOK 15/10 Q1022,
SBMT,2024-07-27 09:00,53.60,50.00,87.56,,1.00,0.00,30.18,,3.73,,NSC,,,,,,,,,,,,,,,53.60,SBMT 270900Z VRB01KT 6000 NSC 12/10 Q1022,
SBMT,2024-07-27 10:00,53.60,50.00,87.56,0.00,0.00,0.00,30.18,,4.35,,NSC,,,,,,,,,,,,,,,53.60,SBMT 271000Z 00000KT 7000 NSC 12/10 Q1022,
SBMT,2024-07-27 11:00,59.00,53.60,82.25,,2.00,0.00,30.21,,4.35,,NSC,,,,,,,,,,,,,,,59.00,SBMT 271100Z VRB02KT 7000 NSC 15/12 Q1023,
SBMT,2024-07-27 12:00,64.40,50.00,59.50,80.00,4.00,0.00,30.21,,4.35,,NSC,,,,,,,,,,,,,,,64.40,SBMT 271200Z 08004KT 050V110 7000 NSC 18/10 Q1023,
SBMT,2024-07-27 13:00,68.00,50.00,52.51,70.00,4.00,0.00,30.24,,4.97,,NSC,,,,,,,,,,,,,,,68.00,SBMT 271300Z 07004KT 040V100 8000 NSC 20/10 Q1024,
SBMT,2024-07-27 14:00,73.40,50.00,43.69,90.00,3.00,0.00,30.24,,4.97,,NSC,,,,,,,,,,,,,,,73.40,SBMT 271400Z 09003KT 040V130 8000 NSC 23/10 Q1024,
SBMT,2024-07-27 15:00,75.20,50.00,41.14,,4.00,0.00,30.21,,4.35,,NSC,,,,,,,,,,,,,,,75.20,SBMT 271500Z VRB04KT 7000 NSC 24/10 Q1023,
SBMT,2024-07-27 16:00,77.00,46.40,33.85,,3.00,0.00,30.18,,4.97,,FEW,SCT,,,2000.00,5000.00,,,,,,,,,,77.00,SBMT 271600Z VRB03KT 8000 FEW020 SCT050 25/08 Q1022,
SBMT,2024-07-27 17:00,78.80,44.60,29.79,320.00,5.00,0.00,30.15,,4.97,,FEW,BKN,,,2000.00,5000.00,,,,,,,,,,78.80,SBMT 271700Z 32005KT 260V030 8000 FEW020 BKN050 26/07 Q1021,
SBMT,2024-07-27 18:00,77.00,44.60,31.62,270.00,6.00,0.00,30.15,,6.21,,FEW,BKN,,,2000.00,5000.00,,,,,,,,,,77.00,SBMT 271800Z 27006KT 230V300 9999 FEW020 BKN050 25/07 Q1021,
SBMT,2024-07-27 19:00,77.00,42.80,29.51,330.00,4.00,0.00,30.15,,6.21,,FEW,BKN,,,2000.00,5000.00,,,,,,,,,,77.00,SBMT 271900Z 33004KT 290V060 9999 FEW020 BKN050 25/06 Q1021,
SBMT,2024-07-27 20:00,77.00,44.60,31.62,340.00,3.00,0.00,30.15,,6.21,,,,,,,,,,,,,,,,,77.00,SBMT 272000Z 34003KT 290V030 CAVOK 25/07 Q1021,
SBMT,2024-07-27 21:00,71.60,48.20,43.42,150.00,4.00,0.00,30.15,,6.21,,,,,,,,,,,,,,,,,71.60,SBMT 272100Z 15004KT 110V170 CAVOK 22/09 Q1021,
SBMT,2024-07-27 22:00,66.20,50.00,55.88,0.00,0.00,0.00,30.18,,6.21,,,,,,,,,,,,,,,,,66.20,SBMT 272200Z 00000KT CAVOK 19/10 Q1022,
SBMT,2024-07-27 23:00,64.40,51.80,63.60,0.00,0.00,0.00,30.18,,6.21,,,,,,,,,,,,,,,,,64.40,SBMT 272300Z 00000KT CAVOK 18/11 Q1022,
SBMT,2024-07-28 00:00,62.60,51.80,67.75,100.00,2.00,0.00,30.21,,6.21,,,,,,,,,,,,,,,,,62.60,SBMT 280000Z 10002KT CAVOK 17/11 Q1023,
SBMT,2024-07-28 01:00,60.80,51.80,72.20,60.00,3.00,0.00,30.21,,6.21,,,,,,,,,,,,,,,,,60.80,SBMT 280100Z 06003KT 030V100 CAVOK 16/11 Q1023,
SBMT,2024-07-28 02:00,59.00,51.80,76.98,0.00,0.00,0.00,30.21,,6.21,,,,,,,,,,,,,,,,,59.00,SBMT 280200Z 00000KT CAVOK 15/11 Q1023,
SBMT,2024-07-28 09:00,51.80,50.00,93.55,0.00,0.00,0.00,30.18,,6.21,,,,,,,,,,,,,,,,,51.80,SBMT 280900Z 00000KT CAVOK 11/10 Q1022,
SBMT,2024-07-28 10:00,53.60,51.80,93.60,0.00,0.00,0.00,30.18,,5.59,,NSC,,,,,,,,,,,,,,,53.60,SBMT 281000Z 00000KT 9000 NSC 12/11 Q1022,
SBMT,2024-07-28 11:00,59.00,55.40,87.83,110.00,3.00,0.00,30.21,,6.21,,,,,,,,,,,,,,,,,59.00,SBMT 281100Z 11003KT CAVOK 15/13 Q1023,
SBMT,2024-07-28 13:00,71.60,51.80,49.64,,2.00,0.00,30.21,,6.21,,,,,,,,,,,,,,,,,71.60,SBMT 281300Z VRB02KT CAVOK 22/11 Q1023,
SBMT,2024-07-28 14:00,77.00,51.80,41.42,350.00,5.00,0.00,30.18,,6.21,,,,,,,,,,,,,,,,,77.00,SBMT 281400Z 35005KT 280V060 CAVOK 25/11 Q1022,
SBMT,2024-07-28 15:00,78.80,51.80,39.02,300.00,8.00,0.00,30.18,,6.21,,,,,,,,,,,,,,,,,78.80,SBMT 281500Z 30008KT CAVOK 26/11 Q1022,
SBMT,2024-07-28 16:00,78.80,50.00,36.51,310.00,12.00,0.00,30.15,,6.21,,,,,,,,,,,,,,,,,78.80,SBMT 281600Z 31012KT CAVOK 26/10 Q1021,
SBMT,2024-07-28 17:00,82.40,50.00,32.46,310.00,9.00,0.00,30.12,,6.21,,,,,,,,,,,,,,,,,80.99,SBMT 281700Z 31009KT CAVOK 28/10 Q1020,
SBMT,2024-07-28 18:00,82.40,48.20,30.35,280.00,10.00,0.00,30.12,,6.21,,,,,,,,,,,,,,,,,80.80,SBMT 281800Z 28010KT CAVOK 28/09 Q1020,
SBMT,2024-07-28 19:00,80.60,48.20,32.18,260.00,10.00,0.00,30.12,,6.21,,,,,,,,,,,,,,,,,79.71,SBMT 281900Z 26010KT CAVOK 27/09 Q1020,
SBMT,2024-07-28 20:00,78.80,48.20,34.13,290.00,6.00,0.00,30.12,,6.21,,,,,,,,,,,,,,,,,78.80,SBMT 282000Z 29006KT CAVOK 26/09 Q1020,
SBMT,2024-07-28 21:00,73.40,51.80,46.71,0.00,0.00,0.00,30.15,,6.21,,,,,,,,,,,,,,,,,73.40,SBMT 282100Z 00000KT CAVOK 23/11 Q1021,
SBMT,2024-07-28 22:00,68.00,51.80,56.13,0.00,0.00,0.00,30.15,,6.21,,,,,,,,,,,,,,,,,68.00,SBMT 282200Z 00000KT CAVOK 20/11 Q1021,
SBMT,2024-07-28 23:00,68.00,51.80,56.13,0.00,0.00,0.00,30.15,,6.21,,,,,,,,,,,,,,,,,68.00,SBMT 282300Z 00000KT CAVOK 20/11 Q1021,
SBMT,2024-07-29 00:00,66.20,50.00,55.88,70.00,3.00,0.00,30.18,,6.21,,,,,,,,,,,,,,,,,66.20,SBMT 290000Z 07003KT CAVOK 19/10 Q1022,
SBMT,2024-07-29 01:00,62.60,51.80,67.75,0.00,0.00,0.00,30.18,,6.21,,,,,,,,,,,,,,,,,62.60,SBMT 290100Z 00000KT CAVOK 17/11 Q1022,
SBMT,2024-07-29 02:00,62.60,51.80,67.75,90.00,2.00,0.00,30.18,,6.21,,,,,,,,,,,,,,,,,62.60,SBMT 290200Z 09002KT CAVOK 17/11 Q1022,
SBMT,2024-07-29 09:00,57.20,51.80,82.12,0.00,0.00,0.00,30.18,,2.17,,NSC,,,,,,,,BR,,,,,,,57.20,SBMT 290900Z 00000KT 3500 BR NSC 14/11 Q1022,
SBMT,2024-07-29 10:00,59.00,53.60,82.25,,2.00,0.00,30.18,,3.11,,NSC,,,,,,,,BR,,,,,,,59.00,SBMT 291000Z VRB02KT 5000 BR NSC 15/12 Q1022,
SBMT,2024-07-29 11:00,62.60,55.40,77.29,330.00,1.00,0.00,30.21,,3.73,,NSC,,,,,,,,,,,,,,,62.60,SBMT 291100Z 33001KT 6000 NSC 17/13 Q1023,
SBMT,2024-07-29 12:00,66.20,55.40,68.15,120.00,6.00,0.00,30.21,,3.73,,NSC,,,,,,,,,,,,,,,66.20,SBMT 291200Z 12006KT 6000 NSC 19/13 Q1023,
SBMT,2024-07-29 13:00,66.20,57.20,72.74,170.00,5.00,0.00,30.24,,3.73,,NSC,,,,,,,,,,,,,,,66.20,SBMT 291300Z 17005KT 130V200 6000 NSC 19/14 Q1024,
SBMT,2024-07-29 14:00,69.80,53.60,56.38,180.00,5.00,0.00,30.21,,4.35,,NSC,,,,,,,,,,,,,,,69.80,SBMT 291400Z 18005KT 110V230 7000 NSC 21/12 Q1023,
SBMT,2024-07-29 15:00,71.60,53.60,53.03,,4.00,0.00,30.21,,4.35,,NSC,,,,,,,,,,,,,,,71.60,SBMT 291500Z VRB04KT 7000 NSC 22/12 Q1023,
SBMT,2024-07-29 16:00,73.40,53.60,49.90,,3.00,0.00,30.15,,4.35,,NSC,,,,,,,,,,,,,,,73.40,SBMT 291600Z VRB03KT 7000 NSC 23/12 Q1021,
SBMT,2024-07-29 17:00,73.40,51.80,46.71,170.00,7.00,0.00,30.15,,6.21,,,,,,,,,,,,,,,,,73.40,SBMT 291700Z 17007KT CAVOK 23/11 Q1021,
SBMT,2024-07-29 18:00,71.60,53.60,53.03,170.00,11.00,0.00,30.15,,6.21,,,,,,,,,,,,,,,,,71.60,SBMT 291800Z 17011KT CAVOK 22/12 Q1021,
SBMT,2024-07-29 19:00,68.00,51.80,56.13,170.00,8.00,0.00,30.18,,6.21,,,,,,,,,,,,,,,,,68.00,SBMT 291900Z 17008KT CAVOK 20/11 Q1022,
SBMT,2024-07-29 20:00,68.00,51.80,56.13,140.00,8.00,0.00,30.21,,4.97,,SCT,,,,3000.00,,,,,,,,,,,68.00,SBMT 292000Z 14008KT 8000 SCT030 20/11 Q1023,
SBMT,2024-07-29 21:00,64.40,51.80,63.60,150.00,6.00,0.00,30.21,,4.35,,BKN,,,,2500.00,,,,,,,,,,,64.40,SBMT 292100Z 15006KT 7000 BKN025 18/11 Q1023,
SBMT,2024-07-29 22:00,64.40,51.80,63.60,150.00,8.00,0.00,30.24,,4.97,,BKN,,,,2000.00,,,,,,,,,,,64.40,SBMT 292200Z 15008KT 8000 BKN020 18/11 Q1024,
SBMT,2024-07-29 23:00,62.60,51.80,67.75,150.00,7.00,0.00,30.24,,4.35,,BKN,,,,2000.00,,,,,,,,,,,62.60,SBMT 292300Z 15007KT 7000 BKN020 17/11 Q1024,
SBMT,2024-07-30 00:00,62.60,53.60,72.38,140.00,7.00,0.00,30.27,,4.35,,BKN,,,,2000.00,,,,,,,,,,,62.60,SBMT 300000Z 14007KT 7000 BKN020 17/12 Q1025,
SBMT,2024-07-30 01:00,60.80,53.60,77.14,160.00,9.00,0.00,30.27,,4.35,,BKN,,,,1300.00,,,,,,,,,,,60.80,SBMT 300100Z 16009KT 7000 BKN013 16/12 Q1025,
SBMT,2024-07-30 02:00,60.80,55.40,82.37,130.00,6.00,0.00,30.30,,4.35,,BKN,,,,1200.00,,,,,,,,,,,60.80,SBMT 300200Z 13006KT 7000 BKN012 16/13 Q1026,
SBMT,2024-07-30 09:00,55.40,51.80,87.65,170.00,7.00,0.00,30.30,,2.49,,BKN,BKN,,,800.00,1500.00,,,-DZ,,,,,,,55.40,SBMT 300900Z 17007KT 4000 -DZ BKN008 BKN015 13/11 Q1026,
SBMT,2024-07-30 10:00,55.40,50.00,81.99,140.00,6.00,0.00,30.30,,2.49,,BKN,BKN,,,800.00,1500.00,,,-DZ,,,,,,,55.40,SBMT 301000Z 14006KT 4000 -DZ BKN008 BKN015 13/10 Q1026,
SBMT,2024-07-30 11:00,55.40,51.80,87.65,170.00,4.00,0.00,30.33,,2.49,,BKN,,,,800.00,,,,-DZ,,,,,,,55.40,SBMT 301100Z 17004KT 4000 -DZ BKN008 13/11 Q1027,
SBMT,2024-07-30 12:00,57.20,51.80,82.12,130.00,4.00,0.00,30.33,,3.11,,BKN,,,,800.00,,,,BR,,,,,,,57.20,SBMT 301200Z 13004KT 5000 BR BKN008 14/11 Q1027,
SBMT,2024-07-30 13:00,57.20,53.60,87.74,160.00,5.00,0.00,30.36,,3.11,,BKN,,,,800.00,,,,-DZ,,,,,,,57.20,SBMT 301300Z 16005KT 5000 -DZ BKN008 14/12 Q1028,
SBMT,2024-07-30 14:00,57.20,53.60,87.74,140.00,5.00,0.00,30.36,,3.11,,BKN,,,,900.00,,,,-DZ,,,,,,,57.20,SBMT 301400Z 14005KT 5000 -DZ BKN009 14/12 Q1028,
SBMT,2024-07-30 15:00,59.00,53.60,82.25,150.00,5.00,0.00,30.36,,3.11,,BKN,,,,900.00,,,,-DZ,,,,,,,59.00,SBMT 301500Z 15005KT 5000 -DZ BKN009 15/12 Q1028,
SBMT,2024-07-30 16:00,59.00,53.60,82.25,130.00,8.00,0.00,30.33,,3.73,,BKN,BKN,,,900.00,2500.00,,,-RA,,,,,,,59.00,SBMT 301600Z 13008KT 6000 -RA BKN009 BKN025 15/12 Q1027,
SBMT,2024-07-30 17:00,59.00,55.40,87.83,120.00,9.00,0.00,30.30,,4.35,,BKN,BKN,,,1200.00,1700.00,,,,,,,,,,59.00,SBMT 301700Z 12009KT 100V160 7000 BKN012 BKN017 15/13 Q1026,
SBMT,2024-07-30 18:00,59.00,53.60,82.25,160.00,8.00,0.00,30.30,,4.35,,BKN,BKN,,,1200.00,1500.00,,,,,,,,,,59.00,SBMT 301800Z 16008KT 120V210 7000 BKN012 BKN015 15/12 Q1026,
SBMT,2024-07-30 19:00,59.00,55.40,87.83,120.00,7.00,0.00,30.30,,4.35,,BKN,OVC,,,1200.00,1500.00,,,,,,,,,,59.00,SBMT 301900Z 12007KT 7000 BKN012 OVC015 15/13 Q1026,
SBMT,2024-07-30 20:00,59.00,53.60,82.25,110.00,8.00,0.00,30.30,,4.97,,BKN,OVC,,,1300.00,1700.00,,,,,,,,,,59.00,SBMT 302000Z 11008KT 080V150 8000 BKN013 OVC017 15/12 Q1026,
SBMT,2024-07-30 21:00,59.00,53.60,82.25,110.00,9.00,0.00,30.30,,4.97,,FEW,BKN,BKN,,1300.00,1500.00,2000.00,,,,,,,,,59.00,SBMT 302100Z 11009KT 8000 FEW013 BKN015 BKN020 15/12 Q1026,
SBMT,2024-07-30 22:00,57.20,55.40,93.69,110.00,8.00,0.00,30.30,,4.97,,FEW,BKN,BKN,,900.00,1200.00,1500.00,,,,,,,,,57.20,SBMT 302200Z 11008KT 8000 FEW009 BKN012 BKN015 14/13 Q1026,
SBMT,2024-07-30 23:00,59.00,53.60,82.25,110.00,9.00,0.00,30.33,,4.97,,FEW,BKN,BKN,,900.00,1200.00,1500.00,,,,,,,,,59.00,SBMT 302300Z 11009KT 8000 FEW009 BKN012 BKN015 15/12 Q1027,
SBMT,2024-07-31 00:00,57.20,53.60,87.74,110.00,10.00,0.00,30.33,,4.97,,FEW,BKN,BKN,,900.00,1200.00,1500.00,,,,,,,,,57.20,SBMT 310000Z 11010KT 080V140 8000 FEW009 BKN012 BKN015 14/12 Q1027,
SBMT,2024-07-31 01:00,59.00,53.60,82.25,110.00,10.00,0.00,30.33,,4.97,,FEW,BKN,BKN,,900.00,1200.00,1500.00,,,,,,,,,59.00,SBMT 310100Z 11010KT 8000 FEW009 BKN012 BKN015 15/12 Q1027,
SBMT,2024-07-31 02:00,59.00,53.60,82.25,110.00,7.00,0.00,30.36,,4.97,,BKN,BKN,,,1200.00,1500.00,,,,,,,,,,59.00,SBMT 310200Z 11007KT 8000 BKN012 BKN015 15/12 Q1028,
SBMT,2024-07-31 09:00,57.20,53.60,87.74,90.00,8.00,0.00,30.30,,5.59,,SCT,BKN,,,1200.00,2000.00,,,,,,,,,,57.20,SBMT 310900Z 09008KT 9000 SCT012 BKN020 14/12 Q1026,
SBMT,2024-07-31 10:00,57.20,53.60,87.74,100.00,9.00,0.00,30.30,,6.21,,BKN,,,,2000.00,,,,,,,,,,,57.20,SBMT 311000Z 10009KT 9999 BKN020 14/12 Q1026,
SBMT,2024-07-31 11:00,59.00,53.60,82.25,90.00,8.00,0.00,30.33,,6.21,,SCT,BKN,,,1700.00,2000.00,,,,,,,,,,59.00,SBMT 311100Z 09008KT 9999 SCT017 BKN020 15/12 Q1027,
SBMT,2024-07-31 12:00,60.80,53.60,77.14,80.00,8.00,0.00,30.33,,6.21,,SCT,BKN,,,1300.00,1500.00,,,,,,,,,,60.80,SBMT 311200Z 08008KT 050V110 9999 SCT013 BKN015 16/12 Q1027,
SBMT,2024-07-31 13:00,62.60,55.40,77.29,70.00,10.00,0.00,30.36,,6.21,,SCT,BKN,,,1500.00,1700.00,,,,,,,,,,62.60,SBMT 311300Z 07010KT 9999 SCT015 BKN017 17/13 Q1028,
SBMT,2024-07-31 14:00,64.40,55.40,72.56,70.00,11.00,0.00,30.33,,6.21,,BKN,,,,2000.00,,,,,,,,,,,64.40,SBMT 311400Z 07011KT 030V100 9999 BKN020 18/13 Q1027,
SBMT,2024-07-31 15:00,66.20,55.40,68.15,80.00,10.00,0.00,30.33,,6.21,,SCT,,,,2300.00,,,,,,,,,,,66.20,SBMT 311500Z 08010KT 9999 SCT023 19/13 Q1027,
SBMT,2024-07-31 16:00,69.80,55.40,60.21,70.00,7.00,0.00,30.27,,6.21,,,,,,,,,,,,,,,,,69.80,SBMT 311600Z 07007KT 020V120 CAVOK 21/13 Q1025,
SBMT,2024-07-31 17:00,71.60,57.20,60.44,80.00,5.00,0.00,30.24,,6.21,,,,,,,,,,,,,,,,,71.60,SBMT 311700Z 08005KT 010V070 CAVOK 22/14 Q1024,
SBMT,2024-07-31 18:00,71.60,55.40,56.63,110.00,7.00,0.00,30.21,,6.21,,,,,,,,,,,,,,,,,71.60,SBMT 311800Z 11007KT CAVOK 22/13 Q1023,
SBMT,2024-07-31 19:00,73.40,55.40,53.29,90.00,6.00,0.00,30.21,,6.21,,,,,,,,,,,,,,,,,73.40,SBMT 311900Z 09006KT 020V120 CAVOK 23/13 Q1023,
SBMT,2024-07-31 20:00,71.60,55.40,56.63,110.00,8.00,0.00,30.21,,6.21,,,,,,,,,,,,,,,,,71.60,SBMT 312000Z 11008KT CAVOK 22/13 Q1023,
SBMT,2024-07-31 21:00,66.20,59.00,77.60,160.00,8.00,0.00,30.24,,6.21,,,,,,,,,,,,,,,,,66.20,SBMT 312100Z 16008KT CAVOK 19/15 Q1024,
SBMT,2024-07-31 22:00,62.60,57.20,82.50,150.00,6.00,0.00,30.27,,6.21,,,,,,,,,,,,,,,,,62.60,SBMT 312200Z 15006KT CAVOK 17/14 Q1025,
SBMT,2024-07-31 23:00,60.80,57.20,87.92,140.00,6.00,0.00,30.30,,6.21,,SCT,,,,900.00,,,,,,,,,,,60.80,SBMT 312300Z 14006KT 9999 SCT009 16/14 Q1026,
SBMT,2024-08-01 00:00,60.80,57.20,87.92,150.00,6.00,0.00,30.30,,6.21,,OVC,,,,900.00,,,,,,,,,,,60.80,SBMT 010000Z 15006KT 9999 OVC009 16/14 Q1026,
SBMT,2024-08-01 01:00,60.80,57.20,87.92,120.00,6.00,0.00,30.33,,3.11,,OVC,,,,900.00,,,,BR,,,,,,,60.80,SBMT 010100Z 12006KT 5000 BR OVC009 16/14 Q1027,
SBMT,2024-08-01 02:00,60.80,57.20,87.92,110.00,6.00,0.00,30.30,,3.11,,OVC,,,,900.00,,,,BR,,,,,,,60.80,SBMT 010200Z 11006KT 5000 BR OVC009 16/14 Q1026,
SBMT,2024-08-01 09:00,59.00,55.40,87.83,80.00,9.00,0.00,30.30,,3.73,,BKN,,,,900.00,,,,,,,,,,,59.00,SBMT 010900Z 08009KT 6000 BKN009 15/13 Q1026,
SBMT,2024-08-01 10:00,59.00,55.40,87.83,60.00,10.00,0.00,30.30,,3.73,,BKN,,,,800.00,,,,,,,,,,,59.00,SBMT 011000Z 06010KT 6000 BKN008 15/13 Q1026,
SBMT,2024-08-01 11:00,59.00,55.40,87.83,70.00,7.00,0.00,30.33,,3.73,,BKN,,,,900.00,,,,,,,,,,,59.00,COR SBMT 011100Z 07007KT 6000 BKN009 15/13 Q1027,
SBMT,2024-08-01 12:00,60.80,55.40,82.37,100.00,9.00,0.00,30.33,,4.35,,BKN,,,,900.00,,,,,,,,,,,60.80,SBMT 011200Z 10009KT 7000 BKN009 16/13 Q1027,
SBMT,2024-08-01 13:00,62.60,57.20,82.50,110.00,7.00,0.00,30.36,,4.35,,SCT,BKN,,,1100.00,1300.00,,,,,,,,,,62.60,SBMT 011300Z 11007KT 7000 SCT011 BKN013 17/14 Q1028,
SBMT,2024-08-01 14:00,66.20,57.20,72.74,70.00,6.00,0.00,30.33,,6.21,,,,,,,,,,,,,,,,,66.20,SBMT 011400Z 07006KT CAVOK 19/14 Q1027,
SBMT,2024-08-01 15:00,69.80,55.40,60.21,90.00,5.00,0.00,30.30,,6.21,,,,,,,,,,,,,,,,,69.80,SBMT 011500Z 09005KT CAVOK 21/13 Q1026,
SBMT,2024-08-01 16:00,71.60,57.20,60.44,100.00,5.00,0.00,30.27,,6.21,,,,,,,,,,,,,,,,,71.60,SBMT 011600Z 10005KT CAVOK 22/14 Q1025,
SBMT,2024-08-01 17:00,75.20,53.60,46.98,80.00,6.00,0.00,30.24,,6.21,,,,,,,,,,,,,,,,,75.20,SBMT 011700Z 08006KT CAVOK 24/12 Q1024,
SBMT,2024-08-01 18:00,77.00,48.20,36.22,70.00,6.00,0.00,30.21,,6.21,,,,,,,,,,,,,,,,,77.00,SBMT 011800Z 07006KT CAVOK 25/09 Q1023,
SBMT,2024-08-01 19:00,77.00,41.00,27.53,100.00,7.00,0.00,30.21,,6.21,,,,,,,,,,,,,,,,,77.00,SBMT 011900Z 10007KT CAVOK 25/05 Q1023,
SBMT,2024-08-01 20:00,73.40,55.40,53.29,150.00,7.00,0.00,30.21,,5.59,,NSC,,,,,,,,,,,,,,,73.40,SBMT 012000Z 15007KT 9000 NSC 23/13 Q1023,
SBMT,2024-08-01 21:00,68.00,59.00,72.92,150.00,6.00,0.00,30.24,,5.59,,NSC,,,,,,,,,,,,,,,68.00,SBMT 012100Z 15006KT 9000 NSC 20/15 Q1024,
SBMT,2024-08-01 22:00,64.40,57.20,77.45,120.00,5.00,0.00,30.24,,4.97,,NSC,,,,,,,,,,,,,,,64.40,SBMT 012200Z 12005KT 8000 NSC 18/14 Q1024,
SBMT,2024-08-01 23:00,62.60,57.20,82.50,140.00,5.00,0.00,30.27,,5.59,,NSC,,,,,,,,,,,,,,,62.60,SBMT 012300Z 14005KT 9000 NSC 17/14 Q1025,
SBMT,2024-08-02 00:00,60.80,57.20,87.92,130.00,4.00,0.00,30.27,,4.97,,NSC,,,,,,,,,,,,,,,60.80,SBMT 020000Z 13004KT 8000 NSC 16/14 Q1025,
SBMT,2024-08-02 01:00,60.80,57.20,87.92,130.00,4.00,0.00,30.30,,3.73,,NSC,,,,,,,,,,,,,,,60.80,SBMT 020100Z 13004KT 6000 NSC 16/14 Q1026,
SBMT,2024-08-02 02:00,59.00,55.40,87.83,100.00,5.00,0.00,30.30,,3.11,,NSC,,,,,,,,BR,,,,,,,59.00,SBMT 020200Z 10005KT 5000 BR NSC 15/13 Q1026,
SBMT,2024-08-02 09:00,57.20,55.40,93.69,90.00,6.00,0.00,30.27,,5.59,,FEW,,,,1000.00,,,,,,,,,,,57.20,SBMT 020900Z 09006KT 9000 FEW010 14/13 Q1025,
SBMT,2024-08-02 10:00,57.20,55.40,93.69,90.00,7.00,0.00,30.27,,4.97,,BKN,,,,900.00,,,,,,,,,,,57.20,SBMT 021000Z 09007KT 8000 BKN009 14/13 Q1025,
SBMT,2024-08-02 11:00,59.00,55.40,87.83,90.00,8.00,0.00,30.30,,5.59,,SCT,,,,1000.00,,,,,,,,,,,59.00,SBMT 021100Z 09008KT 9000 SCT010 15/13 Q1026,
SBMT,2024-08-02 12:00,60.80,55.40,82.37,80.00,8.00,0.00,30.33,,6.21,,FEW,,,,1200.00,,,,,,,,,,,60.80,SBMT 021200Z 08008KT 9999 FEW012 16/13 Q1027,
SBMT,2024-08-02 13:00,64.40,55.40,72.56,80.00,6.00,0.00,30.33,,6.21,,,,,,,,,,,,,,,,,64.40,SBMT 021300Z 08006KT CAVOK 18/13 Q1027,
SBMT,2024-08-02 14:00,68.00,55.40,64.04,80.00,6.00,0.00,30.30,,6.21,,,,,,,,,,,,,,,,,68.00,SBMT 021400Z 08006KT CAVOK 20/13 Q1026,
SBMT,2024-08-02 15:00,73.40,55.40,53.29,50.00,5.00,0.00,30.27,,6.21,,,,,,,,,,,,,,,,,73.40,SBMT 021500Z 05005KT CAVOK 23/13 Q1025,
SBMT,2024-08-02 16:00,75.20,53.60,46.98,80.00,6.00,0.00,30.24,,6.21,,,,,,,,,,,,,,,,,75.20,SBMT 021600Z 08006KT CAVOK 24/12 Q1024,
SBMT,2024-08-02 17:00,77.00,51.80,41.42,,3.00,0.00,30.21,,6.21,,,,,,,,,,,,,,,,,77.00,SBMT 021700Z VRB03KT CAVOK 25/11 Q1023,
SBMT,2024-08-02 18:00,78.80,51.80,39.02,,2.00,0.00,30.18,,6.21,,,,,,,,,,,,,,,,,78.80,SBMT 021800Z VRB02KT CAVOK 26/11 Q1022,
SBMT,2024-08-02 19:00,77.00,50.00,38.74,0.00,0.00,0.00,30.18,,6.21,,,,,,,,,,,,,,,,,77.00,SBMT 021900Z 00000KT CAVOK 25/10 Q1022,
SBMT,2024-08-02 20:00,77.00,50.00,38.74,80.00,6.00,0.00,30.18,,6.21,,,,,,,,,,,,,,,,,77.00,SBMT 022000Z 08006KT 040V100 CAVOK 25/10 Q1022,
SBMT,2024-08-02 21:00,73.40,51.80,46.71,80.00,7.00,0.00,30.18,,6.21,,,,,,,,,,,,,,,,,73.40,SBMT 022100Z 08007KT CAVOK 23/11 Q1022,
SBMT,2024-08-02 22:00,71.60,51.80,49.64,70.00,4.00,0.00,30.18,,6.21,,,,,,,,,,,,,,,,,71.60,SBMT 022200Z 07004KT 030V090 CAVOK 22/11 Q1022,
SBMT,2024-08-02 23:00,69.80,53.60,56.38,90.00,4.00,0.00,30.21,,6.21,,,,,,,,,,,,,,,,,69.80,SBMT 022300Z 09004KT CAVOK 21/12 Q1023,
SBMT,2024-08-03 00:00,68.00,51.80,56.13,90.00,5.00,0.00,30.21,,6.21,,,,,,,,,,,,,,,,,68.00,SBMT 030000Z 09005KT 050V110 CAVOK 20/11 Q1023,
SBMT,2024-08-03 01:00,66.20,50.00,55.88,90.00,6.00,0.00,30.21,,6.21,,,,,,,,,,,,,,,,,66.20,SBMT 030100Z 09006KT CAVOK 19/10 Q1023,
SBMT,2024-08-03 02:00,64.40,51.80,63.60,90.00,7.00,0.00,30.21,,6.21,,,,,,,,,,,,,,,,,64.40,SBMT 030200Z 09007KT CAVOK 18/11 Q1023,
SBMT,2024-08-03 09:00,59.00,51.80,76.98,110.00,3.00,0.00,30.21,,6.21,,,,,,,,,,,,,,,,,59.00,SBMT 030900Z 11003KT CAVOK 15/11 Q1023,
SBMT,2024-08-03 10:00,59.00,51.80,76.98,90.00,5.00,0.00,30.24,,6.21,,,,,,,,,,,,,,,,,59.00,SBMT 031000Z 09005KT CAVOK 15/11 Q1024,
SBMT,2024-08-03 11:00,60.80,53.60,77.14,80.00,6.00,0.00,30.27,,6.21,,,,,,,,,,,,,,,,,60.80,SBMT 031100Z 08006KT CAVOK 16/12 Q1025,
SBMT,2024-08-03 12:00,64.40,53.60,67.95,100.00,7.00,0.00,30.27,,6.21,,,,,,,,,,,,,,,,,64.40,SBMT 031200Z 10007KT CAVOK 18/12 Q1025,
SBMT,2024-08-03 13:00,68.00,51.80,56.13,70.00,6.00,0.00,30.27,,6.21,,,,,,,,,,,,,,,,,68.00,SBMT 031300Z 07006KT CAVOK 20/11 Q1025,
SBMT,2024-08-03 14:00,73.40,51.80,46.71,60.00,5.00,0.00,30.27,,6.21,,,,,,,,,,,,,,,,,73.40,SBMT 031400Z 06005KT CAVOK 23/11 Q1025,
SBMT,2024-08-03 15:00,77.00,51.80,41.42,50.00,4.00,0.00,30.24,,6.21,,,,,,,,,,,,,,,,,77.00,SBMT 031500Z 05004KT 360V100 CAVOK 25/11 Q1024,
SBMT,2024-08-03 16:00,78.80,51.80,39.02,,3.00,0.00,30.21,,6.21,,,,,,,,,,,,,,,,,78.80,SBMT 031600Z VRB03KT CAVOK 26/11 Q1023,
SBMT,2024-08-03 17:00,80.60,48.20,32.18,20.00,6.00,0.00,30.18,,6.21,,,,,,,,,,,,,,,,,79.71,SBMT 031700Z 02006KT CAVOK 27/09 Q1022,
SBMT,2024-08-03 18:00,82.40,46.40,28.36,310.00,4.00,0.00,30.15,,6.21,,,,,,,,,,,,,,,,,80.64,SBMT 031800Z 31004KT CAVOK 28/08 Q1021,
SBMT,2024-08-03 19:00,80.60,44.60,28.08,340.00,6.00,0.00,30.15,,6.21,,FEW,,,,4000.00,,,,,,,,,,,79.42,SBMT 031900Z 34006KT 9999 FEW040 27/07 Q1021,
SBMT,2024-08-03 20:00,80.60,44.60,28.08,360.00,4.00,0.00,30.15,,6.21,,,,,,,,,,,,,,,,,79.42,SBMT 032000Z 36004KT CAVOK 27/07 Q1021,
SBMT,2024-08-03 21:00,77.00,50.00,38.74,40.00,4.00,0.00,30.15,,6.21,,,,,,,,,,,,,,,,,77.00,SBMT 032100Z 04004KT CAVOK 25/10 Q1021,
SBMT,2024-08-03 22:00,73.40,51.80,46.71,40.00,4.00,0.00,30.18,,6.21,,,,,,,,,,,,,,,,,73.40,SBMT 032200Z 04004KT CAVOK 23/11 Q1022,
SBMT,2024-08-03 23:00,71.60,51.80,49.64,70.00,3.00,0.00,30.18,,6.21,,,,,,,,,,,,,,,,,71.60,SBMT 032300Z 07003KT CAVOK 22/11 Q1022,
SBMT,2024-08-04 00:00,64.40,51.80,63.60,120.00,2.00,0.00,30.21,,6.21,,,,,,,,,,,,,,,,,64.40,SBMT 040000Z 12002KT CAVOK 18/11 Q1023,
SBMT,2024-08-04 01:00,62.60,51.80,67.75,110.00,3.00,0.00,30.21,,6.21,,,,,,,,,,,,,,,,,62.60,SBMT 040100Z 11003KT CAVOK 17/11 Q1023,
SBMT,2024-08-04 02:00,62.60,51.80,67.75,120.00,3.00,0.00,30.21,,6.21,,,,,,,,,,,,,,,,,62.60,SBMT 040200Z 12003KT CAVOK 17/11 Q1023,
SBMT,2024-08-04 09:00,57.20,53.60,87.74,90.00,1.00,0.00,30.21,,6.21,,,,,,,,,,,,,,,,,57.20,SBMT 040900Z 09001KT CAVOK 14/12 Q1023,
SBMT,2024-08-04 10:00,57.20,53.60,87.74,110.00,3.00,0.00,30.24,,6.21,,,,,,,,,,,,,,,,,57.20,SBMT 041000Z 11003KT CAVOK 14/12 Q1024,
SBMT,2024-08-04 11:00,64.40,57.20,77.45,100.00,7.00,0.00,30.27,,6.21,,,,,,,,,,,,,,,,,64.40,SBMT 041100Z 10007KT CAVOK 18/14 Q1025,
SBMT,2024-08-04 12:00,68.00,57.20,68.35,70.00,4.00,0.00,30.27,,6.21,,,,,,,,,,,,,,,,,68.00,SBMT 041200Z 07004KT 010V120 CAVOK 20/14 Q1025,
SBMT,2024-08-04 13:00,71.60,57.20,60.44,0.00,0.00,0.00,30.30,,6.21,,,,,,,,,,,,,,,,,71.60,SBMT 041300Z 00000KT CAVOK 22/14 Q1026,
SBMT,2024-08-04 14:00,75.20,57.20,53.55,70.00,4.00,0.00,30.27,,6.21,,,,,,,,,,,,,,,,,75.20,SBMT 041400Z 07004KT 020V110 CAVOK 24/14 Q1025,
SBMT,2024-08-04 15:00,78.80,51.80,39.02,20.00,9.00,0.00,30.24,,6.21,,,,,,,,,,,,,,,,,78.80,SBMT 041500Z 02009KT 320V070 CAVOK 26/11 Q1024,
SBMT,2024-08-04 16:00,78.80,53.60,41.69,330.00,9.00,0.00,30.21,,6.21,,SCT,,,,3000.00,,,,,,,,,,,78.80,SBMT 041600Z 33009KT 240V020 9999 SCT030 26/12 Q1023,
SBMT,2024-08-04 17:00,80.60,51.80,36.79,290.00,10.00,0.00,30.18,,6.21,,FEW,,,,4000.00,,,,,,,,,,,80.08,SBMT 041700Z 29010KT 9999 FEW040 27/11 Q1022,
SBMT,2024-08-04 18:00,82.40,48.20,30.35,330.00,6.00,0.00,30.15,,6.21,,SCT,,,,4000.00,,,,,,,,,,,80.80,SBMT 041800Z 33006KT 9999 SCT040 28/09 Q1021,
SBMT,2024-08-04 19:00,80.60,50.00,34.41,290.00,6.00,0.00,30.15,,6.21,,SCT,,,,4000.00,,,,,,,,,,,79.88,SBMT 041900Z 29006KT 9999 SCT040 27/10 Q1021,
SBMT,2024-08-04 20:00,78.80,50.00,36.51,330.00,3.00,0.00,30.15,,6.21,,,,,,,,,,,,,,,,,78.80,SBMT 042000Z 33003KT CAVOK 26/10 Q1021,
SBMT,2024-08-04 22:00,71.60,53.60,53.03,0.00,0.00,0.00,30.18,,6.21,,,,,,,,,,,,,,,,,71.60,SBMT 042200Z 00000KT CAVOK 22/12 Q1022,
SBMT,2024-08-04 23:00,75.20,55.40,50.17,40.00,3.00,0.00,30.18,,6.21,,,,,,,,,,,,,,,,,75.20,SBMT 042300Z 04003KT CAVOK 24/13 Q1022,
SBMT,2024-08-05 00:00,73.40,57.20,56.88,60.00,4.00,0.00,30.21,,6.21,,,,,,,,,,,,,,,,,73.40,SBMT 050000Z 06004KT CAVOK 23/14 Q1023,
SBMT,2024-08-05 01:00,71.60,57.20,60.44,100.00,3.00,0.00,30.21,,6.21,,,,,,,,,,,,,,,,,71.60,SBMT 050100Z 10003KT CAVOK 22/14 Q1023,
SBMT,2024-08-05 02:00,69.80,57.20,64.26,80.00,5.00,0.00,30.21,,6.21,,,,,,,,,,,,,,,,,69.80,SBMT 050200Z 08005KT CAVOK 21/14 Q1023,
SBMT,2024-08-05 09:00,59.00,57.20,93.74,0.00,0.00,0.00,30.21,,3.11,,NSC,,,,,,,,BR,,,,,,,59.00,SBMT 050900Z 00000KT 5000 BR NSC 15/14 Q1023,
SBMT,2024-08-05 10:00,59.00,57.20,93.74,0.00,0.00,0.00,30.21,,6.21,,,,,,,,,,,,,,,,,59.00,SBMT 051000Z 00000KT CAVOK 15/14 Q1023,
SBMT,2024-08-05 11:00,66.20,57.20,72.74,100.00,3.00,0.00,30.24,,6.21,,,,,,,,,,,,,,,,,66.20,SBMT 051100Z 10003KT CAVOK 19/14 Q1024,
SBMT,2024-08-05 12:00,69.80,57.20,64.26,80.00,4.00,0.00,30.24,,6.21,,,,,,,,,,,,,,,,,69.80,SBMT 051200Z 08004KT CAVOK 21/14 Q1024,
SBMT,2024-08-05 13:00,73.40,57.20,56.88,120.00,3.00,0.00,30.27,,6.21,,,,,,,,,,,,,,,,,73.40,SBMT 051300Z 12003KT CAVOK 23/14 Q1025,
SBMT,2024-08-05 14:00,77.00,57.20,50.43,170.00,2.00,0.00,30.24,,6.21,,,,,,,,,,,,,,,,,77.00,SBMT 051400Z 17002KT CAVOK 25/14 Q1024,
SBMT,2024-08-05 15:00,80.60,50.00,34.41,210.00,2.00,0.00,30.24,,6.21,,,,,,,,,,,,,,,,,79.88,SBMT 051500Z 21002KT CAVOK 27/10 Q1024,
SBMT,2024-08-05 16:00,82.40,51.80,34.69,300.00,4.00,0.00,30.18,,6.21,,FEW,,,,4000.00,,,,,,,,,,,81.20,SBMT 051600Z 30004KT 9999 FEW040 28/11 Q1022,
SBMT,2024-08-05 17:00,82.40,48.20,30.35,20.00,4.00,0.00,30.15,,6.21,,SCT,,,,4500.00,,,,,,,,,,,80.80,SBMT 051700Z 02004KT 330V090 9999 SCT045 28/09 Q1021,
SBMT,2024-08-05 18:00,82.40,48.20,30.35,300.00,4.00,0.00,30.15,,6.21,,,,,,,,,,,,,,,,,80.80,SBMT 051800Z 30004KT 250V350 CAVOK 28/09 Q1021,
SBMT,2024-08-05 19:00,82.40,50.00,32.46,10.00,4.00,0.00,30.15,,6.21,,,,,,,,,,,,,,,,,80.99,SBMT 051900Z 01004KT CAVOK 28/10 Q1021,
SBMT,2024-08-05 20:00,82.40,50.00,32.46,,2.00,0.00,30.15,,6.21,,,,,,,,,,,,,,,,,80.99,SBMT 052000Z VRB02KT CAVOK 28/10 Q1021,
SBMT,2024-08-05 21:00,75.20,51.80,43.97,270.00,2.00,0.00,30.15,,6.21,,,,,,,,,,,,,,,,,75.20,SBMT 052100Z 27002KT CAVOK 24/11 Q1021,
SBMT,2024-08-05 22:00,71.60,51.80,49.64,130.00,3.00,0.00,30.18,,6.21,,,,,,,,,,,,,,,,,71.60,SBMT 052200Z 13003KT 030V180 CAVOK 22/11 Q1022,
SBMT,2024-08-05 23:00,73.40,51.80,46.71,80.00,5.00,0.00,30.18,,6.21,,,,,,,,,,,,,,,,,73.40,SBMT 052300Z 08005KT CAVOK 23/11 Q1022,
SBMT,2024-08-06 00:00,73.40,53.60,49.90,80.00,5.00,0.00,30.21,,6.21,,,,,,,,,,,,,,,,,73.40,SBMT 060000Z 08005KT CAVOK 23/12 Q1023,
SBMT,2024-08-06 01:00,66.20,53.60,63.82,60.00,2.00,0.00,30.21,,6.21,,,,,,,,,,,,,,,,,66.20,SBMT 060100Z 06002KT CAVOK 19/12 Q1023,
SBMT,2024-08-06 02:00,64.40,53.60,67.95,80.00,2.00,0.00,30.21,,6.21,,,,,,,,,,,,,,,,,64.40,SBMT 060200Z 08002KT CAVOK 18/12 Q1023,
SBMT,2024-08-06 09:00,57.20,51.80,82.12,120.00,3.00,0.00,30.15,,6.21,,,,,,,,,,,,,,,,,57.20,SBMT 060900Z 12003KT CAVOK 14/11 Q1021,
SBMT,2024-08-06 10:00,57.20,51.80,82.12,0.00,0.00,0.00,30.18,,6.21,,,,,,,,,,,,,,,,,57.20,SBMT 061000Z 00000KT CAVOK 14/11 Q1022,
SBMT,2024-08-06 11:00,64.40,53.60,67.95,100.00,4.00,0.00,30.18,,6.21,,,,,,,,,,,,,,,,,64.40,SBMT 061100Z 10004KT CAVOK 18/12 Q1022,
SBMT,2024-08-06 12:00,68.00,51.80,56.13,120.00,5.00,0.00,30.21,,6.21,,,,,,,,,,,,,,,,,68.00,SBMT 061200Z 12005KT CAVOK 20/11 Q1023,
SBMT,2024-08-06 13:00,73.40,55.40,53.29,90.00,4.00,0.00,30.21,,6.21,,,,,,,,,,,,,,,,,73.40,SBMT 061300Z 09004KT CAVOK 23/13 Q1023,
SBMT,2024-08-06 14:00,77.00,53.60,44.25,60.00,5.00,0.00,30.18,,6.21,,,,,,,,,,,,,,,,,77.00,SBMT 061400Z 06005KT CAVOK 25/12 Q1022,
SBMT,2024-08-06 15:00,82.40,55.40,39.58,150.00,3.00,0.00,30.15,,6.21,,,,,,,,,,,,,,,,,81.75,SBMT 061500Z 15003KT CAVOK 28/13 Q1021,
SBMT,2024-08-06 16:00,82.40,51.80,34.69,0.00,0.00,0.00,30.12,,6.21,,FEW,,,,4000.00,,,,,,,,,,,81.20,SBMT 061600Z 00000KT 9999 FEW040 28/11 Q1020,
SBMT,2024-08-06 17:00,82.40,51.80,34.69,50.00,5.00,0.00,30.09,,6.21,,,,,,,,,,,,,,,,,81.20,SBMT 061700Z 05005KT CAVOK 28/11 Q1019,
SBMT,2024-08-06 18:00,82.40,48.20,30.35,340.00,4.00,0.00,30.06,,6.21,,,,,,,,,,,,,,,,,80.80,SBMT 061800Z 34004KT CAVOK 28/09 Q1018,
SBMT,2024-08-06 19:00,82.40,50.00,32.46,10.00,5.00,0.00,30.06,,6.21,,,,,,,,,,,,,,,,,80.99,SBMT 061900Z 01005KT CAVOK 28/10 Q1018,
SBMT,2024-08-06 20:00,82.40,50.00,32.46,330.00,2.00,0.00,30.06,,6.21,,,,,,,,,,,,,,,,,80.99,SBMT 062000Z 33002KT CAVOK 28/10 Q1018,
SBMT,2024-08-06 21:00,82.40,50.00,32.46,330.00,2.00,0.00,30.06,,6.21,,,,,,,,,,,,,,,,,80.99,SBMT 062100Z 33002KT CAVOK 28/10 Q1018,
SBMT,2024-08-06 22:00,77.00,53.60,44.25,50.00,4.00,0.00,30.06,,6.21,,,,,,,,,,,,,,,,,77.00,SBMT 062200Z 05004KT CAVOK 25/12 Q1018,
SBMT,2024-08-06 23:00,75.20,53.60,46.98,90.00,4.00,0.00,30.09,,6.21,,,,,,,,,,,,,,,,,75.20,SBMT 062300Z 09004KT CAVOK 24/12 Q1019,
SBMT,2024-08-07 00:00,73.40,50.00,43.69,100.00,5.00,0.00,30.09,,6.21,,,,,,,,,,,,,,,,,73.40,SBMT 070000Z 10005KT CAVOK 23/10 Q1019,
SBMT,2024-08-07 01:00,73.40,51.80,46.71,80.00,3.00,0.00,30.12,,6.21,,,,,,,,,,,,,,,,,73.40,SBMT 070100Z 08003KT CAVOK 23/11 Q1020,
SBMT,2024-08-07 02:00,71.60,51.80,49.64,80.00,4.00,0.00,30.12,,6.21,,,,,,,,,,,,,,,,,71.60,SBMT 070200Z 08004KT CAVOK 22/11 Q1020,
SBMT,2024-08-07 09:00,59.00,51.80,76.98,0.00,0.00,0.00,30.06,,6.21,,,,,,,,,,,,,,,,,59.00,SBMT 070900Z 00000KT CAVOK 15/11 Q1018,
SBMT,2024-08-07 10:00,57.20,51.80,82.12,0.00,0.00,0.00,30.06,,6.21,,,,,,,,,,,,,,,,,57.20,SBMT 071000Z 00000KT CAVOK 14/11 Q1018,
SBMT,2024-08-07 11:00,66.20,53.60,63.82,80.00,4.00,0.00,30.09,,6.21,,,,,,,,,,,,,,,,,66.20,SBMT 071100Z 08004KT CAVOK 19/12 Q1019,
SBMT,2024-08-07 12:00,69.80,53.60,56.38,110.00,3.00,0.00,30.12,,6.21,,,,,,,,,,,,,,,,,69.80,SBMT 071200Z 11003KT CAVOK 21/12 Q1020,
SBMT,2024-08-07 13:00,75.20,50.00,41.14,0.00,0.00,0.00,30.12,,6.21,,,,,,,,,,,,,,,,,75.20,SBMT 071300Z 00000KT CAVOK 24/10 Q1020,
SBMT,2024-08-07 14:00,77.00,48.20,36.22,340.00,10.00,0.00,30.09,,6.21,,,,,,,,,,,,,,,,,77.00,SBMT 071400Z 34010KT CAVOK 25/09 Q1019,
SBMT,2024-08-07 15:00,78.80,48.20,34.13,330.00,9.00,0.00,30.06,,6.21,,,,,,,,,,,,,,,,,78.80,SBMT 071500Z 33009KT CAVOK 26/09 Q1018,
SBMT,2024-08-07 16:00,82.40,46.40,28.36,350.00,9.00,0.00,30.03,,6.21,,,,,,,,,,,,,,,,,80.64,SBMT 071600Z 35009KT CAVOK 28/08 Q1017,
SBMT,2024-08-07 17:00,82.40,48.20,30.35,360.00,9.00,0.00,30.00,,6.21,,FEW,,,,4000.00,,,,,,,,,,,80.80,SBMT 071700Z 36009KT 9999 FEW040 28/09 Q1016,
SBMT,2024-08-07 18:00,82.40,46.40,28.36,330.00,7.00,0.00,29.97,,6.21,,FEW,,,,4000.00,,,,,,,,,,,80.64,SBMT 071800Z 33007KT 9999 FEW040 28/08 Q1015,
SBMT,2024-08-07 19:00,80.60,46.40,30.07,340.00,8.00,0.00,29.97,,6.21,,,,,,,,,,,,,,,,,79.56,SBMT 071900Z 34008KT CAVOK 27/08 Q1015,
SBMT,2024-08-07 20:00,80.60,44.60,28.08,330.00,8.00,0.00,29.97,,6.21,,,,,,,,,,,,,,,,,79.42,SBMT 072000Z 33008KT CAVOK 27/07 Q1015,
SBMT,2024-08-07 21:00,77.00,44.60,31.62,360.00,4.00,0.00,29.97,,6.21,,,,,,,,,,,,,,,,,77.00,SBMT 072100Z 36004KT CAVOK 25/07 Q1015,
SBMT,2024-08-07 22:00,77.00,46.40,33.85,10.00,3.00,0.00,29.97,,6.21,,,,,,,,,,,,,,,,,77.00,SBMT 072200Z 01003KT CAVOK 25/08 Q1015,
SBMT,2024-08-07 23:00,69.80,46.40,43.13,360.00,2.00,0.00,30.00,,6.21,,,,,,,,,,,,,,,,,69.80,SBMT 072300Z 36002KT CAVOK 21/08 Q1016,
SBMT,2024-08-08 00:00,68.00,48.20,49.10,0.00,0.00,0.00,30.00,,6.21,,,,,,,,,,,,,,,,,68.00,SBMT 080000Z 00000KT CAVOK 20/09 Q1016,
SBMT,2024-08-08 01:00,66.20,48.20,52.25,0.00,0.00,0.00,30.00,,6.21,,,,,,,,,,,,,,,,,66.20,SBMT 080100Z 00000KT CAVOK 19/09 Q1016,
SBMT,2024-08-08 02:00,71.60,46.40,40.57,340.00,3.00,0.00,30.03,,6.21,,,,,,,,,,,,,,,,,71.60,SBMT 080200Z 34003KT CAVOK 22/08 Q1017,
SBMT,2024-08-08 09:00,59.00,48.20,67.33,290.00,2.00,0.00,29.97,,6.21,,,,,,,,,,,,,,,,,59.00,SBMT 080900Z 29002KT CAVOK 15/09 Q1015,
SBMT,2024-08-08 10:00,62.60,48.20,59.26,70.00,2.00,0.00,30.00,,6.21,,,,,,,,,,,,,,,,,62.60,SBMT 081000Z 07002KT CAVOK 17/09 Q1016,
SBMT,2024-08-08 11:00,66.20,50.00,55.88,90.00,3.00,0.00,30.00,,6.21,,,,,,,,,,,,,,,,,66.20,SBMT 081100Z 09003KT CAVOK 19/10 Q1016,
SBMT,2024-08-08 12:00,71.60,51.80,49.64,120.00,4.00,0.00,30.03,,6.21,,,,,,,,,,,,,,,,,71.60,SBMT 081200Z 12004KT CAVOK 22/11 Q1017,
SBMT,2024-08-08 13:00,77.00,48.20,36.22,290.00,4.00,0.00,30.03,,6.21,,,,,,,,,,,,,,,,,77.00,SBMT 081300Z 29004KT CAVOK 25/09 Q1017,
SBMT,2024-08-08 14:00,78.80,50.00,36.51,310.00,7.00,0.00,30.03,,6.21,,,,,,,,,,,,,,,,,78.80,SBMT 081400Z 31007KT CAVOK 26/10 Q1017,
SBMT,2024-08-08 15:00,80.60,50.00,34.41,300.00,8.00,0.00,30.00,,6.21,,,,,,,,,,,,,,,,,79.88,SBMT 081500Z 30008KT CAVOK 27/10 Q1016,
SBMT,2024-08-08 16:00,82.40,48.20,30.35,300.00,10.00,0.00,29.97,,6.21,,,,,,,,,,,,,,,,,80.80,SBMT 081600Z 30010KT CAVOK 28/09 Q1015,
SBMT,2024-08-08 17:00,84.20,50.00,30.62,310.00,8.00,0.00,29.97,,6.21,,,,,,,,,,,,,,,,,82.24,SBMT 081700Z 31008KT CAVOK 29/10 Q1015,
SBMT,2024-08-08 18:00,84.20,48.20,28.63,320.00,9.00,0.00,29.94,,6.21,,,,,,,,,,,,,,,,,82.04,SBMT 081800Z 32009KT CAVOK 29/09 Q1014,
SBMT,2024-08-08 19:00,82.40,48.20,30.35,320.00,8.00,0.00,29.94,,6.21,,,,,,,,,,,,,,,,,80.80,SBMT 081900Z 32008KT CAVOK 28/09 Q1014,
SBMT,2024-08-08 20:00,80.60,48.20,32.18,290.00,6.00,0.00,29.94,,6.21,,,,,,,,,,,,,,,,,79.71,SBMT 082000Z 29006KT CAVOK 27/09 Q1014,
SBMT,2024-08-08 21:00,78.80,50.00,36.51,270.00,4.00,0.00,29.97,,6.21,,,,,,,,,,,,,,,,,78.80,SBMT 082100Z 27004KT CAVOK 26/10 Q1015,
SBMT,2024-08-08 22:00,78.80,50.00,36.51,290.00,3.00,0.00,30.00,,6.21,,,,,,,,,,,,,,,,,78.80,SBMT 082200Z 29003KT CAVOK 26/10 Q1016,
SBMT,2024-08-08 23:00,77.00,50.00,38.74,350.00,3.00,0.00,30.00,,6.21,,,,,,,,,,,,,,,,,77.00,SBMT 082300Z 35003KT CAVOK 25/10 Q1016,
SBMT,2024-08-09 00:00,71.60,53.60,53.03,0.00,0.00,0.00,30.00,,6.21,,,,,,,,,,,,,,,,,71.60,SBMT 090000Z 00000KT CAVOK 22/12 Q1016,
SBMT,2024-08-09 01:00,69.80,53.60,56.38,0.00,0.00,0.00,30.03,,6.21,,,,,,,,,,,,,,,,,69.80,SBMT 090100Z 00000KT CAVOK 21/12 Q1017,
SBMT,2024-08-09 02:00,69.80,53.60,56.38,280.00,4.00,0.00,30.03,,6.21,,,,,,,,,,,,,,,,,69.80,SBMT 090200Z 28004KT CAVOK 21/12 Q1017,
SBMT,2024-08-09 09:00,66.20,57.20,72.74,60.00,6.00,0.00,30.03,,5.59,,NSC,,,,,,,,-RA,,,,,,,66.20,SBMT 090900Z 06006KT 9000 -RA NSC 19/14 Q1017,
SBMT,2024-08-09 10:00,64.40,59.00,82.62,,4.00,0.00,30.06,,6.21,,,,,,,,,,,,,,,,,64.40,SBMT 091000Z VRB04KT CAVOK 18/15 Q1018,
SBMT,2024-08-09 11:00,66.20,59.00,77.60,300.00,2.00,0.00,30.09,,6.21,,NSC,,,,,,,,-RA,,,,,,,66.20,SBMT 091100Z 30002KT 9999 -RA NSC 19/15 Q1019,
SBMT,2024-08-09 12:00,66.20,60.80,82.74,300.00,3.00,0.00,30.12,,6.21,,NSC,,,,,,,,-RA,,,,,,,66.20,SBMT 091200Z 30003KT 9999 -RA NSC 19/16 Q1020,
SBMT,2024-08-09 13:00,66.20,57.20,72.74,300.00,10.00,0.00,30.15,,6.21,,,,,,,,,,,,,,,,,66.20,SBMT 091300Z 30010KT CAVOK 19/14 Q1021,
SBMT,2024-08-09 14:00,66.20,55.40,68.15,310.00,8.00,0.00,30.15,,6.21,,,,,,,,,,,,,,,,,66.20,SBMT 091400Z 31008KT CAVOK 19/13 Q1021,
SBMT,2024-08-09 15:00,62.60,55.40,77.29,360.00,6.00,0.00,30.12,,6.21,,,,,,,,,,,,,,,,,62.60,SBMT 091500Z 36006KT CAVOK 17/13 Q1020,
SBMT,2024-08-09 16:00,62.60,55.40,77.29,320.00,7.00,0.00,30.09,,6.21,,,,,,,,,,,,,,,,,62.60,SBMT 091600Z 32007KT CAVOK 17/13 Q1019,
SBMT,2024-08-09 17:00,62.60,55.40,77.29,340.00,8.00,0.00,30.06,,6.21,,,,,,,,,,,,,,,,,62.60,SBMT 091700Z 34008KT 300V030 CAVOK 17/13 Q1018,
SBMT,2024-08-09 18:00,60.80,55.40,82.37,310.00,4.00,0.00,30.03,,6.21,,,,,,,,,,,,,,,,,60.80,SBMT 091800Z 31004KT 260V350 CAVOK 16/13 Q1017,
SBMT,2024-08-09 19:00,62.60,57.20,82.50,,4.00,0.00,30.06,,6.21,,SCT,OVC,,,1700.00,8000.00,,,,,,,,,,62.60,SBMT 091900Z VRB04KT 9999 SCT017 OVC080 17/14 Q1018,
SBMT,2024-08-09 20:00,60.80,57.20,87.92,310.00,4.00,0.00,30.06,,6.21,,SCT,OVC,,,2000.00,8000.00,,,,,,,,,,60.80,SBMT 092000Z 31004KT 260V010 9999 SCT020 OVC080 16/14 Q1018,
SBMT,2024-08-09 21:00,60.80,57.20,87.92,260.00,5.00,0.00,30.06,,4.35,,FEW,BKN,OVC,,1800.00,2000.00,8000.00,,-DZ,,,,,,,60.80,SBMT 092100Z 26005KT 230V290 7000 -DZ FEW018 BKN020 OVC080 16/14 Q1018,
SBMT,2024-08-09 22:00,60.80,57.20,87.92,250.00,3.00,0.00,30.06,,4.35,,BKN,OVC,,,2000.00,8000.00,,,,,,,,,,60.80,SBMT 092200Z 25003KT 220V280 7000 BKN020 OVC080 16/14 Q1018,
SBMT,2024-08-09 23:00,59.00,59.00,100.00,0.00,0.00,0.00,30.06,,3.73,,SCT,BKN,OVC,,1300.00,2000.00,8000.00,,-RA,,,,,,,59.00,SBMT 092300Z 00000KT 6000 -RA SCT013 BKN020 OVC080 15/15 Q1018,
SBMT,2024-08-10 00:00,60.80,57.20,87.92,,1.00,0.00,30.06,,3.73,,SCT,BKN,OVC,,1300.00,2000.00,8000.00,,-RA,,,,,,,60.80,SBMT 100000Z VRB01KT 6000 -RA SCT013 BKN020 OVC080 16/14 Q1018,
SBMT,2024-08-10 01:00,57.20,55.40,93.69,190.00,7.00,0.00,30.09,,2.49,,SCT,BKN,BKN,,800.00,900.00,2000.00,,RA,,,,,,,57.20,SBMT 100100Z 19007KT 110V250 4000 RA SCT008 BKN009 BKN020 14/13 Q1019,
SBMT,2024-08-10 02:00,55.40,53.60,93.65,160.00,4.00,0.00,30.09,,2.49,,SCT,BKN,BKN,,800.00,900.00,2000.00,,RA,,,,,,,55.40,SBMT 100200Z 16004KT 130V240 4000 RA SCT008 BKN009 BKN020 13/12 Q1019,
SBMT,2024-08-10 09:00,50.00,46.40,87.37,210.00,4.00,0.00,30.09,,0.62,,SCT,BKN,,,900.00,1100.00,,,DZ BR,,,,,,,50.00,SBMT 100900Z 21004KT 1000 DZ BR SCT009 BKN011 10/08 Q1019,
SBMT,2024-08-10 10:00,50.00,48.20,93.50,150.00,5.00,0.00,30.09,,1.86,,BKN,BKN,,,1100.00,1500.00,,,-DZ BR,,,,,,,50.00,SBMT 101000Z 15005KT 3000 -DZ BR BKN011 BKN015 10/09 Q1019 REDZ,
SBMT,2024-08-10 11:00,50.00,48.20,93.50,160.00,3.00,0.00,30.12,,2.49,,BKN,,,,1100.00,,,,BR,,,,,,,50.00,SBMT 101100Z 16003KT 4000 BR BKN011 10/09 Q1020,
SBMT,2024-08-10 12:00,51.80,48.20,87.47,170.00,6.00,0.00,30.15,,4.97,,BKN,,,,1300.00,,,,,,,,,,,51.80,SBMT 101200Z 17006KT 8000 BKN013 11/09 Q1021,
SBMT,2024-08-10 13:00,51.80,48.20,87.47,190.00,6.00,0.00,30.18,,4.35,,SCT,BKN,,,1100.00,1300.00,,,,,,,,,,51.80,SBMT 101300Z 19006KT 7000 SCT011 BKN013 11/09 Q1022 RERA,
SBMT,2024-08-10 14:00,50.00,46.40,87.37,200.00,8.00,0.00,30.18,,6.21,,BKN,,,,1100.00,,,,-DZ,,,,,,,50.00,SBMT 101400Z 20008KT 9999 -DZ BKN011 10/08 Q1022,
SBMT,2024-08-10 15:00,51.80,46.40,81.74,170.00,6.00,0.00,30.15,,6.21,,SCT,BKN,,,1500.00,1700.00,,,,,,,,,,51.80,SBMT 101500Z 17006KT 9999 SCT015 BKN017 11/08 Q1021,
SBMT,2024-08-10 16:00,51.80,46.40,81.74,150.00,5.00,0.00,30.15,,6.21,,BKN,,,,1500.00,,,,,,,,,,,51.80,SBMT 101600Z 15005KT 9999 BKN015 11/08 Q1021,
SBMT,2024-08-10 17:00,53.60,46.40,76.50,120.00,3.00,0.00,30.12,,6.21,,BKN,,,,1900.00,,,,,,,,,,,53.60,SBMT 101700Z 12003KT 9999 BKN019 12/08 Q1020,
SBMT,2024-08-10 18:00,57.20,48.20,71.83,,3.00,0.00,30.12,,6.21,,BKN,,,,2000.00,,,,,,,,,,,57.20,SBMT 101800Z VRB03KT 9999 BKN020 14/09 Q1020,
SBMT,2024-08-10 19:00,55.40,46.40,71.64,60.00,5.00,0.00,30.12,,6.21,,SCT,,,,2000.00,,,,,,,,,,,55.40,SBMT 101900Z 06005KT 030V090 9999 SCT020 13/08 Q1020,
SBMT,2024-08-10 20:00,55.40,46.40,71.64,70.00,3.00,0.00,30.12,,6.21,,SCT,,,,2000.00,,,,,,,,,,,55.40,SBMT 102000Z 07003KT 040V120 9999 SCT020 13/08 Q1020,
SBMT,2024-08-10 21:00,53.60,46.40,76.50,150.00,5.00,0.00,30.12,,6.21,,SCT,,,,2000.00,,,,,,,,,,,53.60,SBMT 102100Z 15005KT 9999 SCT020 12/08 Q1020,
SBMT,2024-08-10 22:00,51.80,46.40,81.74,130.00,5.00,0.00,30.15,,3.11,,OVC,,,,2000.00,,,,BR,,,,,,,51.80,SBMT 102200Z 13005KT 5000 BR OVC020 11/08 Q1021,
SBMT,2024-08-10 23:00,50.00,46.40,87.37,90.00,5.00,0.00,30.18,,3.11,,BKN,,,,2000.00,,,,BR,,,,,,,50.00,SBMT 102300Z 09005KT 070V130 5000 BR BKN020 10/08 Q1022,
SBMT,2024-08-11 00:00,50.00,46.40,87.37,110.00,3.00,0.00,30.18,,3.11,,BKN,,,,1300.00,,,,BR,,,,,,,50.00,SBMT 110000Z 11003KT 080V140 5000 BR BKN013 10/08 Q1022,
SBMT,2024-08-11 01:00,48.20,46.40,93.45,120.00,3.00,0.00,30.18,,3.11,,BKN,,,,1100.00,,,,BR,,,,,,,47.21,SBMT 110100Z 12003KT 5000 BR BKN011 09/08 Q1022,
SBMT,2024-08-11 02:00,50.00,46.40,87.37,70.00,4.00,0.00,30.18,,3.11,,BKN,,,,1100.00,,,,BR,,,,,,,50.00,SBMT 110200Z 07004KT 030V130 5000 BR BKN011 10/08 Q1022,
SBMT,2024-08-11 09:00,46.40,44.60,93.40,100.00,2.00,0.00,30.15,,1.86,,OVC,,,,500.00,,,,BR,,,,,,,46.40,SBMT 110900Z 10002KT 3000 BR OVC005 08/07 Q1021,
SBMT,2024-08-11 10:00,46.40,42.80,87.19,40.00,3.00,0.00,30.18,,3.73,,OVC,,,,700.00,,,,,,,,,,,45.15,SBMT 111000Z 04003KT 330V100 6000 OVC007 08/06 Q1022,
SBMT,2024-08-11 11:00,46.40,42.80,87.19,70.00,3.00,0.00,30.18,,5.59,,BKN,,,,900.00,,,,,,,,,,,45.15,SBMT 111100Z 07003KT 9000 BKN009 08/06 Q1022,
SBMT,2024-08-11 12:00,50.00,42.80,76.18,90.00,3.00,0.00,30.18,,6.21,,,,,,,,,,,,,,,,,50.00,SBMT 111200Z 09003KT CAVOK 10/06 Q1022,
SBMT,2024-08-11 13:00,53.60,41.00,62.23,50.00,3.00,0.00,30.18,,6.21,,,,,,,,,,,,,,,,,53.60,SBMT 111300Z 05003KT CAVOK 12/05 Q1022,
SBMT,2024-08-11 14:00,57.20,41.00,54.60,80.00,5.00,0.00,30.15,,6.21,,,,,,,,,,,,,,,,,57.20,SBMT 111400Z 08005KT CAVOK 14/05 Q1021,
SBMT,2024-08-11 15:00,60.80,37.40,41.71,40.00,4.00,0.00,30.15,,6.21,,,,,,,,,,,,,,,,,60.80,SBMT 111500Z 04004KT 360V080 CAVOK 16/03 Q1021,
SBMT,2024-08-11 16:00,66.20,39.20,37.03,20.00,4.00,0.00,30.09,,6.21,,,,,,,,,,,,,,,,,66.20,SBMT 111600Z 02004KT 320V070 CAVOK 19/04 Q1019,
SBMT,2024-08-11 17:00,68.00,39.20,34.80,290.00,3.00,0.00,30.06,,6.21,,,,,,,,,,,,,,,,,68.00,SBMT 111700Z 29003KT CAVOK 20/04 Q1018,
SBMT,2024-08-11 18:00,68.00,35.60,30.20,290.00,8.00,0.00,30.06,,6.21,,,,,,,,,,,,,,,,,68.00,SBMT 111800Z 29008KT CAVOK 20/02 Q1018,
SBMT,2024-08-11 19:00,68.00,37.40,32.43,290.00,6.00,0.00,30.06,,6.21,,,,,,,,,,,,,,,,,68.00,SBMT 111900Z 29006KT CAVOK 20/03 Q1018,
SBMT,2024-08-11 20:00,64.40,39.20,39.43,280.00,7.00,0.00,30.06,,6.21,,,,,,,,,,,,,,,,,64.40,SBMT 112000Z 28007KT CAVOK 18/04 Q1018,
SBMT,2024-08-11 21:00,62.60,39.20,42.00,290.00,6.00,0.00,30.09,,6.21,,,,,,,,,,,,,,,,,62.60,SBMT 112100Z 29006KT CAVOK 17/04 Q1019,
SBMT,2024-08-11 22:00,59.00,41.00,51.18,300.00,4.00,0.00,30.09,,6.21,,,,,,,,,,,,,,,,,59.00,SBMT 112200Z 30004KT CAVOK 15/05 Q1019,
SBMT,2024-08-11 23:00,55.40,41.00,58.27,340.00,2.00,0.00,30.09,,6.21,,,,,,,,,,,,,,,,,55.40,SBMT 112300Z 34002KT CAVOK 13/05 Q1019,
SBMT,2024-08-12 00:00,51.80,42.80,71.26,320.00,1.00,0.00,30.09,,6.21,,,,,,,,,,,,,,,,,51.80,SBMT 120000Z 32001KT CAVOK 11/06 Q1019,
SBMT,2024-08-12 01:00,50.00,42.80,76.18,320.00,2.00,0.00,30.09,,6.21,,,,,,,,,,,,,,,,,50.00,SBMT 120100Z 32002KT CAVOK 10/06 Q1019,
SBMT,2024-08-12 02:00,50.00,42.80,76.18,250.00,3.00,0.00,30.12,,6.21,,,,,,,,,,,,,,,,,50.00,SBMT 120200Z 25003KT CAVOK 10/06 Q1020,
SBMT,2024-08-12 09:00,48.20,39.20,70.88,290.00,5.00,0.00,30.09,,6.21,,,,,,,,,,,,,,,,,45.63,SBMT 120900Z 29005KT 260V330 CAVOK 09/04 Q1019,
SBMT,2024-08-12 10:00,48.20,39.20,70.88,260.00,5.00,0.00,30.12,,6.21,,,,,,,,,,,,,,,,,45.63,SBMT 121000Z 26005KT CAVOK 09/04 Q1020,
SBMT,2024-08-12 11:00,53.60,39.20,58.02,300.00,6.00,0.00,30.12,,6.21,,,,,,,,,,,,,,,,,53.60,SBMT 121100Z 30006KT 250V340 CAVOK 12/04 Q1020,
SBMT,2024-08-12 12:00,55.40,39.20,54.34,280.00,11.00,0.00,30.15,,6.21,,,,,,,,,,,,,,,,,55.40,SBMT 121200Z 28011KT CAVOK 13/04 Q1021,
SBMT,2024-08-12 13:00,59.00,37.40,44.47,300.00,10.00,0.00,30.15,,6.21,,,,,,,,,,,,,,,,,59.00,SBMT 121300Z 30010KT 270V340 CAVOK 15/03 Q1021,
SBMT,2024-08-12 14:00,60.80,37.40,41.71,290.00,8.00,0.00,30.15,,6.21,,,,,,,,,,,,,,,,,60.80,SBMT 121400Z 29008KT 220V010 CAVOK 16/03 Q1021,
SBMT,2024-08-12 15:00,64.40,33.80,31.85,300.00,10.00,0.00,30.12,,6.21,,,,,,,,,,,,,,,,,64.40,SBMT 121500Z 30010KT 260V340 CAVOK 18/01 Q1020,
SBMT,2024-08-12 16:00,66.20,37.40,34.51,290.00,9.00,0.00,30.12,,6.21,19.00,,,,,,,,,,,,,,,,66.20,SBMT 121600Z 29009G19KT 260V330 CAVOK 19/03 Q1020,
SBMT,2024-08-12 17:00,66.20,37.40,34.51,290.00,12.00,0.00,30.09,,6.21,,,,,,,,,,,,,,,,,66.20,SBMT 121700Z 29012KT CAVOK 19/03 Q1019,
SBMT,2024-08-12 18:00,66.20,44.60,45.60,270.00,13.00,0.00,30.09,,6.21,,,,,,,,,,,,,,,,,66.20,SBMT 121800Z 27013KT CAVOK 19/07 Q1019,
SBMT,2024-08-12 19:00,66.20,33.80,29.92,270.00,11.00,0.00,30.09,,6.21,,,,,,,,,,,,,,,,,66.20,SBMT 121900Z 27011KT CAVOK 19/01 Q1019,
SBMT,2024-08-12 20:00,64.40,32.00,29.63,280.00,9.00,0.00,30.12,,6.21,,,,,,,,,,,,,,,,,64.40,SBMT 122000Z 28009KT CAVOK 18/00 Q1020,
SBMT,2024-08-12 21:00,57.20,42.80,58.52,120.00,8.00,0.00,30.12,,6.21,,,,,,,,,,,,,,,,,57.20,SBMT 122100Z 12008KT CAVOK 14/06 Q1020,
SBMT,2024-08-12 22:00,55.40,41.00,58.27,150.00,5.00,0.00,30.15,,6.21,,,,,,,,,,,,,,,,,55.40,SBMT 122200Z 15005KT CAVOK 13/05 Q1021,
SBMT,2024-08-12 23:00,53.60,39.20,58.02,120.00,7.00,0.00,30.18,,6.21,,,,,,,,,,,,,,,,,53.60,SBMT 122300Z 12007KT CAVOK 12/04 Q1022,
SBMT,2024-08-13 00:00,53.60,39.20,58.02,90.00,5.00,0.00,30.21,,6.21,,,,,,,,,,,,,,,,,53.60,SBMT 130000Z 09005KT CAVOK 12/04 Q1023,
SBMT,2024-08-13 01:00,51.80,37.40,57.77,100.00,5.00,0.00,30.21,,6.21,,,,,,,,,,,,,,,,,51.80,SBMT 130100Z 10005KT CAVOK 11/03 Q1023,
SBMT,2024-08-13 02:00,50.00,37.40,61.76,110.00,5.00,0.00,30.24,,6.21,,,,,,,,,,,,,,,,,50.00,SBMT 130200Z 11005KT CAVOK 10/03 Q1024,
SBMT,2024-08-13 09:00,48.20,42.80,81.47,90.00,4.00,0.00,30.24,,6.21,,,,,,,,,,,,,,,,,46.34,SBMT 130900Z 09004KT CAVOK 09/06 Q1024,
SBMT,2024-08-13 10:00,48.20,42.80,81.47,90.00,4.00,0.00,30.27,,6.21,,BKN,,,,2000.00,,,,,,,,,,,46.34,SBMT 131000Z 09004KT 9999 BKN020 09/06 Q1025,
SBMT,2024-08-13 11:00,50.00,42.80,76.18,120.00,7.00,0.00,32.54,,6.21,,BKN,,,,1700.00,,,,,,,,,,,50.00,SBMT 131100Z 12007KT 080V160 9999 BKN017 10/06 Q1102,
SBMT,2024-08-13 12:00,51.80,42.80,71.26,120.00,8.00,0.00,30.33,,6.21,,SCT,BKN,,,2000.00,3000.00,,,,,,,,,,51.80,SBMT 131200Z 12008KT 080V150 9999 SCT020 BKN030 11/06 Q1027,
SBMT,2024-08-13 13:00,51.80,42.80,71.26,110.00,9.00,0.00,30.33,,6.21,,BKN,BKN,,,2000.00,3000.00,,,,,,,,,,51.80,SBMT 131300Z 11009KT 090V150 9999 BKN020 BKN030 11/06 Q1027,
SBMT,2024-08-13 14:00,51.80,42.80,71.26,100.00,10.00,0.00,30.36,,6.21,,BKN,BKN,,,2000.00,3000.00,,,,,,,,,,51.80,SBMT 131400Z 10010KT 9999 BKN020 BKN030 11/06 Q1028,
SBMT,2024-08-13 15:00,55.40,41.00,58.27,110.00,9.00,0.00,30.33,,6.21,,BKN,BKN,,,2000.00,3000.00,,,,,,,,,,55.40,COR SBMT 131500Z 11009KT 070V160 9999 BKN020 BKN030 13/05 Q1027,
SBMT,2024-08-13 16:00,55.40,41.00,58.27,140.00,10.00,0.00,30.30,,6.21,,BKN,BKN,,,2000.00,3000.00,,,,,,,,,,55.40,SBMT 131600Z 14010KT 090V190 9999 BKN020 BKN030 13/05 Q1026,
SBMT,2024-08-13 17:00,57.20,41.00,54.60,130.00,10.00,0.00,30.27,,6.21,,BKN,,,,3000.00,,,,,,,,,,,57.20,SBMT 131700Z 13010KT 9999 BKN030 14/05 Q1025,
SBMT,2024-08-13 18:00,53.60,42.80,66.70,150.00,10.00,0.00,30.27,,6.21,,BKN,,,,3000.00,,,,,,,,,,,53.60,SBMT 131800Z 15010KT 9999 BKN030 12/06 Q1025,
SBMT,2024-08-13 19:00,53.60,42.80,66.70,140.00,10.00,0.00,30.27,,6.21,,SCT,,,,3000.00,,,,,,,,,,,53.60,SBMT 131900Z 14010KT 9999 SCT030 12/06 Q1025,
SBMT,2024-08-13 20:00,51.80,41.00,66.48,140.00,9.00,0.00,30.27,,6.21,,SCT,,,,3000.00,,,,,,,,,,,51.80,SBMT 132000Z 14009KT 9999 SCT030 11/05 Q1025,
SBMT,2024-08-13 21:00,50.00,41.00,71.07,140.00,9.00,0.00,30.27,,6.21,,,,,,,,,,,,,,,,,50.00,SBMT 132100Z 14009KT CAVOK 10/05 Q1025,
SBMT,2024-08-13 22:00,50.00,42.80,76.18,130.00,8.00,0.00,30.27,,6.21,,FEW,,,,2000.00,,,,,,,,,,,50.00,SBMT 132200Z 13008KT 9999 FEW020 10/06 Q1025,
SBMT,2024-08-13 23:00,48.20,42.80,81.47,130.00,9.00,0.00,30.30,,6.21,,BKN,,,,1700.00,,,,,,,,,,,43.66,SBMT 132300Z 13009KT 9999 BKN017 09/06 Q1026,
SBMT,2024-08-14 00:00,48.20,42.80,81.47,130.00,7.00,0.00,30.30,,6.21,,BKN,,,,1700.00,,,,,,,,,,,44.53,SBMT 140000Z 13007KT 9999 BKN017 09/06 Q1026,
SBMT,2024-08-14 01:00,48.20,42.80,81.47,100.00,8.00,0.00,30.30,,6.21,,SCT,,,,1500.00,,,,,,,,,,,44.07,SBMT 140100Z 10008KT 9999 SCT015 09/06 Q1026,
SBMT,2024-08-14 02:00,48.20,42.80,81.47,90.00,7.00,0.00,30.30,,6.21,,SCT,,,,1500.00,,,,,,,,,,,44.53,SBMT 140200Z 09007KT 9999 SCT015 09/06 Q1026,
SBMT,2024-08-14 09:00,48.20,44.60,87.28,90.00,9.00,0.00,30.24,,2.49,,BKN,,,,1100.00,,,,BR,,,,,,,43.66,SBMT 140900Z 09009KT 4000 BR BKN011 09/07 Q1024,
SBMT,2024-08-14 10:00,48.20,44.60,87.28,90.00,9.00,0.00,30.24,,3.11,,BKN,,,,900.00,,,,BR,,,,,,,43.66,SBMT 141000Z 09009KT 5000 BR BKN009 09/07 Q1024,
SBMT,2024-08-14 11:00,50.00,44.60,81.61,60.00,7.00,0.00,30.27,,3.11,,BKN,,,,900.00,,,,BR,,,,,,,50.00,SBMT 141100Z 06007KT 030V120 5000 BR BKN009 10/07 Q1025,
SBMT,2024-08-14 12:00,51.80,46.40,81.74,70.00,7.00,0.00,30.27,,3.11,,BKN,,,,1100.00,,,,BR,,,,,,,51.80,SBMT 141200Z 07007KT 020V110 5000 BR BKN011 11/08 Q1025,
SBMT,2024-08-14 13:00,55.40,46.40,71.64,70.00,6.00,0.00,30.27,,4.97,,NSC,,,,,,,,,,,,,,,55.40,SBMT 141300Z 07006KT 8000 NSC 13/08 Q1025,
SBMT,2024-08-14 14:00,59.00,46.40,62.92,50.00,5.00,0.00,30.24,,5.59,,NSC,,,,,,,,,,,,,,,59.00,SBMT 141400Z 05005KT 010V100 9000 NSC 15/08 Q1024,
SBMT,2024-08-14 15:00,64.40,46.40,51.98,,4.00,0.00,30.21,,6.21,,,,,,,,,,,,,,,,,64.40,SBMT 141500Z VRB04KT CAVOK 18/08 Q1023,
SBMT,2024-08-14 16:00,68.00,48.20,49.10,,3.00,0.00,30.18,,6.21,,,,,,,,,,,,,,,,,68.00,SBMT 141600Z VRB03KT CAVOK 20/09 Q1022,
SBMT,2024-08-14 17:00,71.60,48.20,43.42,90.00,3.00,0.00,30.15,,6.21,,,,,,,,,,,,,,,,,71.60,SBMT 141700Z 09003KT CAVOK 22/09 Q1021,
SBMT,2024-08-14 18:00,73.40,48.20,40.85,60.00,2.00,0.00,30.15,,6.21,,,,,,,,,,,,,,,,,73.40,SBMT 141800Z 06002KT CAVOK 23/09 Q1021,
SBMT,2024-08-14 19:00,71.60,46.40,40.57,140.00,3.00,0.00,30.12,,6.21,,,,,,,,,,,,,,,,,71.60,SBMT 141900Z 14003KT CAVOK 22/08 Q1020,
SBMT,2024-08-14 20:00,71.60,46.40,40.57,70.00,3.00,0.00,30.15,,6.21,,,,,,,,,,,,,,,,,71.60,SBMT 142000Z 07003KT CAVOK 22/08 Q1021,
SBMT,2024-08-14 21:00,68.00,51.80,56.13,100.00,4.00,0.00,30.15,,6.21,,,,,,,,,,,,,,,,,68.00,SBMT 142100Z 10004KT CAVOK 20/11 Q1021,
SBMT,2024-08-14 22:00,62.60,51.80,67.75,140.00,5.00,0.00,30.18,,6.21,,,,,,,,,,,,,,,,,62.60,SBMT 142200Z 14005KT CAVOK 17/11 Q1022,
SBMT,2024-08-14 23:00,59.00,51.80,76.98,130.00,3.00,0.00,30.21,,6.21,,,,,,,,,,,,,,,,,59.00,SBMT 142300Z 13003KT CAVOK 15/11 Q1023,
SBMT,2024-08-15 00:00,57.20,51.80,82.12,110.00,2.00,0.00,30.21,,6.21,,,,,,,,,,,,,,,,,57.20,SBMT 150000Z 11002KT CAVOK 14/11 Q1023,
SBMT,2024-08-15 01:00,55.40,51.80,87.65,120.00,2.00,0.00,30.21,,6.21,,,,,,,,,,,,,,,,,55.40,SBMT 150100Z 12002KT CAVOK 13/11 Q1023,
SBMT,2024-08-15 02:00,53.60,50.00,87.56,120.00,2.00,0.00,30.21,,6.21,,,,,,,,,,,,,,,,,53.60,SBMT 150200Z 12002KT CAVOK 12/10 Q1023,
SBMT,2024-08-15 09:00,46.40,46.40,100.00,0.00,0.00,0.00,30.18,,0.62,,NSC,,,,,,,,BR MIFG,,,,,,,46.40,SBMT 150900Z 00000KT 1000 BR MIFG NSC 08/08 Q1022,
SBMT,2024-08-15 10:00,46.40,46.40,100.00,180.00,1.00,0.00,30.21,,1.86,,NSC,,,,,,,,BR MIFG,,,,,,,46.40,SBMT 151000Z 18001KT 3000 BR MIFG NSC 08/08 Q1023,
SBMT,2024-08-15 11:00,53.60,53.60,100.00,120.00,1.00,0.00,30.24,,3.11,,NSC,,,,,,,,BR,,,,,,,53.60,SBMT 151100Z 12001KT 5000 BR NSC 12/12 Q1024,
SBMT,2024-08-15 12:00,60.80,51.80,72.20,70.00,4.00,0.00,30.24,,4.97,,NSC,,,,,,,,,,,,,,,60.80,SBMT 151200Z 07004KT 8000 NSC 16/11 Q1024,
SBMT,2024-08-15 13:00,66.20,50.00,55.88,60.00,5.00,0.00,30.24,,4.97,,NSC,,,,,,,,,,,,,,,66.20,SBMT 151300Z 06005KT 8000 NSC 19/10 Q1024,
SBMT,2024-08-15 14:00,69.80,53.60,56.38,80.00,4.00,0.00,30.21,,4.97,,NSC,,,,,,,,,,,,,,,69.80,SBMT 151400Z 08004KT 8000 NSC 21/12 Q1023,
SBMT,2024-08-15 15:00,75.20,53.60,46.98,30.00,2.00,0.00,30.18,,6.21,,,,,,,,,,,,,,,,,75.20,SBMT 151500Z 03002KT CAVOK 24/12 Q1022,
SBMT,2024-08-15 16:00,80.60,51.80,36.79,310.00,2.00,0.00,30.15,,6.21,,,,,,,,,,,,,,,,,80.08,SBMT 151600Z 31002KT CAVOK 27/11 Q1021,
SBMT,2024-08-15 17:00,82.40,48.20,30.35,290.00,8.00,0.00,30.12,,6.21,,,,,,,,,,,,,,,,,80.80,SBMT 151700Z 29008KT CAVOK 28/09 Q1020,
SBMT,2024-08-15 18:00,82.40,50.00,32.46,310.00,7.00,0.00,30.12,,6.21,,,,,,,,,,,,,,,,,80.99,SBMT 151800Z 31007KT CAVOK 28/10 Q1020,
SBMT,2024-08-15 19:00,82.40,44.60,26.49,290.00,8.00,0.00,30.12,,6.21,,,,,,,,,,,,,,,,,80.50,SBMT 151900Z 29008KT CAVOK 28/07 Q1020,
SBMT,2024-08-15 20:00,80.60,44.60,28.08,320.00,5.00,0.00,30.12,,6.21,,,,,,,,,,,,,,,,,79.42,SBMT 152000Z 32005KT CAVOK 27/07 Q1020,
SBMT,2024-08-15 21:00,75.20,44.60,33.57,290.00,3.00,0.00,30.15,,6.21,,,,,,,,,,,,,,,,,75.20,SBMT 152100Z 29003KT CAVOK 24/07 Q1021,
SBMT,2024-08-15 22:00,68.00,48.20,49.10,0.00,0.00,0.00,30.15,,6.21,,,,,,,,,,,,,,,,,68.00,SBMT 152200Z 00000KT CAVOK 20/09 Q1021,
SBMT,2024-08-15 23:00,62.60,50.00,63.38,0.00,0.00,0.00,30.15,,6.21,,,,,,,,,,,,,,,,,62.60,SBMT 152300Z 00000KT CAVOK 17/10 Q1021,
SBMT,2024-08-16 00:00,60.80,50.00,67.54,0.00,0.00,0.00,30.18,,6.21,,,,,,,,,,,,,,,,,60.80,SBMT 160000Z 00000KT CAVOK 16/10 Q1022,
SBMT,2024-08-16 01:00,59.00,50.00,72.01,0.00,0.00,0.00,30.18,,6.21,,,,,,,,,,,,,,,,,59.00,SBMT 160100Z 00000KT CAVOK 15/10 Q1022,
SBMT,2024-08-16 02:00,57.20,50.00,76.82,0.00,0.00,0.00,30.18,,6.21,,,,,,,,,,,,,,,,,57.20,SBMT 160200Z 00000KT CAVOK 14/10 Q1022,
SBMT,2024-08-16 09:00,51.80,50.00,93.55,0.00,0.00,0.00,30.18,,4.35,,NSC,,,,,,,,,,,,,,,51.80,SBMT 160900Z 00000KT 7000 NSC 11/10 Q1022,
SBMT,2024-08-16 10:00,51.80,50.00,93.55,0.00,0.00,0.00,30.18,,4.97,,NSC,,,,,,,,,,,,,,,51.80,SBMT 161000Z 00000KT 8000 NSC 11/10 Q1022,
SBMT,2024-08-16 11:00,60.80,55.40,82.37,0.00,0.00,0.00,30.21,,4.97,,NSC,,,,,,,,,,,,,,,60.80,SBMT 161100Z 00000KT 8000 NSC 16/13 Q1023,
SBMT,2024-08-16 12:00,68.00,55.40,64.04,60.00,3.00,0.00,30.21,,6.21,,,,,,,,,,,,,,,,,68.00,SBMT 161200Z 06003KT CAVOK 20/13 Q1023,
SBMT,2024-08-16 13:00,73.40,53.60,49.90,50.00,2.00,0.00,30.21,,6.21,,,,,,,,,,,,,,,,,73.40,SBMT 161300Z 05002KT CAVOK 23/12 Q1023,
SBMT,2024-08-16 14:00,78.80,55.40,44.52,330.00,1.00,0.00,30.21,,6.21,,,,,,,,,,,,,,,,,78.80,SBMT 161400Z 33001KT CAVOK 26/13 Q1023,
SBMT,2024-08-16 15:00,80.60,53.60,39.30,220.00,2.00,0.00,30.18,,6.21,,,,,,,,,,,,,,,,,80.29,SBMT 161500Z 22002KT CAVOK 27/12 Q1022,
SBMT,2024-08-16 16:00,84.20,51.80,32.73,290.00,6.00,0.00,30.15,,6.21,,,,,,,,,,,,,,,,,82.48,SBMT 161600Z 29006KT CAVOK 29/11 Q1021,
SBMT,2024-08-16 17:00,86.00,50.00,28.90,260.00,4.00,0.00,30.12,,6.21,,,,,,,,,,,,,,,,,83.62,SBMT 161700Z 26004KT CAVOK 30/10 Q1020,
SBMT,2024-08-16 18:00,86.00,48.20,27.03,290.00,3.00,0.00,30.09,,6.21,,,,,,,,,,,,,,,,,83.40,SBMT 161800Z 29003KT CAVOK 30/09 Q1019,
SBMT,2024-08-16 19:00,86.00,46.40,25.26,200.00,3.00,0.00,30.09,,6.21,,,,,,,,,,,,,,,,,83.22,SBMT 161900Z 20003KT CAVOK 30/08 Q1019,
SBMT,2024-08-16 20:00,86.00,44.60,23.59,0.00,0.00,0.00,30.09,,6.21,,,,,,,,,,,,,,,,,83.07,SBMT 162000Z 00000KT CAVOK 30/07 Q1019,
SBMT,2024-08-16 21:00,80.60,51.80,36.79,140.00,5.00,0.00,30.12,,6.21,,,,,,,,,,,,,,,,,80.08,SBMT 162100Z 14005KT CAVOK 27/11 Q1020,
SBMT,2024-08-16 22:00,77.00,48.20,36.22,150.00,4.00,0.00,30.12,,6.21,,,,,,,,,,,,,,,,,77.00,SBMT 162200Z 15004KT CAVOK 25/09 Q1020,
SBMT,2024-08-16 23:00,71.60,46.40,40.57,350.00,2.00,0.00,30.15,,6.21,,,,,,,,,,,,,,,,,71.60,SBMT 162300Z 35002KT CAVOK 22/08 Q1021,
SBMT,2024-08-17 00:00,66.20,48.20,52.25,0.00,0.00,0.00,30.15,,6.21,,,,,,,,,,,,,,,,,66.20,SBMT 170000Z 00000KT CAVOK 19/09 Q1021,
SBMT,2024-08-17 01:00,64.40,50.00,59.50,0.00,0.00,0.00,30.15,,6.21,,,,,,,,,,,,,,,,,64.40,SBMT 170100Z 00000KT CAVOK 18/10 Q1021,
SBMT,2024-08-17 02:00,62.60,51.80,67.75,270.00,1.00,0.00,30.18,,6.21,,,,,,,,,,,,,,,,,62.60,SBMT 170200Z 27001KT CAVOK 17/11 Q1022,
SBMT,2024-08-17 09:00,53.60,51.80,93.60,0.00,0.00,0.00,30.15,,2.49,,NSC,,,,,,,,BR,,,,,,,53.60,SBMT 170900Z 00000KT 4000 BR NSC 12/11 Q1021,
SBMT,2024-08-17 10:00,53.60,51.80,93.60,0.00,0.00,0.00,30.18,,3.11,,NSC,,,,,,,,BR,,,,,,,53.60,COR SBMT 171000Z 00000KT 5000 BR NSC 12/11 Q1022,
SBMT,2024-08-17 11:00,60.80,57.20,87.92,0.00,0.00,0.00,30.18,,6.21,,,,,,,,,,,,,,,,,60.80,SBMT 171100Z 00000KT CAVOK 16/14 Q1022,
SBMT,2024-08-17 12:00,69.80,55.40,60.21,100.00,1.00,0.00,30.21,,6.21,,,,,,,,,,,,,,,,,69.80,SBMT 171200Z 10001KT CAVOK 21/13 Q1023,
SBMT,2024-08-17 13:00,73.40,55.40,53.29,70.00,2.00,0.00,30.21,,6.21,,,,,,,,,,,,,,,,,73.40,SBMT 171300Z 07002KT CAVOK 23/13 Q1023,
SBMT,2024-08-17 14:00,78.80,53.60,41.69,110.00,3.00,0.00,30.18,,6.21,,,,,,,,,,,,,,,,,78.80,SBMT 171400Z 11003KT 060V220 CAVOK 26/12 Q1022,
SBMT,2024-08-17 15:00,82.40,53.60,37.07,150.00,2.00,0.00,30.18,,6.21,,,,,,,,,,,,,,,,,81.46,SBMT 171500Z 15002KT CAVOK 28/12 Q1022,
SBMT,2024-08-17 16:00,86.00,42.80,22.02,70.00,3.00,0.00,30.12,,6.21,,,,,,,,,,,,,,,,,82.95,SBMT 171600Z 07003KT CAVOK 30/06 Q1020,
SBMT,2024-08-17 17:00,86.00,44.60,23.59,250.00,4.00,0.00,30.09,,6.21,,,,,,,,,,,,,,,,,83.07,SBMT 171700Z 25004KT CAVOK 30/07 Q1019,
SBMT,2024-08-17 18:00,87.80,46.40,23.85,290.00,2.00,0.00,30.09,,6.21,,,,,,,,,,,,,,,,,84.68,SBMT 171800Z 29002KT CAVOK 31/08 Q1019,
SBMT,2024-08-17 19:00,86.00,39.20,19.15,90.00,2.00,0.00,30.09,,6.21,,,,,,,,,,,,,,,,,82.79,SBMT 171900Z 09002KT CAVOK 30/04 Q1019,
SBMT,2024-08-17 20:00,84.20,39.20,20.29,80.00,2.00,0.00,30.09,,6.21,,,,,,,,,,,,,,,,,81.44,SBMT 172000Z 08002KT CAVOK 29/04 Q1019,
SBMT,2024-08-17 21:00,78.80,44.60,29.79,50.00,3.00,0.00,30.12,,6.21,,,,,,,,,,,,,,,,,78.80,SBMT 172100Z 05003KT CAVOK 26/07 Q1020,
SBMT,2024-08-17 22:00,68.00,50.00,52.51,,2.00,0.00,30.12,,6.21,,,,,,,,,,,,,,,,,68.00,SBMT 172200Z VRB02KT CAVOK 20/10 Q1020,
SBMT,2024-08-17 23:00,68.00,48.20,49.10,0.00,0.00,0.00,30.15,,6.21,,,,,,,,,,,,,,,,,68.00,SBMT 172300Z 00000KT CAVOK 20/09 Q1021,
SBMT,2024-08-18 00:00,64.40,50.00,59.50,0.00,0.00,0.00,30.15,,5.59,,NSC,,,,,,,,,,,,,,,64.40,SBMT 180000Z 00000KT 9000 NSC 18/10 Q1021,
SBMT,2024-08-18 01:00,62.60,48.20,59.26,0.00,0.00,0.00,30.15,,5.59,,NSC,,,,,,,,,,,,,,,62.60,SBMT 180100Z 00000KT 9000 NSC 17/09 Q1021,
SBMT,2024-08-18 02:00,60.80,50.00,67.54,0.00,0.00,0.00,30.15,,5.59,,NSC,,,,,,,,,,,,,,,60.80,SBMT 180200Z 00000KT 9000 NSC 16/10 Q1021,
SBMT,2024-08-18 09:00,53.60,50.00,87.56,0.00,0.00,0.00,30.15,,0.62,,NSC,,,,,,,,BR,,,,,,,53.60,SBMT 180900Z 00000KT 1000 BR NSC 12/10 Q1021,
SBMT,2024-08-18 10:00,51.80,50.00,93.55,0.00,0.00,0.00,30.15,,1.24,,NSC,,,,,,,,BR,,,,,,,51.80,SBMT 181000Z 00000KT 2000 BR NSC 11/10 Q1021,
SBMT,2024-08-18 11:00,62.60,53.60,72.38,110.00,2.00,0.00,30.03,,3.73,,NSC,,,,,,,,,,,,,,,62.60,SBMT 181100Z 11002KT 6000 NSC 17/12 Q1017,
SBMT,2024-08-18 13:00,75.20,51.80,43.97,120.00,3.00,0.00,30.21,,6.21,,,,,,,,,,,,,,,,,75.20,SBMT 181300Z 12003KT CAVOK 24/11 Q1023,
SBMT,2024-08-18 14:00,80.60,50.00,34.41,40.00,4.00,0.00,30.18,,6.21,,,,,,,,,,,,,,,,,79.88,SBMT 181400Z 04004KT CAVOK 27/10 Q1022,
SBMT,2024-08-18 15:00,84.20,48.20,28.63,100.00,5.00,0.00,30.18,,6.21,,,,,,,,,,,,,,,,,82.04,SBMT 181500Z 10005KT CAVOK 29/09 Q1022,
SBMT,2024-08-18 16:00,86.00,46.40,25.26,80.00,4.00,0.00,30.12,,6.21,,,,,,,,,,,,,,,,,83.22,SBMT 181600Z 08004KT CAVOK 30/08 Q1020,
SBMT,2024-08-18 17:00,87.80,41.00,19.40,50.00,2.00,0.00,30.09,,6.21,,,,,,,,,,,,,,,,,84.30,SBMT 181700Z 05002KT CAVOK 31/05 Q1019,
SBMT,2024-08-18 18:00,87.80,39.20,18.09,70.00,4.00,0.00,30.09,,6.21,,,,,,,,,,,,,,,,,84.22,SBMT 181800Z 07004KT CAVOK 31/04 Q1019,
SBMT,2024-08-18 19:00,86.00,41.00,20.54,90.00,5.00,0.00,30.06,,6.21,,,,,,,,,,,,,,,,,82.86,SBMT 181900Z 09005KT CAVOK 30/05 Q1018,
SBMT,2024-08-18 20:00,84.20,46.40,26.76,90.00,6.00,0.00,30.06,,6.21,,,,,,,,,,,,,,,,,81.87,SBMT 182000Z 09006KT CAVOK 29/08 Q1018,
SBMT,2024-08-18 21:00,82.40,39.20,21.51,80.00,5.00,0.00,30.09,,6.21,,,,,,,,,,,,,,,,,80.21,SBMT 182100Z 08005KT CAVOK 28/04 Q1019,
SBMT,2024-08-18 22:00,71.60,44.60,37.89,0.00,0.00,0.00,30.09,,6.21,,,,,,,,,,,,,,,,,71.60,SBMT 182200Z 00000KT CAVOK 22/07 Q1019,
SBMT,2024-08-18 23:00,68.00,46.40,45.88,0.00,0.00,0.00,30.12,,6.21,,,,,,,,,,,,,,,,,68.00,SBMT 182300Z 00000KT CAVOK 20/08 Q1020,
SBMT,2024-08-19 01:00,62.60,50.00,63.38,0.00,0.00,0.00,30.15,,6.21,,,,,,,,,,,,,,,,,62.60,SBMT 190100Z 00000KT CAVOK 17/10 Q1021,
SBMT,2024-08-19 02:00,60.80,50.00,67.54,0.00,0.00,0.00,30.15,,6.21,,,,,,,,,,,,,,,,,60.80,SBMT 190200Z 00000KT CAVOK 16/10 Q1021,
SBMT,2024-08-19 09:00,53.60,50.00,87.56,0.00,0.00,0.00,30.15,,4.97,,NSC,,,,,,,,,,,,,,,53.60,SBMT 190900Z 00000KT 8000 NSC 12/10 Q1021,
SBMT,2024-08-19 10:00,53.60,50.00,87.56,0.00,0.00,0.00,30.15,,6.21,,,,,,,,,,,,,,,,,53.60,SBMT 191000Z 00000KT CAVOK 12/10 Q1021,
SBMT,2024-08-19 11:00,64.40,51.80,63.60,130.00,2.00,0.00,30.15,,6.21,,,,,,,,,,,,,,,,,64.40,SBMT 191100Z 13002KT CAVOK 18/11 Q1021,
SBMT,2024-08-19 12:00,69.80,50.00,49.37,0.00,0.00,0.00,30.18,,6.21,,,,,,,,,,,,,,,,,69.80,SBMT 191200Z 00000KT CAVOK 21/10 Q1022,
SBMT,2024-08-19 13:00,75.20,50.00,41.14,90.00,2.00,0.00,30.18,,6.21,,,,,,,,,,,,,,,,,75.20,SBMT 191300Z 09002KT CAVOK 24/10 Q1022,
SBMT,2024-08-19 14:00,80.60,50.00,34.41,0.00,0.00,0.00,30.15,,6.21,,,,,,,,,,,,,,,,,79.88,SBMT 191400Z 00000KT CAVOK 27/10 Q1021,
SBMT,2024-08-19 15:00,84.20,50.00,30.62,270.00,2.00,0.00,30.15,,6.21,,,,,,,,,,,,,,,,,82.24,SBMT 191500Z 27002KT CAVOK 29/10 Q1021,
SBMT,2024-08-19 16:00,87.80,42.80,20.79,250.00,6.00,0.00,30.09,,6.21,,,,,,,,,,,,,,,,,84.40,SBMT 191600Z 25006KT 210V290 CAVOK 31/06 Q1019,
SBMT,2024-08-19 17:00,87.80,42.80,20.79,250.00,6.00,0.00,30.06,,6.21,,,,,,,,,,,,,,,,,84.40,SBMT 191700Z 25006KT 200V290 CAVOK 31/06 Q1018,
SBMT,2024-08-19 18:00,87.80,44.60,22.27,270.00,5.00,0.00,30.06,,6.21,,,,,,,,,,,,,,,,,84.53,SBMT 191800Z 27005KT 220V330 CAVOK 31/07 Q1018,
SBMT,2024-08-19 19:00,87.80,46.40,23.85,,3.00,0.00,30.03,,6.21,,,,,,,,,,,,,,,,,84.68,SBMT 191900Z VRB03KT CAVOK 31/08 Q1017,
SBMT,2024-08-19 20:00,84.20,48.20,28.63,290.00,6.00,0.00,30.06,,6.21,,,,,,,,,,,,,,,,,82.04,SBMT 192000Z 29006KT CAVOK 29/09 Q1018,
SBMT,2024-08-19 21:00,80.60,46.40,30.07,280.00,4.00,0.00,30.06,,6.21,,,,,,,,,,,,,,,,,79.56,SBMT 192100Z 28004KT CAVOK 27/08 Q1018,
SBMT,2024-08-19 22:00,75.20,50.00,41.14,330.00,3.00,0.00,30.09,,6.21,,,,,,,,,,,,,,,,,75.20,SBMT 192200Z 33003KT CAVOK 24/10 Q1019,
SBMT,2024-08-19 23:00,69.80,50.00,49.37,,2.00,0.00,30.12,,6.21,,,,,,,,,,,,,,,,,69.80,SBMT 192300Z VRB02KT CAVOK 21/10 Q1020,
SBMT,2024-08-20 00:00,66.20,50.00,55.88,0.00,0.00,0.00,30.12,,6.21,,,,,,,,,,,,,,,,,66.20,SBMT 200000Z 00000KT CAVOK 19/10 Q1020,
SBMT,2024-08-20 01:00,66.20,50.00,55.88,0.00,0.00,0.00,30.15,,6.21,,,,,,,,,,,,,,,,,66.20,SBMT 200100Z 00000KT CAVOK 19/10 Q1021,
SBMT,2024-08-20 02:00,64.40,50.00,59.50,250.00,2.00,0.00,30.15,,6.21,,,,,,,,,,,,,,,,,64.40,SBMT 200200Z 25002KT CAVOK 18/10 Q1021,
SBMT,2024-08-20 09:00,57.20,48.20,71.83,320.00,2.00,0.00,30.15,,6.21,,,,,,,,,,,,,,,,,57.20,SBMT 200900Z 32002KT CAVOK 14/09 Q1021,
SBMT,2024-08-20 10:00,55.40,50.00,81.99,0.00,0.00,0.00,30.15,,3.73,,NSC,,,,,,,,,,,,,,,55.40,SBMT 201000Z 00000KT 6000 NSC 13/10 Q1021,
SBMT,2024-08-20 11:00,64.40,55.40,72.56,0.00,0.00,0.00,30.18,,4.35,,NSC,,,,,,,,,,,,,,,64.40,SBMT 201100Z 00000KT 7000 NSC 18/13 Q1022,
SBMT,2024-08-20 12:00,71.60,51.80,49.64,100.00,3.00,0.00,30.21,,6.21,,,,,,,,,,,,,,,,,71.60,SBMT 201200Z 10003KT CAVOK 22/11 Q1023,
SBMT,2024-08-20 13:00,77.00,53.60,44.25,0.00,0.00,0.00,30.21,,6.21,,,,,,,,,,,,,,,,,77.00,SBMT 201300Z 00000KT CAVOK 25/12 Q1023,
SBMT,2024-08-20 14:00,78.80,51.80,39.02,0.00,0.00,0.00,30.18,,3.73,,NSC,,,,,,,,,,,,,,,78.80,SBMT 201400Z 00000KT 6000 NSC 26/11 Q1022,
SBMT,2024-08-20 15:00,84.20,53.60,34.97,10.00,2.00,0.00,30.18,,3.73,,NSC,,,,,,,,,,,,,,,82.76,SBMT 201500Z 01002KT 6000 NSC 29/12 Q1022,
SBMT,2024-08-20 16:00,86.00,48.20,27.03,300.00,3.00,0.00,30.15,,4.97,,NSC,,,,,,,,,,,,,,,83.40,SBMT 201600Z 30003KT 8000 NSC 30/09 Q1021,
SBMT,2024-08-20 17:00,87.80,42.80,20.79,340.00,2.00,0.00,30.12,,4.97,,NSC,,,,,,,,,,,,,,,84.40,SBMT 201700Z 34002KT 8000 NSC 31/06 Q1020,
SBMT,2024-08-20 18:00,87.80,44.60,22.27,200.00,3.00,0.00,30.09,,6.21,,,,,,,,,,,,,,,,,84.53,SBMT 201800Z 20003KT 130V270 CAVOK 31/07 Q1019,
SBMT,2024-08-20 19:00,84.20,48.20,28.63,150.00,10.00,0.00,30.09,,6.21,,,,,,,,,,,,,,,,,82.04,SBMT 201900Z 15010KT 100V190 CAVOK 29/09 Q1019,
SBMT,2024-08-20 20:00,78.80,53.60,41.69,150.00,10.00,0.00,30.09,,6.21,,,,,,,,,,,,,,,,,78.80,SBMT 202000Z 15010KT 120V190 CAVOK 26/12 Q1019,
SBMT,2024-08-20 21:00,69.80,57.20,64.26,140.00,5.00,0.00,30.15,,4.97,,NSC,,,,,,,,,,,,,,,69.80,SBMT 202100Z 14005KT 090V180 8000 NSC 21/14 Q1021,
SBMT,2024-08-20 22:00,64.40,57.20,77.45,140.00,6.00,0.00,30.18,,4.97,,NSC,,,,,,,,,,,,,,,64.40,SBMT 202200Z 14006KT 110V180 8000 NSC 18/14 Q1022,
SBMT,2024-08-20 23:00,62.60,57.20,82.50,130.00,6.00,0.00,30.18,,4.97,,FEW,SCT,,,1300.00,1500.00,,,,,,,,,,62.60,SBMT 202300Z 13006KT 100V170 8000 FEW013 SCT015 17/14 Q1022,
SBMT,2024-08-21 00:00,62.60,57.20,82.50,140.00,7.00,0.00,30.21,,2.49,,BKN,,,,900.00,,,,BR,,,,,,,62.60,SBMT 210000Z 14007KT 110V190 4000 BR BKN009 17/14 Q1023,
SBMT,2024-08-21 01:00,62.60,57.20,82.50,160.00,7.00,0.00,30.21,,2.49,,SCT,BKN,,,900.00,1100.00,,,BR,,,,,,,62.60,SBMT 210100Z 16007KT 4000 BR SCT009 BKN011 17/14 Q1023,
SBMT,2024-08-21 02:00,62.60,57.20,82.50,120.00,7.00,0.00,30.24,,2.49,,SCT,BKN,,,900.00,1100.00,,,BR,,,,,,,62.60,SBMT 210200Z 12007KT 100V160 4000 BR SCT009 BKN011 17/14 Q1024,
SBMT,2024-08-21 09:00,60.80,53.60,77.14,130.00,7.00,0.00,30.21,,3.11,,BKN,,,,1300.00,,,,HZ,,,,,,,60.80,SBMT 210900Z 13007KT 5000 HZ BKN013 16/12 Q1023,
SBMT,2024-08-21 10:00,60.80,53.60,77.14,80.00,8.00,0.00,30.21,,3.11,,BKN,,,,1300.00,,,,HZ,,,,,,,60.80,SBMT 211000Z 08008KT 5000 HZ BKN013 16/12 Q1023,
SBMT,2024-08-21 11:00,60.80,53.60,77.14,80.00,8.00,0.00,30.24,,3.11,,BKN,,,,1500.00,,,,HZ,,,,,,,60.80,SBMT 211100Z 08008KT 5000 HZ BKN015 16/12 Q1024,
SBMT,2024-08-21 12:00,64.40,53.60,67.95,80.00,8.00,0.00,30.24,,6.21,,,,,,,,,,,,,,,,,64.40,SBMT 211200Z 08008KT CAVOK 18/12 Q1024,
SBMT,2024-08-21 13:00,66.20,53.60,63.82,80.00,6.00,0.00,30.24,,6.21,,,,,,,,,,,,,,,,,66.20,SBMT 211300Z 08006KT CAVOK 19/12 Q1024,
SBMT,2024-08-21 14:00,71.60,51.80,49.64,60.00,8.00,0.00,30.21,,6.21,,,,,,,,,,,,,,,,,71.60,SBMT 211400Z 06008KT CAVOK 22/11 Q1023,
SBMT,2024-08-21 15:00,75.20,51.80,43.97,80.00,8.00,0.00,30.18,,6.21,,,,,,,,,,,,,,,,,75.20,SBMT 211500Z 08008KT CAVOK 24/11 Q1022,
SBMT,2024-08-21 16:00,78.80,51.80,39.02,80.00,6.00,0.00,30.15,,6.21,,,,,,,,,,,,,,,,,78.80,SBMT 211600Z 08006KT CAVOK 26/11 Q1021,
SBMT,2024-08-21 17:00,80.60,55.40,41.97,100.00,6.00,0.00,30.12,,6.21,,,,,,,,,,,,,,,,,80.53,SBMT 211700Z 10006KT 060V150 CAVOK 27/13 Q1020,
SBMT,2024-08-21 18:00,82.40,55.40,39.58,100.00,7.00,0.00,30.06,,6.21,,,,,,,,,,,,,,,,,81.75,SBMT 211800Z 10007KT 070V150 CAVOK 28/13 Q1018,
SBMT,2024-08-21 19:00,80.60,53.60,39.30,100.00,8.00,0.00,30.06,,6.21,,,,,,,,,,,,,,,,,80.29,SBMT 211900Z 10008KT CAVOK 27/12 Q1018,
SBMT,2024-08-21 20:00,78.80,53.60,41.69,110.00,7.00,0.00,30.06,,6.21,,,,,,,,,,,,,,,,,78.80,SBMT 212000Z 11007KT CAVOK 26/12 Q1018,
SBMT,2024-08-21 21:00,77.00,53.60,44.25,90.00,6.00,0.00,30.06,,6.21,,,,,,,,,,,,,,,,,77.00,SBMT 212100Z 09006KT CAVOK 25/12 Q1018,
SBMT,2024-08-21 22:00,75.20,51.80,43.97,80.00,3.00,0.00,30.09,,6.21,,,,,,,,,,,,,,,,,75.20,SBMT 212200Z 08003KT CAVOK 24/11 Q1019,
SBMT,2024-08-21 23:00,68.00,53.60,59.97,0.00,0.00,0.00,30.12,,6.21,,,,,,,,,,,,,,,,,68.00,SBMT 212300Z 00000KT CAVOK 20/12 Q1020,
SBMT,2024-08-22 00:00,68.00,53.60,59.97,90.00,3.00,0.00,30.12,,6.21,,,,,,,,,,,,,,,,,68.00,SBMT 220000Z 09003KT CAVOK 20/12 Q1020,
SBMT,2024-08-22 01:00,69.80,53.60,56.38,90.00,5.00,0.00,30.12,,6.21,,,,,,,,,,,,,,,,,69.80,SBMT 220100Z 09005KT CAVOK 21/12 Q1020,
SBMT,2024-08-22 02:00,68.00,53.60,59.97,90.00,4.00,0.00,30.12,,6.21,,,,,,,,,,,,,,,,,68.00,SBMT 220200Z 09004KT CAVOK 20/12 Q1020,
SBMT,2024-08-22 09:00,62.60,53.60,72.38,80.00,6.00,0.00,30.06,,2.49,,NSC,,,,,,,,HZ,,,,,,,62.60,SBMT 220900Z 08006KT 050V110 4000 HZ NSC 17/12 Q1018,
SBMT,2024-08-22 10:00,60.80,53.60,77.14,80.00,5.00,0.00,30.09,,3.11,,NSC,,,,,,,,HZ,,,,,,,60.80,SBMT 221000Z 08005KT 5000 HZ NSC 16/12 Q1019,
SBMT,2024-08-22 11:00,64.40,53.60,67.95,90.00,6.00,0.00,30.12,,3.73,,NSC,,,,,,,,,,,,,,,64.40,SBMT 221100Z 09006KT 050V120 6000 NSC 18/12 Q1020,
SBMT,2024-08-22 12:00,68.00,53.60,59.97,80.00,5.00,0.00,30.12,,3.73,,NSC,,,,,,,,,,,,,,,68.00,SBMT 221200Z 08005KT 040V110 6000 NSC 20/12 Q1020,
SBMT,2024-08-22 13:00,73.40,53.60,49.90,80.00,3.00,0.00,30.12,,3.73,,NSC,,,,,,,,,,,,,,,73.40,SBMT 221300Z 08003KT 020V140 6000 NSC 23/12 Q1020,
SBMT,2024-08-22 14:00,78.80,55.40,44.52,60.00,4.00,0.00,30.12,,4.35,,NSC,,,,,,,,,,,,,,,78.80,SBMT 221400Z 06004KT 310V110 7000 NSC 26/13 Q1020,
SBMT,2024-08-22 15:00,84.20,48.20,28.63,360.00,7.00,0.00,30.09,,6.21,,,,,,,,,,,,,,,,,82.04,SBMT 221500Z 36007KT 320V040 CAVOK 29/09 Q1019,
SBMT,2024-08-22 16:00,86.00,46.40,25.26,310.00,10.00,0.00,30.06,,6.21,,,,,,,,,,,,,,,,,83.22,SBMT 221600Z 31010KT 260V350 CAVOK 30/08 Q1018,
SBMT,2024-08-22 17:00,86.00,46.40,25.26,350.00,7.00,0.00,30.03,,6.21,,,,,,,,,,,,,,,,,83.22,SBMT 221700Z 35007KT CAVOK 30/08 Q1017,
SBMT,2024-08-22 18:00,86.00,44.60,23.59,320.00,8.00,0.00,30.00,,6.21,,,,,,,,,,,,,,,,,83.07,SBMT 221800Z 32008KT CAVOK 30/07 Q1016,
SBMT,2024-08-22 19:00,87.80,44.60,22.27,330.00,6.00,0.00,30.00,,6.21,,,,,,,,,,,,,,,,,84.53,SBMT 221900Z 33006KT CAVOK 31/07 Q1016,
SBMT,2024-08-22 20:00,86.00,44.60,23.59,310.00,5.00,0.00,30.00,,6.21,,,,,,,,,,,,,,,,,83.07,SBMT 222000Z 31005KT 260V360 CAVOK 30/07 Q1016,
SBMT,2024-08-22 21:00,80.60,44.60,28.08,360.00,2.00,0.00,30.00,,6.21,,,,,,,,,,,,,,,,,79.42,SBMT 222100Z 36002KT CAVOK 27/07 Q1016,
SBMT,2024-08-22 22:00,73.40,48.20,40.85,30.00,2.00,0.00,30.00,,6.21,,,,,,,,,,,,,,,,,73.40,SBMT 222200Z 03002KT CAVOK 23/09 Q1016,
SBMT,2024-08-22 23:00,69.80,48.20,46.16,0.00,0.00,0.00,30.00,,6.21,,,,,,,,,,,,,,,,,69.80,SBMT 222300Z 00000KT CAVOK 21/09 Q1016,
SBMT,2024-08-23 00:00,66.20,50.00,55.88,0.00,0.00,0.00,30.00,,6.21,,,,,,,,,,,,,,,,,66.20,SBMT 230000Z 00000KT CAVOK 19/10 Q1016,
SBMT,2024-08-23 01:00,64.40,50.00,59.50,270.00,2.00,0.00,30.03,,6.21,,,,,,,,,,,,,,,,,64.40,SBMT 230100Z 27002KT CAVOK 18/10 Q1017,
SBMT,2024-08-23 02:00,62.60,50.00,63.38,0.00,0.00,0.00,30.03,,6.21,,,,,,,,,,,,,,,,,62.60,SBMT 230200Z 00000KT CAVOK 17/10 Q1017,
SBMT,2024-08-23 09:00,57.20,50.00,76.82,,2.00,0.00,30.00,,6.21,,,,,,,,,,,,,,,,,57.20,SBMT 230900Z VRB02KT CAVOK 14/10 Q1016,
SBMT,2024-08-23 10:00,59.00,50.00,72.01,,1.00,0.00,30.00,,5.59,,NSC,,,,,,,,,,,,,,,59.00,SBMT 231000Z VRB01KT 9000 NSC 15/10 Q1016,
SBMT,2024-08-23 11:00,68.00,51.80,56.13,90.00,5.00,0.00,30.00,,6.21,,,,,,,,,,,,,,,,,68.00,SBMT 231100Z 09005KT CAVOK 20/11 Q1016,
SBMT,2024-08-23 12:00,73.40,51.80,46.71,110.00,7.00,0.00,30.00,,6.21,,,,,,,,,,,,,,,,,73.40,SBMT 231200Z 11007KT CAVOK 23/11 Q1016,
SBMT,2024-08-23 13:00,78.80,51.80,39.02,100.00,5.00,0.00,30.00,,6.21,,,,,,,,,,,,,,,,,78.80,SBMT 231300Z 10005KT CAVOK 26/11 Q1016,
SBMT,2024-08-23 14:00,82.40,46.40,28.36,340.00,10.00,0.00,29.97,,6.21,,,,,,,,,,,,,,,,,80.64,SBMT 231400Z 34010KT CAVOK 28/08 Q1015,
SBMT,2024-08-23 15:00,86.00,44.60,23.59,330.00,10.00,0.00,29.94,,6.21,,,,,,,,,,,,,,,,,83.07,SBMT 231500Z 33010KT CAVOK 30/07 Q1014,
SBMT,2024-08-23 16:00,87.80,44.60,22.27,330.00,10.00,0.00,29.91,,6.21,,,,,,,,,,,,,,,,,84.53,SBMT 231600Z 33010KT CAVOK 31/07 Q1013,
SBMT,2024-08-23 17:00,89.60,42.80,19.64,310.00,13.00,0.00,29.91,,6.21,23.00,,,,,,,,,,,,,,,,85.93,SBMT 231700Z 31013G23KT CAVOK 32/06 Q1013,
SBMT,2024-08-23 18:00,89.60,39.20,17.09,320.00,12.00,0.00,29.88,,6.21,24.00,,,,,,,,,,,,,,,,85.73,SBMT 231800Z 32012G24KT CAVOK 32/04 Q1012,
SBMT,2024-08-23 19:00,89.60,39.20,17.09,310.00,12.00,0.00,29.88,,6.21,22.00,,,,,,,,,,,,,,,,85.73,SBMT 231900Z 31012G22KT CAVOK 32/04 Q1012,
SBMT,2024-08-23 20:00,87.80,39.20,18.09,310.00,7.00,0.00,29.91,,6.21,,,,,,,,,,,,,,,,,84.22,SBMT 232000Z 31007KT CAVOK 31/04 Q1013,
SBMT,2024-08-23 21:00,86.00,41.00,20.54,340.00,4.00,0.00,29.91,,3.73,,NSC,,,,,,,,,,,,,,,82.86,SBMT 232100Z 34004KT 6000 NSC 30/05 Q1013,
SBMT,2024-08-23 22:00,80.60,42.80,26.22,200.00,2.00,0.00,29.91,,4.97,,NSC,,,,,,,,,,,,,,,79.30,SBMT 232200Z 20002KT 8000 NSC 27/06 Q1013,
SBMT,2024-08-23 23:00,62.60,55.40,77.29,160.00,13.00,0.00,30.00,,2.49,23.00,BKN,,,,1000.00,,,,BR,,,,,,,62.60,SBMT 232300Z 16013G23KT 4000 BR BKN010 17/13 Q1016,
SBMT,2024-08-24 00:00,62.60,55.40,77.29,170.00,10.00,0.00,30.06,,2.49,,BKN,,,,1000.00,,,,HZ,,,,,,,62.60,SBMT 240000Z 17010KT 4000 HZ BKN010 17/13 Q1018,
SBMT,2024-08-24 01:00,60.80,55.40,82.37,180.00,11.00,0.00,30.09,,4.97,,BKN,,,,1200.00,,,,,,,,,,,60.80,SBMT 240100Z 18011KT 8000 BKN012 16/13 Q1019,
SBMT,2024-08-24 02:00,60.80,53.60,77.14,180.00,6.00,0.00,30.12,,4.97,,BKN,,,,1200.00,,,,,,,,,,,60.80,SBMT 240200Z 18006KT 8000 BKN012 16/12 Q1020,
SBMT,2024-08-24 09:00,60.80,55.40,82.37,90.00,10.00,0.00,30.06,,2.17,,BKN,BKN,,,900.00,1100.00,,,-DZ,,,,,,,60.80,SBMT 240900Z 09010KT 3500 -DZ BKN009 BKN011 16/13 Q1018,
SBMT,2024-08-24 10:00,62.60,55.40,77.29,100.00,8.00,0.00,30.06,,3.11,,OVC,,,,1300.00,,,,HZ,,,,,,,62.60,SBMT 241000Z 10008KT 5000 HZ OVC013 17/13 Q1018,
SBMT,2024-08-24 11:00,62.60,55.40,77.29,90.00,6.00,0.00,30.09,,3.73,,BKN,BKN,,,1300.00,1500.00,,,,,,,,,,62.60,SBMT 241100Z 09006KT 040V120 6000 BKN013 BKN015 17/13 Q1019,
SBMT,2024-08-24 12:00,64.40,55.40,72.56,160.00,6.00,0.00,30.12,,3.73,,BKN,,,,1700.00,,,,,,,,,,,64.40,SBMT 241200Z 16006KT 130V190 6000 BKN017 18/13 Q1020,
SBMT,2024-08-24 13:00,66.20,55.40,68.15,130.00,6.00,0.00,30.12,,3.73,,BKN,,,,2100.00,,,,,,,,,,,66.20,SBMT 241300Z 13006KT 080V170 6000 BKN021 19/13 Q1020,
SBMT,2024-08-24 14:00,66.20,57.20,72.74,190.00,7.00,0.00,30.09,,3.73,,BKN,,,,2100.00,,,,,,,,,,,66.20,SBMT 241400Z 19007KT 150V220 6000 BKN021 19/14 Q1019,
SBMT,2024-08-24 15:00,68.00,57.20,68.35,150.00,7.00,0.00,30.06,,3.73,,BKN,,,,1900.00,,,,,,,,,,,68.00,SBMT 241500Z 15007KT 110V220 6000 BKN019 20/14 Q1018,
SBMT,2024-08-24 16:00,68.00,57.20,68.35,160.00,8.00,0.00,30.06,,6.21,,SCT,,,,2000.00,,,,,,,,,,,68.00,SBMT 241600Z 16008KT 120V230 9999 SCT020 20/14 Q1018,
SBMT,2024-08-24 17:00,68.00,57.20,68.35,160.00,7.00,0.00,30.03,,6.21,,BKN,,,,2000.00,,,,,,,,,,,68.00,SBMT 241700Z 16007KT 9999 BKN020 20/14 Q1017,
SBMT,2024-08-24 18:00,66.20,55.40,68.15,150.00,8.00,0.00,30.03,,6.21,,BKN,,,,2000.00,,,,,,,,,,,66.20,SBMT 241800Z 15008KT 9999 BKN020 19/13 Q1017,
SBMT,2024-08-24 19:00,64.40,57.20,77.45,160.00,8.00,0.00,30.03,,6.21,,BKN,,,,2000.00,,,,,,,,,,,64.40,SBMT 241900Z 16008KT 9999 BKN020 18/14 Q1017,
SBMT,2024-08-24 20:00,60.80,55.40,82.37,200.00,13.00,0.00,30.15,,2.49,,BKN,,,,1300.00,,,,-RA,,,,,,,60.80,SBMT 242000Z 20013KT 4000 -RA BKN013 16/13 Q1021,
SBMT,2024-08-24 21:00,59.00,53.60,82.25,50.00,3.00,0.00,30.15,,2.49,,SCT,BKN,,,1300.00,3000.00,,,-RA,,,,,,,59.00,SBMT 242100Z 05003KT 4000 -RA SCT013 BKN030 15/12 Q1021,
SBMT,2024-08-24 22:00,59.00,55.40,87.83,0.00,0.00,0.00,30.18,,3.11,,BKN,,,,4500.00,,,,-RA,,,,,,,59.00,SBMT 242200Z 00000KT 5000 -RA BKN045 15/13 Q1022,
SBMT,2024-08-24 23:00,60.80,55.40,82.37,80.00,2.00,0.00,30.18,,3.73,,SCT,,,,4500.00,,,,,,,,,,,60.80,SBMT 242300Z 08002KT 6000 SCT045 16/13 Q1022,
SBMT,2024-08-25 00:00,60.80,55.40,82.37,50.00,4.00,0.00,30.18,,3.73,,SCT,BKN,,,2000.00,7000.00,,,-RA,,,,,,,60.80,SBMT 250000Z 05004KT 6000 -RA SCT020 BKN070 16/13 Q1022,
SBMT,2024-08-25 01:00,59.00,57.20,93.74,210.00,4.00,0.00,30.18,,3.11,,SCT,BKN,,,3000.00,7000.00,,,-RA,,,,,,,59.00,SBMT 250100Z 21004KT 5000 -RA SCT030 BKN070 15/14 Q1022,
SBMT,2024-08-25 02:00,60.80,55.40,82.37,250.00,7.00,0.00,30.21,,3.11,,SCT,BKN,,,2500.00,7000.00,,,-RA,,,,,,,60.80,SBMT 250200Z 25007KT 5000 -RA SCT025 BKN070 16/13 Q1023,
SBMT,2024-08-25 09:00,53.60,50.00,87.56,160.00,4.00,0.00,30.21,,6.21,,FEW,BKN,,,1300.00,1500.00,,,,,,,,,,53.60,SBMT 250900Z 16004KT 9999 FEW013 BKN015 12/10 Q1023,
SBMT,2024-08-25 10:00,53.60,50.00,87.56,150.00,5.00,0.00,30.21,,6.21,,FEW,BKN,,,1300.00,1500.00,,,,,,,,,,53.60,SBMT 251000Z 15005KT 9999 FEW013 BKN015 12/10 Q1023,
SBMT,2024-08-25 11:00,53.60,50.00,87.56,140.00,6.00,0.00,30.24,,6.21,,SCT,BKN,,,1300.00,1500.00,,,,,,,,,,53.60,COR SBMT 251100Z 14006KT 9999 SCT013 BKN015 12/10 Q1024,
SBMT,2024-08-25 12:00,53.60,50.00,87.56,130.00,4.00,0.00,30.27,,6.21,,SCT,BKN,,,1300.00,1500.00,,,,,,,,,,53.60,SBMT 251200Z 13004KT 9999 SCT013 BKN015 12/10 Q1025,
SBMT,2024-08-25 13:00,55.40,48.20,76.66,130.00,8.00,0.00,30.27,,6.21,,SCT,BKN,,,1500.00,2000.00,,,,,,,,,,55.40,SBMT 251300Z 13008KT 9999 SCT015 BKN020 13/09 Q1025,
SBMT,2024-08-25 14:00,55.40,48.20,76.66,120.00,5.00,0.00,30.30,,6.21,,SCT,BKN,,,1500.00,2000.00,,,,,,,,,,55.40,SBMT 251400Z 12005KT 9999 SCT015 BKN020 13/09 Q1026,
SBMT,2024-08-25 15:00,53.60,48.20,81.87,160.00,5.00,0.00,30.27,,6.21,,SCT,BKN,,,1500.00,2000.00,,,,,,,,,,53.60,SBMT 251500Z 16005KT 9999 SCT015 BKN020 12/09 Q1025,
SBMT,2024-08-25 16:00,53.60,48.20,81.87,130.00,5.00,0.00,30.24,,6.21,,BKN,BKN,,,1500.00,2000.00,,,,,,,,,,53.60,SBMT 251600Z 13005KT 9999 BKN015 BKN020 12/09 Q1024,
SBMT,2024-08-25 17:00,53.60,48.20,81.87,100.00,7.00,0.00,30.24,,6.21,,BKN,SCT,,,1300.00,1500.00,,,,,,,,,,53.60,SBMT 251700Z 10007KT 060V140 9999 BKN013 SCT015 12/09 Q1024,
SBMT,2024-08-25 17:09,53.60,48.20,81.87,110.00,7.00,0.00,30.24,,6.21,,BKN,OVC,,,1100.00,1300.00,,,,,,,,,,53.60,SBMT 251709Z 11007KT 9999 BKN011 OVC013 12/09 Q1024,
SBMT,2024-08-25 18:00,53.60,46.40,76.50,160.00,7.00,0.00,30.21,,3.73,,BKN,OVC,,,1100.00,1300.00,,,-DZ,,,,,,,53.60,SBMT 251800Z 16007KT 130V200 6000 -DZ BKN011 OVC013 12/08 Q1023,
SBMT,2024-08-25 19:00,53.60,46.40,76.50,130.00,6.00,0.00,30.21,,4.35,,BKN,OVC,,,1300.00,1500.00,,,,,,,,,,53.60,SBMT 251900Z 13006KT 100V170 7000 BKN013 OVC015 12/08 Q1023,
SBMT,2024-08-25 20:00,50.00,46.40,87.37,160.00,7.00,0.00,30.24,,2.17,,BKN,OVC,,,900.00,1100.00,,,-DZ,,,,,,,50.00,SBMT 252000Z 16007KT 110V200 3500 -DZ BKN009 OVC011 10/08 Q1024,
SBMT,2024-08-25 21:00,50.00,46.40,87.37,140.00,6.00,0.00,30.27,,3.11,,BKN,OVC,,,900.00,1100.00,,,BR,,,,,,,50.00,SBMT 252100Z 14006KT 110V200 5000 BR BKN009 OVC011 10/08 Q1025,
SBMT,2024-08-25 22:00,50.00,44.60,81.61,160.00,6.00,0.00,30.30,,2.49,,BKN,OVC,,,900.00,1100.00,,,-DZ,,,,,,,50.00,SBMT 252200Z 16006KT 110V200 4000 -DZ BKN009 OVC011 10/07 Q1026,
SBMT,2024-08-25 23:00,48.20,42.80,81.47,160.00,6.00,0.00,30.33,,2.49,,BKN,OVC,,,900.00,1100.00,,,-DZ,,,,,,,45.04,SBMT 252300Z 16006KT 4000 -DZ BKN009 OVC011 09/06 Q1027,
SBMT,2024-08-26 00:00,48.20,42.80,81.47,150.00,7.00,0.00,30.33,,3.11,,BKN,OVC,,,900.00,1100.00,,,BR,,,,,,,44.53,SBMT 260000Z 15007KT 120V180 5000 BR BKN009 OVC011 09/06 Q1027,
SBMT,2024-08-26 01:00,48.20,42.80,81.47,170.00,8.00,0.00,30.33,,3.11,,BKN,OVC,,,1100.00,1300.00,,,BR,,,,,,,44.07,SBMT 260100Z 17008KT 140V200 5000 BR BKN011 OVC013 09/06 Q1027,
SBMT,2024-08-26 02:00,48.20,39.20,70.88,160.00,5.00,0.00,30.33,,3.73,,BKN,OVC,,,1300.00,1500.00,,,,,,,,,,45.63,SBMT 260200Z 16005KT 110V190 6000 BKN013 OVC015 09/04 Q1027,
SBMT,2024-08-26 09:00,48.20,32.00,53.27,130.00,6.00,0.00,30.24,,6.21,,FEW,,,,4000.00,,,,,,,,,,,45.04,SBMT 260900Z 13006KT 9999 FEW040 09/00 Q1024,
SBMT,2024-08-26 10:00,46.40,37.40,70.68,90.00,7.00,0.00,30.27,,6.21,,FEW,,,,4000.00,,,,,,,,,,,42.33,SBMT 261000Z 09007KT 9999 FEW040 08/03 Q1025,
SBMT,2024-08-26 11:00,48.20,41.00,76.01,110.00,7.00,0.00,30.30,,6.21,,SCT,,,,2100.00,,,,,,,,,,,44.53,SBMT 261100Z 11007KT 9999 SCT021 09/05 Q1026,
SBMT,2024-08-26 12:00,51.80,42.80,71.26,120.00,7.00,0.00,30.30,,6.21,,FEW,,,,2200.00,,,,,,,,,,,51.80,SBMT 261200Z 12007KT 9999 FEW022 11/06 Q1026,
SBMT,2024-08-26 13:00,53.60,41.00,62.23,90.00,7.00,0.00,30.30,,6.21,,FEW,,,,2600.00,,,,,,,,,,,53.60,SBMT 261300Z 09007KT 9999 FEW026 12/05 Q1026,
SBMT,2024-08-26 14:00,55.40,39.20,54.34,90.00,7.00,0.00,30.30,,6.21,,FEW,,,,2900.00,,,,,,,,,,,55.40,SBMT 261400Z 09007KT 9999 FEW029 13/04 Q1026,
SBMT,2024-08-26 15:00,57.20,39.20,50.91,120.00,7.00,0.00,30.27,,6.21,,SCT,,,,3600.00,,,,,,,,,,,57.20,SBMT 261500Z 12007KT 9999 SCT036 14/04 Q1025,
SBMT,2024-08-26 16:00,59.00,39.20,47.72,70.00,4.00,0.00,30.24,,6.21,,SCT,,,,4200.00,,,,,,,,,,,59.00,SBMT 261600Z 07004KT 9999 SCT042 15/04 Q1024,
SBMT,2024-08-26 17:00,60.80,39.20,44.76,,6.00,0.00,30.21,,6.21,,FEW,,,,4300.00,,,,,,,,,,,60.80,SBMT 261700Z VRB06KT 9999 FEW043 16/04 Q1023,
SBMT,2024-08-26 18:00,60.80,37.40,41.71,180.00,6.00,0.00,30.21,,6.21,,FEW,,,,4000.00,,,,,,,,,,,60.80,SBMT 261800Z 18006KT 9999 FEW040 16/03 Q1023,
SBMT,2024-08-26 19:00,59.00,41.00,51.18,160.00,8.00,0.00,30.21,,6.21,,,,,,,,,,,,,,,,,59.00,SBMT 261900Z 16008KT CAVOK 15/05 Q1023,
SBMT,2024-08-26 20:00,57.20,41.00,54.60,130.00,9.00,0.00,30.24,,6.21,,,,,,,,,,,,,,,,,57.20,SBMT 262000Z 13009KT CAVOK 14/05 Q1024,
SBMT,2024-08-26 21:00,51.80,41.00,66.48,130.00,9.00,0.00,30.24,,6.21,,,,,,,,,,,,,,,,,51.80,SBMT 262100Z 13009KT CAVOK 11/05 Q1024,
SBMT,2024-08-26 22:00,50.00,41.00,71.07,120.00,7.00,0.00,30.27,,6.21,,,,,,,,,,,,,,,,,50.00,SBMT 262200Z 12007KT CAVOK 10/05 Q1025,
SBMT,2024-08-26 23:00,48.20,41.00,76.01,90.00,6.00,0.00,30.30,,6.21,,,,,,,,,,,,,,,,,45.04,SBMT 262300Z 09006KT CAVOK 09/05 Q1026,
SBMT,2024-08-27 00:00,46.40,37.40,70.68,110.00,6.00,0.00,30.33,,6.21,,,,,,,,,,,,,,,,,42.87,SBMT 270000Z 11006KT CAVOK 08/03 Q1027,
SBMT,2024-08-27 01:00,46.40,37.40,70.68,120.00,2.00,0.00,30.33,,6.21,,,,,,,,,,,,,,,,,46.40,SBMT 270100Z 12002KT CAVOK 08/03 Q1027,
SBMT,2024-08-27 02:00,46.40,35.60,65.83,80.00,3.00,0.00,30.33,,6.21,,,,,,,,,,,,,,,,,45.15,SBMT 270200Z 08003KT CAVOK 08/02 Q1027,
SBMT,2024-08-27 09:00,41.00,37.40,86.89,90.00,5.00,0.00,30.30,,4.97,,NSC,,,,,,,,,,,,,,,37.08,SBMT 270900Z 09005KT 8000 NSC 05/03 Q1026,
SBMT,2024-08-27 10:00,41.00,35.60,80.93,90.00,4.00,0.00,30.33,,3.73,,NSC,,,,,,,,,,,,,,,37.93,SBMT 271000Z 09004KT 6000 NSC 05/02 Q1027,
SBMT,2024-08-27 11:00,44.60,39.20,81.20,110.00,5.00,0.00,30.33,,3.73,,SCT,,,,1200.00,,,,,,,,,,,41.36,SBMT 271100Z 11005KT 6000 SCT012 07/04 Q1027,
SBMT,2024-08-27 12:00,51.80,42.80,71.26,90.00,9.00,0.00,30.33,,4.35,,NSC,,,,,,,,,,,,,,,51.80,SBMT 271200Z 09009KT 7000 NSC 11/06 Q1027,
SBMT,2024-08-27 13:00,55.40,39.20,54.34,80.00,9.00,0.00,30.33,,6.21,,,,,,,,,,,,,,,,,55.40,SBMT 271300Z 08009KT CAVOK 13/04 Q1027,
SBMT,2024-08-27 14:00,57.20,35.60,44.19,110.00,9.00,0.00,30.33,,6.21,,,,,,,,,,,,,,,,,57.20,SBMT 271400Z 11009KT CAVOK 14/02 Q1027,
SBMT,2024-08-27 15:00,60.80,30.20,31.28,110.00,11.00,0.00,30.30,,6.21,,,,,,,,,,,,,,,,,60.80,SBMT 271500Z 11011KT CAVOK 16/M01 Q1026,
SBMT,2024-08-27 16:00,64.40,26.60,23.77,100.00,8.00,0.00,30.27,,6.21,,,,,,,,,,,,,,,,,64.40,SBMT 271600Z 10008KT CAVOK 18/M03 Q1025,
SBMT,2024-08-27 17:00,66.20,30.20,25.88,160.00,7.00,0.00,30.24,,6.21,,,,,,,,,,,,,,,,,66.20,SBMT 271700Z 16007KT CAVOK 19/M01 Q1024,
SBMT,2024-08-27 18:00,68.00,41.00,37.32,150.00,9.00,0.00,30.24,,6.21,,,,,,,,,,,,,,,,,68.00,SBMT 271800Z 15009KT 120V180 CAVOK 20/05 Q1024,
SBMT,2024-08-27 19:00,64.40,42.80,45.32,150.00,8.00,0.00,30.24,,6.21,,,,,,,,,,,,,,,,,64.40,SBMT 271900Z 15008KT CAVOK 18/06 Q1024,
SBMT,2024-08-27 20:00,59.00,42.80,54.86,140.00,9.00,0.00,30.27,,6.21,,,,,,,,,,,,,,,,,59.00,SBMT 272000Z 14009KT CAVOK 15/06 Q1025,
SBMT,2024-08-27 21:00,53.60,44.60,71.45,140.00,9.00,0.00,30.30,,6.21,,,,,,,,,,,,,,,,,53.60,SBMT 272100Z 14009KT 110V170 CAVOK 12/07 Q1026,
SBMT,2024-08-27 22:00,51.80,44.60,76.34,120.00,9.00,0.00,30.30,,6.21,,BKN,,,,1800.00,,,,,,,,,,,51.80,SBMT 272200Z 12009KT 9999 BKN018 11/07 Q1026,
SBMT,2024-08-27 23:00,51.80,44.60,76.34,130.00,9.00,0.00,30.33,,6.21,,OVC,,,,1600.00,,,,,,,,,,,51.80,SBMT 272300Z 13009KT 9999 OVC016 11/07 Q1027,
SBMT,2024-08-28 00:00,51.80,44.60,76.34,100.00,8.00,0.00,30.33,,6.21,,OVC,,,,1600.00,,,,,,,,,,,51.80,SBMT 280000Z 10008KT 9999 OVC016 11/07 Q1027,
SBMT,2024-08-28 01:00,53.60,44.60,71.45,110.00,8.00,0.00,30.36,,6.21,,OVC,,,,1600.00,,,,,,,,,,,53.60,SBMT 280100Z 11008KT 9999 OVC016 12/07 Q1028,
SBMT,2024-08-28 02:00,51.80,44.60,76.34,100.00,10.00,0.00,30.36,,6.21,,OVC,,,,1600.00,,,,,,,,,,,51.80,SBMT 280200Z 10010KT 9999 OVC016 11/07 Q1028,
SBMT,2024-08-28 09:00,50.00,44.60,81.61,90.00,11.00,0.00,30.30,,2.49,,BKN,,,,1000.00,,,,BR,,,,,,,50.00,SBMT 280900Z 09011KT 4000 BR BKN010 10/07 Q1026,
SBMT,2024-08-28 10:00,50.00,44.60,81.61,80.00,12.00,0.00,30.30,,2.49,,BKN,,,,1000.00,,,,BR,,,,,,,50.00,SBMT 281000Z 08012KT 4000 BR BKN010 10/07 Q1026,
SBMT,2024-08-28 11:00,51.80,44.60,76.34,80.00,10.00,0.00,30.33,,2.49,,BKN,,,,1000.00,,,,HZ,,,,,,,51.80,SBMT 281100Z 08010KT 4000 HZ BKN010 11/07 Q1027,
SBMT,2024-08-28 12:00,51.80,44.60,76.34,80.00,13.00,0.00,30.36,,3.11,,BKN,,,,1200.00,,,,HZ,,,,,,,51.80,SBMT 281200Z 08013KT 5000 HZ BKN012 11/07 Q1028,
SBMT,2024-08-28 13:00,55.40,46.40,71.64,90.00,10.00,0.00,30.36,,4.35,,BKN,,,,1500.00,,,,,,,,,,,55.40,SBMT 281300Z 09010KT 7000 BKN015 13/08 Q1028,
SBMT,2024-08-28 14:00,59.00,46.40,62.92,100.00,11.00,0.00,30.36,,6.21,,,,,,,,,,,,,,,,,59.00,SBMT 281400Z 10011KT CAVOK 15/08 Q1028,
SBMT,2024-08-28 15:00,62.60,46.40,55.37,100.00,9.00,0.00,30.33,,6.21,,,,,,,,,,,,,,,,,62.60,SBMT 281500Z 10009KT CAVOK 17/08 Q1027,
SBMT,2024-08-28 16:00,66.20,48.20,52.25,110.00,6.00,0.00,30.30,,6.21,,,,,,,,,,,,,,,,,66.20,SBMT 281600Z 11006KT CAVOK 19/09 Q1026,
SBMT,2024-08-28 17:00,69.80,46.40,43.13,100.00,7.00,0.00,30.27,,6.21,,,,,,,,,,,,,,,,,69.80,SBMT 281700Z 10007KT CAVOK 21/08 Q1025,
SBMT,2024-08-28 18:00,71.60,50.00,46.43,160.00,8.00,0.00,30.24,,6.21,,,,,,,,,,,,,,,,,71.60,SBMT 281800Z 16008KT CAVOK 22/10 Q1024,
SBMT,2024-08-28 19:00,66.20,50.00,55.88,160.00,10.00,0.00,30.24,,6.21,,,,,,,,,,,,,,,,,66.20,SBMT 281900Z 16010KT CAVOK 19/10 Q1024,
SBMT,2024-08-28 20:00,62.60,51.80,67.75,150.00,9.00,0.00,30.27,,6.21,,,,,,,,,,,,,,,,,62.60,SBMT 282000Z 15009KT 110V180 CAVOK 17/11 Q1025,
SBMT,2024-08-28 21:00,59.00,51.80,76.98,150.00,6.00,0.00,30.30,,6.21,,,,,,,,,,,,,,,,,59.00,SBMT 282100Z 15006KT CAVOK 15/11 Q1026,
SBMT,2024-08-28 22:00,57.20,51.80,82.12,150.00,6.00,0.00,30.30,,4.97,,BKN,,,,1300.00,,,,,,,,,,,57.20,SBMT 282200Z 15006KT 8000 BKN013 14/11 Q1026,
SBMT,2024-08-28 23:00,57.20,51.80,82.12,130.00,7.00,0.00,30.33,,4.97,,OVC,,,,1300.00,,,,,,,,,,,57.20,SBMT 282300Z 13007KT 8000 OVC013 14/11 Q1027,
SBMT,2024-08-29 00:00,57.20,51.80,82.12,130.00,6.00,0.00,30.33,,4.35,,OVC,,,,1100.00,,,,,,,,,,,57.20,SBMT 290000Z 13006KT 7000 OVC011 14/11 Q1027,
SBMT,2024-08-29 01:00,55.40,51.80,87.65,90.00,7.00,0.00,30.33,,4.35,,OVC,,,,1000.00,,,,,,,,,,,55.40,SBMT 290100Z 09007KT 7000 OVC010 13/11 Q1027,
SBMT,2024-08-29 02:00,55.40,50.00,81.99,110.00,7.00,0.00,30.33,,4.97,,OVC,,,,1000.00,,,,,,,,,,,55.40,SBMT 290200Z 11007KT 8000 OVC010 13/10 Q1027,
SBMT,2024-08-29 09:00,57.20,53.60,87.74,100.00,9.00,0.00,30.30,,0.62,,BKN,,,,800.00,,,,BR,,,,,,,57.20,SBMT 290900Z 10009KT 1000 BR BKN008 14/12 Q1026,
SBMT,2024-08-29 10:00,57.20,53.60,87.74,80.00,7.00,0.00,30.33,,0.93,,BKN,,,,900.00,,,,BR,,,,,,,57.20,SBMT 291000Z 08007KT 1500 BR BKN009 14/12 Q1027,
SBMT,2024-08-29 11:00,59.00,53.60,82.25,90.00,6.00,0.00,30.36,,0.93,,BKN,,,,1000.00,,,,BR,,,,,,,59.00,SBMT 291100Z 09006KT 1500 BR BKN010 15/12 Q1028,
SBMT,2024-08-29 12:00,59.00,53.60,82.25,80.00,8.00,0.00,30.36,,2.49,,BKN,,,,1000.00,,,,BR,,,,,,,59.00,SBMT 291200Z 08008KT 4000 BR BKN010 15/12 Q1028,
SBMT,2024-08-29 13:00,62.60,53.60,72.38,70.00,8.00,0.00,30.36,,4.35,,NSC,,,,,,,,,,,,,,,62.60,SBMT 291300Z 07008KT 7000 NSC 17/12 Q1028,
SBMT,2024-08-29 14:00,68.00,53.60,59.97,100.00,5.00,0.00,30.33,,4.97,,NSC,,,,,,,,,,,,,,,68.00,SBMT 291400Z 10005KT 8000 NSC 20/12 Q1027,
SBMT,2024-08-29 15:00,71.60,53.60,53.03,90.00,5.00,0.00,30.33,,4.97,,NSC,,,,,,,,,,,,,,,71.60,SBMT 291500Z 09005KT 8000 NSC 22/12 Q1027,
SBMT,2024-08-29 16:00,75.20,53.60,46.98,70.00,5.00,0.00,30.30,,6.21,,,,,,,,,,,,,,,,,75.20,SBMT 291600Z 07005KT CAVOK 24/12 Q1026,
SBMT,2024-08-29 17:00,77.00,53.60,44.25,80.00,6.00,0.00,30.27,,6.21,,,,,,,,,,,,,,,,,77.00,SBMT 291700Z 08006KT CAVOK 25/12 Q1025,
SBMT,2024-08-29 18:00,78.80,51.80,39.02,80.00,5.00,0.00,30.24,,6.21,,,,,,,,,,,,,,,,,78.80,SBMT 291800Z 08005KT CAVOK 26/11 Q1024,
SBMT,2024-08-29 19:00,78.80,51.80,39.02,100.00,4.00,0.00,30.21,,6.21,,,,,,,,,,,,,,,,,78.80,SBMT 291900Z 10004KT CAVOK 26/11 Q1023,
SBMT,2024-08-29 20:00,78.80,51.80,39.02,100.00,5.00,0.00,30.21,,6.21,,,,,,,,,,,,,,,,,78.80,SBMT 292000Z 10005KT CAVOK 26/11 Q1023,
SBMT,2024-08-29 21:00,75.20,51.80,43.97,90.00,5.00,0.00,30.24,,6.21,,,,,,,,,,,,,,,,,75.20,SBMT 292100Z 09005KT CAVOK 24/11 Q1024,
SBMT,2024-08-29 22:00,73.40,53.60,49.90,90.00,5.00,0.00,30.24,,6.21,,,,,,,,,,,,,,,,,73.40,SBMT 292200Z 09005KT CAVOK 23/12 Q1024,
SBMT,2024-08-29 23:00,66.20,53.60,63.82,0.00,0.00,0.00,30.27,,6.21,,,,,,,,,,,,,,,,,66.20,SBMT 292300Z 00000KT CAVOK 19/12 Q1025,
SBMT,2024-08-30 00:00,64.40,53.60,67.95,0.00,0.00,0.00,30.27,,6.21,,,,,,,,,,,,,,,,,64.40,SBMT 300000Z 00000KT CAVOK 18/12 Q1025,
SBMT,2024-08-30 01:00,62.60,53.60,72.38,80.00,1.00,0.00,30.27,,6.21,,,,,,,,,,,,,,,,,62.60,SBMT 300100Z 08001KT CAVOK 17/12 Q1025,
SBMT,2024-08-30 02:00,60.80,53.60,77.14,100.00,2.00,0.00,30.30,,6.21,,,,,,,,,,,,,,,,,60.80,SBMT 300200Z 10002KT CAVOK 16/12 Q1026,
SBMT,2024-08-30 09:00,53.60,51.80,93.60,0.00,0.00,0.00,30.27,,6.21,,,,,,,,,,,,,,,,,53.60,SBMT 300900Z 00000KT CAVOK 12/11 Q1025,
SBMT,2024-08-30 10:00,53.60,53.60,100.00,110.00,1.00,0.00,30.27,,6.21,,,,,,,,,,,,,,,,,53.60,SBMT 301000Z 11001KT CAVOK 12/12 Q1025,
SBMT,2024-08-30 11:00,62.60,53.60,72.38,100.00,3.00,0.00,30.30,,6.21,,,,,,,,,,,,,,,,,62.60,SBMT 301100Z 10003KT CAVOK 17/12 Q1026,
SBMT,2024-08-30 12:00,68.00,53.60,59.97,0.00,0.00,0.00,30.30,,6.21,,,,,,,,,,,,,,,,,68.00,SBMT 301200Z 00000KT CAVOK 20/12 Q1026,
SBMT,2024-08-30 13:00,73.40,53.60,49.90,120.00,3.00,0.00,30.30,,6.21,,,,,,,,,,,,,,,,,73.40,SBMT 301300Z 12003KT 060V190 CAVOK 23/12 Q1026,
SBMT,2024-08-30 14:00,78.80,51.80,39.02,,2.00,0.00,30.27,,6.21,,,,,,,,,,,,,,,,,78.80,SBMT 301400Z VRB02KT CAVOK 26/11 Q1025,
SBMT,2024-08-30 15:00,80.60,44.60,28.08,290.00,2.00,0.00,30.24,,6.21,,,,,,,,,,,,,,,,,79.42,SBMT 301500Z 29002KT CAVOK 27/07 Q1024,
SBMT,2024-08-30 16:00,82.40,44.60,26.49,220.00,3.00,0.00,30.21,,6.21,,,,,,,,,,,,,,,,,80.50,SBMT 301600Z 22003KT 150V310 CAVOK 28/07 Q1023,
SBMT,2024-08-30 17:00,82.40,35.60,18.67,170.00,4.00,0.00,30.15,,6.21,,,,,,,,,,,,,,,,,80.08,SBMT 301700Z 17004KT 130V240 CAVOK 28/02 Q1021,
SBMT,2024-08-30 18:00,84.20,33.80,16.39,,6.00,0.00,30.15,,6.21,,,,,,,,,,,,,,,,,81.30,SBMT 301800Z VRB06KT CAVOK 29/01 Q1021,
SBMT,2024-08-30 19:00,84.20,35.60,17.61,,2.00,0.00,30.12,,6.21,,,,,,,,,,,,,,,,,81.34,SBMT 301900Z VRB02KT CAVOK 29/02 Q1020,
SBMT,2024-08-30 20:00,82.40,32.00,16.17,170.00,8.00,0.00,30.12,,6.21,,,,,,,,,,,,,,,,,80.00,SBMT 302000Z 17008KT 080V210 CAVOK 28/00 Q1020,
SBMT,2024-08-30 21:00,78.80,32.00,18.18,130.00,8.00,0.00,30.15,,6.21,,,,,,,,,,,,,,,,,78.80,SBMT 302100Z 13008KT CAVOK 26/00 Q1021,
SBMT,2024-08-30 22:00,75.20,35.60,23.66,120.00,6.00,0.00,30.15,,6.21,,,,,,,,,,,,,,,,,75.20,SBMT 302200Z 12006KT CAVOK 24/02 Q1021,
SBMT,2024-08-30 23:00,68.00,39.20,34.80,70.00,3.00,0.00,30.15,,6.21,,,,,,,,,,,,,,,,,68.00,SBMT 302300Z 07003KT CAVOK 20/04 Q1021,
SBMT,2024-08-31 00:00,64.40,41.00,42.28,100.00,1.00,0.00,30.18,,6.21,,,,,,,,,,,,,,,,,64.40,SBMT 310000Z 10001KT CAVOK 18/05 Q1022,
SBMT,2024-08-31 01:00,60.80,42.80,51.45,0.00,0.00,0.00,30.18,,6.21,,,,,,,,,,,,,,,,,60.80,SBMT 310100Z 00000KT CAVOK 16/06 Q1022,
SBMT,2024-08-31 02:00,59.00,44.60,58.77,0.00,0.00,0.00,30.18,,6.21,,,,,,,,,,,,,,,,,59.00,SBMT 310200Z 00000KT CAVOK 15/07 Q1022,
SBMT,2024-08-31 09:00,53.60,44.60,71.45,0.00,0.00,0.00,30.18,,6.21,,,,,,,,,,,,,,,,,53.60,SBMT 310900Z 00000KT CAVOK 12/07 Q1022,
SBMT,2024-08-31 10:00,55.40,46.40,71.64,100.00,3.00,0.00,30.21,,6.21,,,,,,,,,,,,,,,,,55.40,SBMT 311000Z 10003KT CAVOK 13/08 Q1023,
SBMT,2024-08-31 11:00,60.80,50.00,67.54,90.00,3.00,0.00,30.24,,6.21,,,,,,,,,,,,,,,,,60.80,SBMT 311100Z 09003KT 060V130 CAVOK 16/10 Q1024,
SBMT,2024-08-31 12:00,66.20,46.40,48.83,110.00,3.00,0.00,30.24,,6.21,,,,,,,,,,,,,,,,,66.20,SBMT 311200Z 11003KT 070V160 CAVOK 19/08 Q1024,
SBMT,2024-08-31 13:00,73.40,46.40,38.18,,4.00,0.00,30.24,,6.21,,,,,,,,,,,,,,,,,73.40,SBMT 311300Z VRB04KT CAVOK 23/08 Q1024,
SBMT,2024-08-31 14:00,78.80,46.40,31.90,90.00,6.00,0.00,30.24,,6.21,,,,,,,,,,,,,,,,,78.80,SBMT 311400Z 09006KT 040V140 CAVOK 26/08 Q1024,
SBMT,2024-08-31 15:00,80.60,44.60,28.08,,4.00,0.00,30.21,,6.21,,,,,,,,,,,,,,,,,79.42,SBMT 311500Z VRB04KT CAVOK 27/07 Q1023,
SBMT,2024-08-31 16:00,84.20,42.80,23.33,230.00,2.00,0.00,30.18,,6.21,,,,,,,,,,,,,,,,,81.61,SBMT 311600Z 23002KT CAVOK 29/06 Q1022,
SBMT,2024-08-31 17:00,84.20,44.60,24.99,240.00,5.00,0.00,30.15,,6.21,,,,,,,,,,,,,,,,,81.73,SBMT 311700Z 24005KT CAVOK 29/07 Q1021,
SBMT,2024-08-31 18:00,82.40,53.60,37.07,160.00,7.00,0.00,30.12,,6.21,,,,,,,,,,,,,,,,,81.46,SBMT 311800Z 16007KT CAVOK 28/12 Q1020,
SBMT,2024-08-31 19:00,80.60,51.80,36.79,160.00,9.00,0.00,30.12,,6.21,,,,,,,,,,,,,,,,,80.08,SBMT 311900Z 16009KT CAVOK 27/11 Q1020,
SBMT,2024-08-31 20:00,77.00,46.40,33.85,140.00,6.00,0.00,30.15,,6.21,,,,,,,,,,,,,,,,,77.00,SBMT 312000Z 14006KT CAVOK 25/08 Q1021,
SBMT,2024-08-31 21:00,75.20,41.00,29.23,140.00,6.00,0.00,30.15,,6.21,,,,,,,,,,,,,,,,,75.20,SBMT 312100Z 14006KT CAVOK 24/05 Q1021,
SBMT,2024-08-31 22:00,71.60,46.40,40.57,150.00,5.00,0.00,30.15,,6.21,,,,,,,,,,,,,,,,,71.60,SBMT 312200Z 15005KT CAVOK 22/08 Q1021,
SBMT,2024-08-31 23:00,69.80,50.00,49.37,140.00,3.00,0.00,30.18,,6.21,,,,,,,,,,,,,,,,,69.80,SBMT 312300Z 14003KT CAVOK 21/10 Q1022,
SBMT,2024-09-01 00:00,62.60,50.00,63.38,190.00,1.00,0.00,30.18,,6.21,,,,,,,,,,,,,,,,,62.60,SBMT 010000Z 19001KT CAVOK 17/10 Q1022,
SBMT,2024-09-01 01:00,60.80,50.00,67.54,0.00,0.00,0.00,30.18,,6.21,,,,,,,,,,,,,,,,,60.80,SBMT 010100Z 00000KT CAVOK 16/10 Q1022,
SBMT,2024-09-01 02:00,59.00,51.80,76.98,110.00,2.00,0.00,30.18,,6.21,,,,,,,,,,,,,,,,,59.00,SBMT 010200Z 11002KT CAVOK 15/11 Q1022,
SBMT,2024-09-01 09:00,53.60,48.20,81.87,0.00,0.00,0.00,30.12,,6.21,,,,,,,,,,,,,,,,,53.60,SBMT 010900Z 00000KT CAVOK 12/09 Q1020,
SBMT,2024-09-01 10:00,60.80,51.80,72.20,90.00,5.00,0.00,30.15,,5.59,,NSC,,,,,,,,,,,,,,,60.80,SBMT 011000Z 09005KT 9000 NSC 16/11 Q1021,
SBMT,2024-09-01 11:00,64.40,53.60,67.95,90.00,4.00,0.00,30.18,,6.21,,,,,,,,,,,,,,,,,64.40,SBMT 011100Z 09004KT CAVOK 18/12 Q1022,
SBMT,2024-09-01 12:00,68.00,53.60,59.97,70.00,4.00,0.00,30.18,,6.21,,,,,,,,,,,,,,,,,68.00,SBMT 011200Z 07004KT CAVOK 20/12 Q1022,
SBMT,2024-09-01 13:00,73.40,51.80,46.71,80.00,4.00,0.00,30.15,,6.21,,,,,,,,,,,,,,,,,73.40,SBMT 011300Z 08004KT CAVOK 23/11 Q1021,
SBMT,2024-09-01 14:00,78.80,55.40,44.52,,4.00,0.00,30.15,,6.21,,,,,,,,,,,,,,,,,78.80,SBMT 011400Z VRB04KT CAVOK 26/13 Q1021,
SBMT,2024-09-01 15:00,86.00,48.20,27.03,280.00,10.00,0.00,30.12,,6.21,,,,,,,,,,,,,,,,,83.40,SBMT 011500Z 28010KT CAVOK 30/09 Q1020,
SBMT,2024-09-01 16:00,86.00,44.60,23.59,280.00,15.00,0.00,30.09,,6.21,,,,,,,,,,,,,,,,,83.07,SBMT 011600Z 28015KT CAVOK 30/07 Q1019,
SBMT,2024-09-01 17:00,87.80,42.80,20.79,300.00,12.00,0.00,30.06,,6.21,,,,,,,,,,,,,,,,,84.40,SBMT 011700Z 30012KT CAVOK 31/06 Q1018,
SBMT,2024-09-01 18:00,87.80,41.00,19.40,290.00,11.00,0.00,30.03,,6.21,,,,,,,,,,,,,,,,,84.30,SBMT 011800Z 29011KT CAVOK 31/05 Q1017,
SBMT,2024-09-01 19:00,87.80,41.00,19.40,270.00,13.00,0.00,30.03,,6.21,,,,,,,,,,,,,,,,,84.30,SBMT 011900Z 27013KT CAVOK 31/05 Q1017,
SBMT,2024-09-01 20:00,86.00,41.00,20.54,290.00,8.00,0.00,30.03,,6.21,,,,,,,,,,,,,,,,,82.86,SBMT 012000Z 29008KT CAVOK 30/05 Q1017,
SBMT,2024-09-01 21:00,82.40,41.00,23.07,300.00,4.00,0.00,30.03,,6.21,,,,,,,,,,,,,,,,,80.29,SBMT 012100Z 30004KT CAVOK 28/05 Q1017,
SBMT,2024-09-01 22:00,73.40,44.60,35.66,330.00,2.00,0.00,30.03,,6.21,,,,,,,,,,,,,,,,,73.40,SBMT 012200Z 33002KT CAVOK 23/07 Q1017,
SBMT,2024-09-01 23:00,69.80,46.40,43.13,0.00,0.00,0.00,30.06,,6.21,,,,,,,,,,,,,,,,,69.80,SBMT 012300Z 00000KT CAVOK 21/08 Q1018,
SBMT,2024-09-02 00:00,68.00,46.40,45.88,0.00,0.00,0.00,30.06,,6.21,,,,,,,,,,,,,,,,,68.00,SBMT 020000Z 00000KT CAVOK 20/08 Q1018,
SBMT,2024-09-02 01:00,66.20,46.40,48.83,0.00,0.00,0.00,30.06,,6.21,,,,,,,,,,,,,,,,,66.20,SBMT 020100Z 00000KT CAVOK 19/08 Q1018,
SBMT,2024-09-02 02:00,64.40,48.20,55.63,0.00,0.00,0.00,30.06,,6.21,,,,,,,,,,,,,,,,,64.40,SBMT 020200Z 00000KT CAVOK 18/09 Q1018,
SBMT,2024-09-02 09:00,66.20,51.80,59.74,120.00,4.00,0.00,30.03,,6.21,,,,,,,,,,,,,,,,,66.20,SBMT 020900Z 12004KT CAVOK 19/11 Q1017,
SBMT,2024-09-02 10:00,64.40,57.20,77.45,,2.00,0.00,30.06,,6.21,,,,,,,,,,,,,,,,,64.40,SBMT 021000Z VRB02KT CAVOK 18/14 Q1018,
SBMT,2024-09-02 11:00,68.00,57.20,68.35,120.00,3.00,0.00,30.06,,6.21,,,,,,,,,,,,,,,,,68.00,SBMT 021100Z 12003KT 060V180 CAVOK 20/14 Q1018,
SBMT,2024-09-02 12:00,69.80,57.20,64.26,,3.00,0.00,30.06,,6.21,,,,,,,,,,,,,,,,,69.80,SBMT 021200Z VRB03KT CAVOK 21/14 Q1018,
SBMT,2024-09-02 13:00,69.80,57.20,64.26,130.00,5.00,0.00,30.09,,5.59,,NSC,,,,,,,,,,,,,,,69.80,SBMT 021300Z 13005KT 9000 NSC 21/14 Q1019,
SBMT,2024-09-02 14:00,75.20,57.20,53.55,80.00,3.00,0.00,30.06,,5.59,,NSC,,,,,,,,,,,,,,,75.20,SBMT 021400Z 08003KT 010V150 9000 NSC 24/14 Q1018,
SBMT,2024-09-02 15:00,78.80,57.20,47.52,,3.00,0.00,30.03,,3.11,,NSC,,,,,,,,HZ,,,,,,,78.80,SBMT 021500Z VRB03KT 5000 HZ NSC 26/14 Q1017,
SBMT,2024-09-02 16:00,80.60,57.20,44.80,170.00,5.00,0.00,30.00,,3.11,,NSC,,,,,,,,HZ,,,,,,,80.81,SBMT 021600Z 17005KT 120V220 5000 HZ NSC 27/14 Q1016,
SBMT,2024-09-02 17:00,80.60,59.00,47.79,150.00,6.00,0.00,29.97,,4.97,,NSC,,,,,,,,,,,,,,,81.11,SBMT 021700Z 15006KT 8000 NSC 27/15 Q1015,
SBMT,2024-09-02 18:00,77.00,59.00,53.80,140.00,9.00,0.00,29.97,,3.73,,NSC,,,,,,,,,,,,,,,77.00,SBMT 021800Z 14009KT 6000 NSC 25/15 Q1015,
SBMT,2024-09-02 19:00,71.60,59.00,64.48,130.00,8.00,0.00,29.97,,3.11,,NSC,,,,,,,,HZ,,,,,,,71.60,SBMT 021900Z 13008KT 5000 HZ NSC 22/15 Q1015,
SBMT,2024-09-02 20:00,68.00,57.20,68.35,160.00,6.00,0.00,30.00,,4.35,,NSC,,,,,,,,,,,,,,,68.00,SBMT 022000Z 16006KT 7000 NSC 20/14 Q1016,
SBMT,2024-09-02 21:00,66.20,59.00,77.60,130.00,6.00,0.00,30.00,,2.49,,NSC,,,,,,,,HZ,,,,,,,66.20,SBMT 022100Z 13006KT 4000 HZ NSC 19/15 Q1016,
SBMT,2024-09-02 22:00,64.40,57.20,77.45,160.00,6.00,0.00,30.00,,3.73,,NSC,,,,,,,,,,,,,,,64.40,SBMT 022200Z 16006KT 6000 NSC 18/14 Q1016,
SBMT,2024-09-02 23:00,62.60,57.20,82.50,140.00,3.00,0.00,30.03,,3.73,,NSC,,,,,,,,,,,,,,,62.60,SBMT 022300Z 14003KT 100V170 6000 NSC 17/14 Q1017,
SBMT,2024-09-03 00:00,60.80,57.20,87.92,120.00,4.00,0.00,30.06,,3.73,,NSC,,,,,,,,,,,,,,,60.80,SBMT 030000Z 12004KT 6000 NSC 16/14 Q1018,
SBMT,2024-09-03 01:00,60.80,57.20,87.92,100.00,3.00,0.00,30.06,,3.73,,BKN,,,,1500.00,,,,,,,,,,,60.80,SBMT 030100Z 10003KT 6000 BKN015 16/14 Q1018,
SBMT,2024-09-03 02:00,60.80,57.20,87.92,100.00,4.00,0.00,30.06,,3.73,,BKN,,,,1500.00,,,,,,,,,,,60.80,SBMT 030200Z 10004KT 6000 BKN015 16/14 Q1018,
SBMT,2024-09-03 09:00,59.00,57.20,93.74,90.00,4.00,0.00,30.03,,1.24,,NSC,,,,,,,,BR,,,,,,,59.00,SBMT 030900Z 09004KT 2000 BR NSC 15/14 Q1017,
SBMT,2024-09-03 10:00,59.00,57.20,93.74,110.00,5.00,0.00,30.06,,1.24,,NSC,,,,,,,,BR,,,,,,,59.00,SBMT 031000Z 11005KT 2000 BR NSC 15/14 Q1018,
SBMT,2024-09-03 11:00,60.80,59.00,93.79,100.00,6.00,0.00,30.09,,1.24,,NSC,,,,,,,,BR,,,,,,,60.80,SBMT 031100Z 10006KT 2000 BR NSC 16/15 Q1019,
SBMT,2024-09-03 12:00,64.40,59.00,82.62,70.00,5.00,0.00,30.12,,1.86,,NSC,,,,,,,,BR,,,,,,,64.40,SBMT 031200Z 07005KT 3000 BR NSC 18/15 Q1020,
SBMT,2024-09-03 13:00,68.00,59.00,72.92,70.00,4.00,0.00,30.12,,2.49,,NSC,,,,,,,,HZ,,,,,,,68.00,SBMT 031300Z 07004KT 020V120 4000 HZ NSC 20/15 Q1020,
SBMT,2024-09-03 14:00,73.40,59.00,60.67,90.00,4.00,0.00,30.09,,2.80,,NSC,,,,,,,,HZ,,,,,,,73.40,SBMT 031400Z 09004KT 030V130 4500 HZ NSC 23/15 Q1019,
SBMT,2024-09-03 14:08,75.20,59.00,57.12,110.00,4.00,0.00,30.09,,3.11,,NSC,,,,,,,,HZ,,,,,,,75.20,SBMT 031408Z 11004KT 050V170 5000 HZ NSC 24/15 Q1019,
SBMT,2024-09-03 15:00,78.80,59.00,50.69,,2.00,0.00,30.09,,3.11,,NSC,,,,,,,,HZ,,,,,,,78.80,SBMT 031500Z VRB02KT 5000 HZ NSC 26/15 Q1019,
SBMT,2024-09-03 16:00,86.00,55.40,35.25,260.00,5.00,0.00,30.06,,3.11,,NSC,,,,,,,,HZ,,,,,,,84.54,SBMT 031600Z 26005KT 190V330 5000 HZ NSC 30/13 Q1018,
SBMT,2024-09-03 17:00,87.80,53.60,31.17,290.00,8.00,0.00,31.01,,6.21,,,,,,,,,,,,,,,,,85.72,SBMT 031700Z 29008KT CAVOK 31/12 Q1050,
SBMT,2024-09-03 18:00,87.80,48.20,25.52,230.00,6.00,0.00,30.00,,6.21,,,,,,,,,,,,,,,,,84.87,SBMT 031800Z 23006KT CAVOK 31/09 Q1016,
SBMT,2024-09-03 19:00,87.80,50.00,27.29,170.00,7.00,0.00,30.00,,5.59,,NSC,,,,,,,,,,,,,,,85.11,SBMT 031900Z 17007KT 120V220 9000 NSC 31/10 Q1016,
SBMT,2024-09-03 20:00,86.00,46.40,25.26,200.00,8.00,0.00,30.03,,6.21,,,,,,,,,,,,,,,,,83.22,SBMT 032000Z 20008KT CAVOK 30/08 Q1017,
SBMT,2024-09-03 21:00,82.40,46.40,28.36,180.00,5.00,0.00,30.03,,6.21,,,,,,,,,,,,,,,,,80.64,SBMT 032100Z 18005KT 140V220 CAVOK 28/08 Q1017,
SBMT,2024-09-03 22:00,77.00,48.20,36.22,0.00,0.00,0.00,30.06,,6.21,,,,,,,,,,,,,,,,,77.00,SBMT 032200Z 00000KT CAVOK 25/09 Q1018,
SBMT,2024-09-03 23:00,71.60,50.00,46.43,0.00,0.00,0.00,30.09,,6.21,,,,,,,,,,,,,,,,,71.60,SBMT 032300Z 00000KT CAVOK 22/10 Q1019,
SBMT,2024-09-04 00:00,68.00,51.80,56.13,0.00,0.00,0.00,30.12,,6.21,,,,,,,,,,,,,,,,,68.00,SBMT 040000Z 00000KT CAVOK 20/11 Q1020,
SBMT,2024-09-04 01:00,66.20,51.80,59.74,0.00,0.00,0.00,30.12,,6.21,,,,,,,,,,,,,,,,,66.20,SBMT 040100Z 00000KT CAVOK 19/11 Q1020,
SBMT,2024-09-04 02:00,64.40,55.40,72.56,0.00,0.00,0.00,30.12,,4.97,,NSC,,,,,,,,,,,,,,,64.40,SBMT 040200Z 00000KT 8000 NSC 18/13 Q1020,
SBMT,2024-09-04 09:00,62.60,59.00,88.00,100.00,4.00,0.00,30.09,,2.49,,NSC,,,,,,,,BR,,,,,,,62.60,SBMT 040900Z 10004KT 4000 BR NSC 17/15 Q1019,
SBMT,2024-09-04 10:00,64.40,60.80,88.09,90.00,5.00,0.00,30.12,,3.11,,NSC,,,,,,,,BR,,,,,,,64.40,SBMT 041000Z 09005KT 5000 BR NSC 18/16 Q1020,
SBMT,2024-09-04 11:00,68.00,60.80,77.75,90.00,5.00,0.00,30.12,,3.11,,NSC,,,,,,,,HZ,,,,,,,68.00,SBMT 041100Z 09005KT 5000 HZ NSC 20/16 Q1020,
SBMT,2024-09-04 12:00,73.40,60.80,64.69,90.00,7.00,0.00,30.15,,3.73,,NSC,,,,,,,,,,,,,,,73.40,SBMT 041200Z 09007KT 6000 NSC 23/16 Q1021,
SBMT,2024-09-04 13:00,80.60,55.40,41.97,80.00,9.00,0.00,30.15,,6.21,,,,,,,,,,,,,,,,,80.53,SBMT 041300Z 08009KT CAVOK 27/13 Q1021,
SBMT,2024-09-04 14:00,84.20,46.40,26.76,70.00,10.00,0.00,30.12,,6.21,,,,,,,,,,,,,,,,,81.87,SBMT 041400Z 07010KT CAVOK 29/08 Q1020,
SBMT,2024-09-04 15:00,86.00,41.00,20.54,60.00,11.00,0.00,30.09,,6.21,,,,,,,,,,,,,,,,,82.86,SBMT 041500Z 06011KT CAVOK 30/05 Q1019,
SBMT,2024-09-04 16:00,87.80,42.80,20.79,80.00,11.00,0.00,30.09,,6.21,,,,,,,,,,,,,,,,,84.40,SBMT 041600Z 08011KT CAVOK 31/06 Q1019,
SBMT,2024-09-04 17:00,87.80,44.60,22.27,60.00,8.00,0.00,30.06,,6.21,,,,,,,,,,,,,,,,,84.53,SBMT 041700Z 06008KT 360V110 CAVOK 31/07 Q1018,
SBMT,2024-09-04 18:00,87.80,42.80,20.79,70.00,8.00,0.00,30.03,,6.21,,,,,,,,,,,,,,,,,84.40,SBMT 041800Z 07008KT 010V120 CAVOK 31/06 Q1017,
SBMT,2024-09-04 19:00,87.80,41.00,19.40,100.00,9.00,0.00,30.03,,6.21,,,,,,,,,,,,,,,,,84.30,SBMT 041900Z 10009KT 050V120 CAVOK 31/05 Q1017,
SBMT,2024-09-04 20:00,86.00,39.20,19.15,80.00,8.00,0.00,30.03,,6.21,,,,,,,,,,,,,,,,,82.79,SBMT 042000Z 08008KT 050V110 CAVOK 30/04 Q1017,
SBMT,2024-09-04 21:00,84.20,42.80,23.33,80.00,6.00,0.00,30.03,,6.21,,,,,,,,,,,,,,,,,81.61,SBMT 042100Z 08006KT CAVOK 29/06 Q1017,
SBMT,2024-09-04 22:00,82.40,42.80,24.72,60.00,5.00,0.00,30.03,,4.35,,NSC,,,,,,,,,,,,,,,80.39,SBMT 042200Z 06005KT 030V090 7000 NSC 28/06 Q1017,
SBMT,2024-09-04 23:00,78.80,44.60,29.79,80.00,5.00,0.00,30.06,,3.73,,NSC,,,,,,,,,,,,,,,78.80,SBMT 042300Z 08005KT 040V100 6000 NSC 26/07 Q1018,
SBMT,2024-09-05 00:00,77.00,44.60,31.62,80.00,6.00,0.00,30.06,,3.73,,NSC,,,,,,,,,,,,,,,77.00,SBMT 050000Z 08006KT 050V110 6000 NSC 25/07 Q1018,
SBMT,2024-09-05 01:00,75.20,46.40,35.94,90.00,8.00,0.00,30.06,,3.73,,NSC,,,,,,,,,,,,,,,75.20,SBMT 050100Z 09008KT 6000 NSC 24/08 Q1018,
SBMT,2024-09-05 02:00,73.40,46.40,38.18,90.00,6.00,0.00,30.06,,3.73,,NSC,,,,,,,,,,,,,,,73.40,SBMT 050200Z 09006KT 060V120 6000 NSC 23/08 Q1018,
SBMT,2024-09-05 09:00,66.20,53.60,63.82,90.00,4.00,0.00,30.03,,1.86,,NSC,,,,,,,,HZ,,,,,,,66.20,SBMT 050900Z 09004KT 3000 HZ NSC 19/12 Q1017,
SBMT,2024-09-05 10:00,68.00,53.60,59.97,90.00,5.00,0.00,30.06,,2.49,,NSC,,,,,,,,HZ,,,,,,,68.00,SBMT 051000Z 09005KT 4000 HZ NSC 20/12 Q1018,
SBMT,2024-09-05 11:00,69.80,55.40,60.21,120.00,6.00,0.00,30.09,,3.11,,NSC,,,,,,,,HZ,,,,,,,69.80,SBMT 051100Z 12006KT 5000 HZ NSC 21/13 Q1019,
SBMT,2024-09-05 12:00,69.80,57.20,64.26,200.00,10.00,0.00,30.15,,3.11,,NSC,,,,,,,,HZ,,,,,,,69.80,SBMT 051200Z 20010KT 5000 HZ NSC 21/14 Q1021,
SBMT,2024-09-05 13:00,66.20,57.20,72.74,150.00,9.00,0.00,30.18,,1.24,,BKN,,,,1500.00,,,,HZ,,,,,,,66.20,SBMT 051300Z 15009KT 2000 HZ BKN015 19/14 Q1022,
SBMT,2024-09-05 14:00,69.80,57.20,64.26,160.00,7.00,0.00,30.15,,4.97,,SCT,,,,2000.00,,,,,,,,,,,69.80,SBMT 051400Z 16007KT 8000 SCT020 21/14 Q1021,
SBMT,2024-09-05 15:00,69.80,57.20,64.26,190.00,8.00,0.00,30.15,,4.97,,BKN,,,,2300.00,,,,,,,,,,,69.80,SBMT 051500Z 19008KT 8000 BKN023 21/14 Q1021,
SBMT,2024-09-05 16:00,73.40,55.40,53.29,180.00,8.00,0.00,30.12,,6.21,,,,,,,,,,,,,,,,,73.40,SBMT 051600Z 18008KT CAVOK 23/13 Q1020,
SBMT,2024-09-05 17:00,77.00,55.40,47.25,160.00,7.00,0.00,30.09,,6.21,,,,,,,,,,,,,,,,,77.00,SBMT 051700Z 16007KT 130V190 CAVOK 25/13 Q1019,
SBMT,2024-09-05 18:00,78.80,55.40,44.52,140.00,6.00,0.00,30.06,,6.21,,,,,,,,,,,,,,,,,78.80,SBMT 051800Z 14006KT 110V190 CAVOK 26/13 Q1018,
SBMT,2024-09-05 19:00,75.20,53.60,46.98,160.00,10.00,0.00,30.06,,6.21,,,,,,,,,,,,,,,,,75.20,SBMT 051900Z 16010KT 090V190 CAVOK 24/12 Q1018,
SBMT,2024-09-05 20:00,71.60,55.40,56.63,140.00,9.00,0.00,30.09,,6.21,,,,,,,,,,,,,,,,,71.60,SBMT 052000Z 14009KT 110V190 CAVOK 22/13 Q1019,
SBMT,2024-09-05 21:00,66.20,59.00,77.60,140.00,9.00,0.00,30.09,,2.49,,BKN,,,,1700.00,,,,BR,,,,,,,66.20,SBMT 052100Z 14009KT 110V190 4000 BR BKN017 19/15 Q1019,
SBMT,2024-09-05 22:00,62.60,57.20,82.50,170.00,11.00,0.00,30.15,,2.49,,BKN,,,,1300.00,,,,BR,,,,,,,62.60,SBMT 052200Z 17011KT 130V190 4000 BR BKN013 17/14 Q1021,
SBMT,2024-09-05 23:00,62.60,57.20,82.50,160.00,7.00,0.00,30.15,,3.11,,FEW,BKN,,,1300.00,1500.00,,,BR,,,,,,,62.60,SBMT 052300Z 16007KT 110V200 5000 BR FEW013 BKN015 17/14 Q1021,
SBMT,2024-09-06 00:00,62.60,57.20,82.50,150.00,5.00,0.00,30.18,,3.73,,SCT,BKN,,,1300.00,1500.00,,,,,,,,,,62.60,SBMT 060000Z 15005KT 6000 SCT013 BKN015 17/14 Q1022,
SBMT,2024-09-06 01:00,60.80,55.40,82.37,160.00,9.00,0.00,30.21,,4.35,,BKN,BKN,,,1500.00,1700.00,,,,,,,,,,60.80,SBMT 060100Z 16009KT 120V200 7000 BKN015 BKN017 16/13 Q1023,
SBMT,2024-09-06 02:00,60.80,55.40,82.37,150.00,9.00,0.00,30.21,,4.97,,BKN,BKN,,,1300.00,1500.00,,,,,,,,,,60.80,SBMT 060200Z 15009KT 100V170 8000 BKN013 BKN015 16/13 Q1023,
SBMT,2024-09-06 09:00,59.00,55.40,87.83,120.00,9.00,0.00,30.15,,4.97,,BKN,,,,1300.00,,,,,,,,,,,59.00,SBMT 060900Z 12009KT 8000 BKN013 15/13 Q1021,
SBMT,2024-09-06 10:00,59.00,55.40,87.83,130.00,10.00,0.00,30.15,,6.21,,BKN,,,,1300.00,,,,,,,,,,,59.00,SBMT 061000Z 13010KT 9999 BKN013 15/13 Q1021,
SBMT,2024-09-06 11:00,60.80,55.40,82.37,130.00,8.00,0.00,30.15,,6.21,,BKN,,,,1300.00,,,,,,,,,,,60.80,SBMT 061100Z 13008KT 9999 BKN013 16/13 Q1021,
SBMT,2024-09-06 12:00,62.60,57.20,82.50,110.00,8.00,0.00,30.18,,6.21,,BKN,,,,1300.00,,,,,,,,,,,62.60,SBMT 061200Z 11008KT 9999 BKN013 17/14 Q1022,
SBMT,2024-09-06 13:00,64.40,57.20,77.45,100.00,11.00,0.00,30.18,,6.21,,BKN,,,,1700.00,,,,,,,,,,,64.40,SBMT 061300Z 10011KT 9999 BKN017 18/14 Q1022,
SBMT,2024-09-06 14:00,68.00,57.20,68.35,120.00,9.00,0.00,30.15,,6.21,,BKN,,,,2100.00,,,,,,,,,,,68.00,SBMT 061400Z 12009KT 9999 BKN021 20/14 Q1021,
SBMT,2024-09-06 15:00,69.80,57.20,64.26,100.00,12.00,0.00,30.12,,6.21,,BKN,,,,2600.00,,,,,,,,,,,69.80,SBMT 061500Z 10012KT 9999 BKN026 21/14 Q1020,
SBMT,2024-09-06 16:00,69.80,57.20,64.26,140.00,9.00,0.00,30.12,,6.21,,BKN,,,,2600.00,,,,,,,,,,,69.80,SBMT 061600Z 14009KT 9999 BKN026 21/14 Q1020,
SBMT,2024-09-06 17:00,69.80,57.20,64.26,160.00,9.00,0.00,30.09,,6.21,,BKN,,,,2500.00,,,,,,,,,,,69.80,SBMT 061700Z 16009KT 9999 BKN025 21/14 Q1019,
SBMT,2024-09-06 18:00,69.80,57.20,64.26,130.00,10.00,0.00,30.06,,6.21,,SCT,,,,2500.00,,,,,,,,,,,69.80,SBMT 061800Z 13010KT 9999 SCT025 21/14 Q1018,
SBMT,2024-09-06 19:00,66.20,57.20,72.74,150.00,8.00,0.00,30.06,,6.21,,BKN,,,,2000.00,,,,,,,,,,,66.20,SBMT 061900Z 15008KT 9999 BKN020 19/14 Q1018,
SBMT,2024-09-06 20:00,66.20,57.20,72.74,130.00,8.00,0.00,30.09,,4.97,,BKN,,,,1700.00,,,,,,,,,,,66.20,SBMT 062000Z 13008KT 8000 BKN017 19/14 Q1019,
SBMT,2024-09-06 21:00,64.40,57.20,77.45,140.00,8.00,0.00,30.09,,4.35,,BKN,,,,1300.00,,,,,,,,,,,64.40,COR SBMT 062100Z 14008KT 7000 BKN013 18/14 Q1019,
SBMT,2024-09-06 22:00,64.40,57.20,77.45,120.00,6.00,0.00,30.12,,4.35,,BKN,,,,1200.00,,,,,,,,,,,64.40,SBMT 062200Z 12006KT 7000 BKN012 18/14 Q1020,
SBMT,2024-09-06 23:00,62.60,57.20,82.50,130.00,7.00,0.00,30.12,,3.11,,BKN,,,,1200.00,,,,BR,,,,,,,62.60,SBMT 062300Z 13007KT 5000 BR BKN012 17/14 Q1020,
SBMT,2024-09-07 00:00,64.40,57.20,77.45,120.00,6.00,0.00,30.15,,3.11,,BKN,,,,1200.00,,,,HZ,,,,,,,64.40,SBMT 070000Z 12006KT 5000 HZ BKN012 18/14 Q1021,
SBMT,2024-09-07 01:00,64.40,57.20,77.45,110.00,7.00,0.00,30.15,,4.35,,BKN,,,,1300.00,,,,,,,,,,,64.40,SBMT 070100Z 11007KT 7000 BKN013 18/14 Q1021,
SBMT,2024-09-07 02:00,62.60,57.20,82.50,120.00,7.00,0.00,30.15,,4.35,,BKN,,,,1300.00,,,,,,,,,,,62.60,SBMT 070200Z 12007KT 7000 BKN013 17/14 Q1021,
SBMT,2024-09-07 09:00,62.60,60.80,93.83,80.00,6.00,0.00,30.12,,2.49,,OVC,,,,600.00,,,,BR,,,,,,,62.60,SBMT 070900Z 08006KT 4000 BR OVC006 17/16 Q1020,
SBMT,2024-09-07 10:00,62.60,60.80,93.83,60.00,7.00,0.00,30.15,,2.49,,OVC,,,,600.00,,,,BR,,,,,,,62.60,SBMT 071000Z 06007KT 4000 BR OVC006 17/16 Q1021,
SBMT,2024-09-07 11:00,62.60,60.80,93.83,60.00,6.00,0.00,30.15,,2.49,,OVC,,,,700.00,,,,BR,,,,,,,62.60,SBMT 071100Z 06006KT 4000 BR OVC007 17/16 Q1021,
SBMT,2024-09-07 12:00,64.40,60.80,88.09,60.00,7.00,0.00,30.18,,3.11,,BKN,,,,800.00,,,,BR,,,,,,,64.40,SBMT 071200Z 06007KT 5000 BR BKN008 18/16 Q1022,
SBMT,2024-09-07 13:00,69.80,62.60,77.90,70.00,5.00,0.00,30.18,,6.21,,,,,,,,,,,,,,,,,69.80,SBMT 071300Z 07005KT CAVOK 21/17 Q1022,
SBMT,2024-09-07 14:00,75.20,62.60,64.91,80.00,4.00,0.00,30.15,,6.21,,,,,,,,,,,,,,,,,75.20,SBMT 071400Z 08004KT CAVOK 24/17 Q1021,
SBMT,2024-09-07 15:00,82.40,62.60,51.21,180.00,2.00,0.00,30.12,,6.21,,,,,,,,,,,,,,,,,83.41,SBMT 071500Z 18002KT CAVOK 28/17 Q1020,
SBMT,2024-09-07 16:00,86.00,62.60,45.61,70.00,2.00,0.00,30.09,,6.21,,,,,,,,,,,,,,,,,86.72,SBMT 071600Z 07002KT CAVOK 30/17 Q1019,
SBMT,2024-09-07 17:00,89.60,57.20,33.56,330.00,3.00,0.00,30.06,,6.21,,,,,,,,,,,,,,,,,88.28,SBMT 071700Z 33003KT CAVOK 32/14 Q1018,
SBMT,2024-09-07 18:00,91.40,57.20,31.72,300.00,5.00,0.00,30.03,,4.35,,NSC,,,,,,,,,,,,,,,90.06,SBMT 071800Z 30005KT 240V350 7000 NSC 33/14 Q1017,
SBMT,2024-09-07 19:00,89.60,55.40,31.45,300.00,5.00,0.00,30.03,,4.35,,NSC,,,,,,,,,,,,,,,87.78,SBMT 071900Z 30005KT 260V360 7000 NSC 32/13 Q1017,
SBMT,2024-09-07 20:00,89.60,51.80,27.56,330.00,5.00,0.00,30.06,,4.35,,NSC,,,,,,,,,,,,,,,87.00,SBMT 072000Z 33005KT 7000 NSC 32/11 Q1018,
SBMT,2024-09-07 21:00,80.60,55.40,41.97,0.00,0.00,0.00,30.06,,4.35,,NSC,,,,,,,,,,,,,,,80.53,SBMT 072100Z 00000KT 7000 NSC 27/13 Q1018,
SBMT,2024-09-07 22:00,78.80,55.40,44.52,0.00,0.00,0.00,30.09,,4.35,,NSC,,,,,,,,,,,,,,,78.80,SBMT 072200Z 00000KT 7000 NSC 26/13 Q1019,
SBMT,2024-09-07 23:00,73.40,57.20,56.88,0.00,0.00,0.00,30.12,,4.35,,NSC,,,,,,,,,,,,,,,73.40,SBMT 072300Z 00000KT 7000 NSC 23/14 Q1020,
SBMT,2024-09-08 00:00,71.60,59.00,64.48,0.00,0.00,0.00,30.12,,4.35,,NSC,,,,,,,,,,,,,,,71.60,SBMT 080000Z 00000KT 7000 NSC 22/15 Q1020,
SBMT,2024-09-08 01:00,69.80,59.00,68.55,0.00,0.00,0.00,30.15,,4.97,,NSC,,,,,,,,,,,,,,,69.80,SBMT 080100Z 00000KT 8000 NSC 21/15 Q1021,
SBMT,2024-09-08 02:00,68.00,60.80,77.75,110.00,3.00,0.00,30.15,,4.97,,NSC,,,,,,,,,,,,,,,68.00,SBMT 080200Z 11003KT 8000 NSC 20/16 Q1021,
SBMT,2024-09-08 09:00,64.40,59.00,82.62,120.00,4.00,0.00,30.18,,2.49,,NSC,,,,,,,,BR,,,,,,,64.40,SBMT 080900Z 12004KT 4000 BR NSC 18/15 Q1022,
SBMT,2024-09-08 10:00,66.20,60.80,82.74,140.00,2.00,0.00,30.18,,3.11,,NSC,,,,,,,,BR,,,,,,,66.20,SBMT 081000Z 14002KT 5000 BR NSC 19/16 Q1022,
SBMT,2024-09-08 11:00,71.60,62.60,73.27,80.00,2.00,0.00,30.21,,3.11,,NSC,,,,,,,,HZ,,,,,,,71.60,SBMT 081100Z 08002KT 5000 HZ NSC 22/17 Q1023,
SBMT,2024-09-08 12:00,73.40,62.60,68.94,110.00,2.00,0.00,30.24,,3.73,,NSC,,,,,,,,,,,,,,,73.40,SBMT 081200Z 11002KT 6000 NSC 23/17 Q1024,
SBMT,2024-09-08 13:00,80.60,60.80,50.95,100.00,3.00,0.00,30.24,,4.35,,NSC,,,,,,,,,,,,,,,81.46,SBMT 081300Z 10003KT 7000 NSC 27/16 Q1024,
SBMT,2024-09-08 14:00,84.20,60.80,45.34,90.00,3.00,0.00,30.21,,4.35,,NSC,,,,,,,,,,,,,,,84.43,SBMT 081400Z 09003KT 7000 NSC 29/16 Q1023,
SBMT,2024-09-08 15:00,87.80,53.60,31.17,50.00,3.00,0.00,30.21,,4.35,,NSC,,,,,,,,,,,,,,,85.72,SBMT 081500Z 05003KT 7000 NSC 31/12 Q1023,
SBMT,2024-09-08 16:00,89.60,53.60,29.45,110.00,4.00,0.00,30.18,,4.35,,NSC,,,,,,,,,,,,,,,87.36,SBMT 081600Z 11004KT 7000 NSC 32/12 Q1022,
SBMT,2024-09-08 17:00,91.40,51.80,26.05,50.00,3.00,0.00,30.15,,3.73,,NSC,,,,,,,,,,,,,,,88.69,SBMT 081700Z 05003KT 6000 NSC 33/11 Q1021,
SBMT,2024-09-08 18:00,91.40,51.80,26.05,80.00,4.00,0.00,30.12,,3.73,,NSC,,,,,,,,,,,,,,,88.69,SBMT 081800Z 08004KT 6000 NSC 33/11 Q1020,
SBMT,2024-09-08 19:00,91.40,48.20,22.78,90.00,6.00,0.00,30.12,,3.73,,NSC,,,,,,,,,,,,,,,88.09,SBMT 081900Z 09006KT 6000 NSC 33/09 Q1020,
SBMT,2024-09-08 20:00,89.60,48.20,24.11,70.00,6.00,0.00,30.12,,3.73,,NSC,,,,,,,,,,,,,,,86.44,SBMT 082000Z 07006KT 6000 NSC 32/09 Q1020,
SBMT,2024-09-08 21:00,86.00,55.40,35.25,30.00,3.00,0.00,30.15,,1.86,,NSC,,,,,,,,HZ,,,,,,,84.54,SBMT 082100Z 03003KT 3000 HZ NSC 30/13 Q1021,
SBMT,2024-09-08 22:00,78.80,59.00,50.69,30.00,3.00,0.00,30.15,,1.86,,NSC,,,,,,,,HZ,,,,,,,78.80,SBMT 082200Z 03003KT 3000 HZ NSC 26/15 Q1021,
SBMT,2024-09-08 23:00,75.20,59.00,57.12,90.00,2.00,0.00,30.18,,1.86,,NSC,,,,,,,,HZ,,,,,,,75.20,SBMT 082300Z 09002KT 3000 HZ NSC 24/15 Q1022,
SBMT,2024-09-09 00:00,73.40,60.80,64.69,40.00,2.00,0.00,30.18,,1.24,,NSC,,,,,,,,HZ,,,,,,,73.40,SBMT 090000Z 04002KT 2000 HZ NSC 23/16 Q1022,
SBMT,2024-09-09 01:00,75.20,59.00,57.12,70.00,3.00,0.00,30.18,,1.86,,NSC,,,,,,,,HZ,,,,,,,75.20,SBMT 090100Z 07003KT 3000 HZ NSC 24/15 Q1022,
SBMT,2024-09-09 02:00,69.80,59.00,68.55,100.00,4.00,0.00,30.18,,1.86,,NSC,,,,,,,,HZ,,,,,,,69.80,SBMT 090200Z 10004KT 3000 HZ NSC 21/15 Q1022,
SBMT,2024-09-09 10:00,62.60,59.00,88.00,100.00,1.00,0.00,30.15,,1.86,,NSC,,,,,,,,HZ,,,,,,,62.60,SBMT 091000Z 10001KT 3000 HZ NSC 17/15 Q1021,
SBMT,2024-09-09 11:00,69.80,59.00,68.55,90.00,3.00,0.00,30.18,,2.49,,NSC,,,,,,,,HZ,,,,,,,69.80,SBMT 091100Z 09003KT 4000 HZ NSC 21/15 Q1022,
SBMT,2024-09-09 12:00,75.20,59.00,57.12,,4.00,0.00,30.18,,2.49,,NSC,,,,,,,,HZ,,,,,,,75.20,SBMT 091200Z VRB04KT 4000 HZ NSC 24/15 Q1022,
SBMT,2024-09-09 13:00,80.60,59.00,47.79,,2.00,0.00,30.18,,3.11,,NSC,,,,,,,,HZ,,,,,,,81.11,SBMT 091300Z VRB02KT 5000 HZ NSC 27/15 Q1022,
SBMT,2024-09-09 14:00,84.20,53.60,34.97,50.00,3.00,0.00,30.18,,3.11,,NSC,,,,,,,,HZ,,,,,,,82.76,SBMT 091400Z 05003KT 340V110 5000 HZ NSC 29/12 Q1022,
SBMT,2024-09-09 15:00,87.80,51.80,29.18,,3.00,0.00,30.15,,3.11,,NSC,,,,,,,,HZ,,,,,,,85.39,SBMT 091500Z VRB03KT 5000 HZ NSC 31/11 Q1021,
SBMT,2024-09-09 16:00,91.40,48.20,22.78,,4.00,0.00,30.12,,3.11,,NSC,,,,,,,,HZ,,,,,,,88.09,SBMT 091600Z VRB04KT 5000 HZ NSC 33/09 Q1020,
SBMT,2024-09-09 17:00,91.40,42.80,18.56,100.00,7.00,0.00,30.09,,4.35,,NSC,,,,,,,,,,,,,,,87.52,SBMT 091700Z 10007KT 7000 NSC 33/06 Q1019,
SBMT,2024-09-09 18:00,91.40,44.60,19.89,90.00,6.00,0.00,30.06,,3.73,,NSC,,,,,,,,,,,,,,,87.68,SBMT 091800Z 09006KT 030V160 6000 NSC 33/07 Q1018,
SBMT,2024-09-09 19:00,89.60,41.00,18.33,110.00,8.00,0.00,30.06,,4.35,,NSC,,,,,,,,,,,,,,,85.82,SBMT 091900Z 11008KT 7000 NSC 32/05 Q1018,
SBMT,2024-09-09 20:00,86.00,50.00,28.90,130.00,8.00,0.00,30.06,,5.59,,NSC,,,,,,,,,,,,,,,83.62,SBMT 092000Z 13008KT 9000 NSC 30/10 Q1018,
SBMT,2024-09-09 21:00,84.20,33.80,16.39,120.00,8.00,0.00,30.09,,6.21,,,,,,,,,,,,,,,,,81.30,SBMT 092100Z 12008KT CAVOK 29/01 Q1019,
SBMT,2024-09-09 22:00,82.40,32.00,16.17,80.00,3.00,0.00,30.09,,6.21,,,,,,,,,,,,,,,,,80.00,SBMT 092200Z 08003KT CAVOK 28/00 Q1019,
SBMT,2024-09-09 23:00,78.80,35.60,21.00,90.00,4.00,0.00,30.09,,6.21,,,,,,,,,,,,,,,,,78.80,SBMT 092300Z 09004KT CAVOK 26/02 Q1019,
SBMT,2024-09-10 00:00,69.80,41.00,35.09,0.00,0.00,0.00,30.12,,6.21,,,,,,,,,,,,,,,,,69.80,SBMT 100000Z 00000KT CAVOK 21/05 Q1020,
SBMT,2024-09-10 01:00,68.00,41.00,37.32,0.00,0.00,0.00,30.12,,6.21,,,,,,,,,,,,,,,,,68.00,SBMT 100100Z 00000KT CAVOK 20/05 Q1020,
SBMT,2024-09-10 02:00,66.20,44.60,45.60,0.00,0.00,0.00,30.12,,6.21,,,,,,,,,,,,,,,,,66.20,SBMT 100200Z 00000KT CAVOK 19/07 Q1020,
SBMT,2024-09-10 09:00,57.20,50.00,76.82,0.00,0.00,0.00,30.09,,1.86,,NSC,,,,,,,,HZ,,,,,,,57.20,SBMT 100900Z 00000KT 3000 HZ NSC 14/10 Q1019,
SBMT,2024-09-10 10:00,60.80,50.00,67.54,0.00,0.00,0.00,30.12,,1.86,,NSC,,,,,,,,HZ,,,,,,,60.80,SBMT 101000Z 00000KT 3000 HZ NSC 16/10 Q1020,
SBMT,2024-09-10 11:00,68.00,53.60,59.97,0.00,0.00,0.00,30.12,,2.49,,NSC,,,,,,,,HZ,,,,,,,68.00,SBMT 101100Z 00000KT 4000 HZ NSC 20/12 Q1020,
SBMT,2024-09-10 12:00,73.40,50.00,43.69,90.00,3.00,0.00,30.12,,2.49,,NSC,,,,,,,,HZ,,,,,,,73.40,SBMT 101200Z 09003KT 4000 HZ NSC 23/10 Q1020,
SBMT,2024-09-10 13:00,80.60,50.00,34.41,90.00,3.00,0.00,30.12,,3.73,,NSC,,,,,,,,,,,,,,,79.88,SBMT 101300Z 09003KT 6000 NSC 27/10 Q1020,
SBMT,2024-09-10 14:00,86.00,50.00,28.90,320.00,6.00,0.00,30.12,,4.97,,NSC,,,,,,,,,,,,,,,83.62,SBMT 101400Z 32006KT 8000 NSC 30/10 Q1020,
SBMT,2024-09-10 15:00,86.00,48.20,27.03,290.00,10.00,0.00,30.09,,4.97,,NSC,,,,,,,,,,,,,,,83.40,SBMT 101500Z 29010KT 8000 NSC 30/09 Q1019,
SBMT,2024-09-10 16:00,87.80,46.40,23.85,300.00,10.00,0.00,30.06,,4.97,,NSC,,,,,,,,,,,,,,,84.68,SBMT 101600Z 30010KT 8000 NSC 31/08 Q1018,
SBMT,2024-09-10 17:00,89.60,44.60,21.04,310.00,8.00,0.00,30.00,,4.35,,NSC,,,,,,,,,,,,,,,86.07,SBMT 101700Z 31008KT 270V350 7000 NSC 32/07 Q1016,
SBMT,2024-09-10 18:00,89.60,42.80,19.64,290.00,7.00,0.00,29.97,,4.35,,NSC,,,,,,,,,,,,,,,85.93,SBMT 101800Z 29007KT 250V340 7000 NSC 32/06 Q1015,
SBMT,2024-09-10 19:00,89.60,42.80,19.64,290.00,5.00,0.00,29.97,,4.35,,NSC,,,,,,,,,,,,,,,85.93,SBMT 101900Z 29005KT 7000 NSC 32/06 Q1015,
SBMT,2024-09-10 20:00,86.00,42.80,22.02,350.00,5.00,0.00,29.97,,4.35,,NSC,,,,,,,,,,,,,,,82.95,SBMT 102000Z 35005KT 320V040 7000 NSC 30/06 Q1015,
SBMT,2024-09-10 21:00,84.20,44.60,24.99,,2.00,0.00,30.00,,4.35,,NSC,,,,,,,,,,,,,,,81.73,SBMT 102100Z VRB02KT 7000 NSC 29/07 Q1016,
SBMT,2024-09-10 22:00,77.00,48.20,36.22,0.00,0.00,0.00,30.00,,3.73,,NSC,,,,,,,,,,,,,,,77.00,SBMT 102200Z 00000KT 6000 NSC 25/09 Q1016,
SBMT,2024-09-10 23:00,73.40,51.80,46.71,0.00,0.00,0.00,30.03,,3.73,,NSC,,,,,,,,,,,,,,,73.40,SBMT 102300Z 00000KT 6000 NSC 23/11 Q1017,
SBMT,2024-09-11 00:00,73.40,51.80,46.71,0.00,0.00,0.00,30.03,,3.73,,NSC,,,,,,,,,,,,,,,73.40,SBMT 110000Z 00000KT 6000 NSC 23/11 Q1017,
SBMT,2024-09-11 01:00,69.80,51.80,52.77,0.00,0.00,0.00,30.03,,3.73,,NSC,,,,,,,,,,,,,,,69.80,SBMT 110100Z 00000KT 6000 NSC 21/11 Q1017,
SBMT,2024-09-11 02:00,69.80,51.80,52.77,0.00,0.00,0.00,30.03,,3.73,,NSC,,,,,,,,,,,,,,,69.80,SBMT 110200Z 00000KT 6000 NSC 21/11 Q1017,
SBMT,2024-09-11 09:00,59.00,51.80,76.98,0.00,0.00,0.00,30.03,,2.17,,NSC,,,,,,,,HZ,,,,,,,59.00,SBMT 110900Z 00000KT 3500 HZ NSC 15/11 Q1017,
SBMT,2024-09-11 10:00,60.80,51.80,72.20,0.00,0.00,0.00,30.06,,3.11,,NSC,,,,,,,,HZ,,,,,,,60.80,SBMT 111000Z 00000KT 5000 HZ NSC 16/11 Q1018,
SBMT,2024-09-11 11:00,73.40,53.60,49.90,120.00,2.00,0.00,30.09,,4.97,,NSC,,,,,,,,,,,,,,,73.40,SBMT 111100Z 12002KT 8000 NSC 23/12 Q1019,
SBMT,2024-09-11 12:00,77.00,51.80,41.42,100.00,4.00,0.00,30.12,,4.97,,NSC,,,,,,,,,,,,,,,77.00,SBMT 111200Z 10004KT 8000 NSC 25/11 Q1020,
SBMT,2024-09-11 13:00,80.60,51.80,36.79,90.00,5.00,0.00,30.12,,6.21,,,,,,,,,,,,,,,,,80.08,SBMT 111300Z 09005KT CAVOK 27/11 Q1020,
SBMT,2024-09-11 14:00,86.00,48.20,27.03,360.00,4.00,0.00,30.09,,6.21,,,,,,,,,,,,,,,,,83.40,SBMT 111400Z 36004KT CAVOK 30/09 Q1019,
SBMT,2024-09-11 15:00,87.80,48.20,25.52,30.00,4.00,0.00,30.09,,6.21,,,,,,,,,,,,,,,,,84.87,SBMT 111500Z 03004KT CAVOK 31/09 Q1019,
SBMT,2024-09-11 16:00,89.60,46.40,22.53,20.00,5.00,0.00,30.06,,6.21,,,,,,,,,,,,,,,,,86.24,SBMT 111600Z 02005KT CAVOK 32/08 Q1018,
SBMT,2024-09-11 17:00,89.60,44.60,21.04,0.00,0.00,0.00,30.03,,6.21,,,,,,,,,,,,,,,,,86.07,SBMT 111700Z 00000KT CAVOK 32/07 Q1017,
SBMT,2024-09-11 18:00,89.60,46.40,22.53,30.00,6.00,0.00,30.00,,6.21,,,,,,,,,,,,,,,,,86.24,SBMT 111800Z 03006KT CAVOK 32/08 Q1016,
SBMT,2024-09-11 19:00,87.80,46.40,23.85,10.00,4.00,0.00,30.00,,6.21,,,,,,,,,,,,,,,,,84.68,SBMT 111900Z 01004KT CAVOK 31/08 Q1016,
SBMT,2024-09-11 20:00,87.80,44.60,22.27,320.00,4.00,0.00,30.00,,6.21,,,,,,,,,,,,,,,,,84.53,SBMT 112000Z 32004KT CAVOK 31/07 Q1016,
SBMT,2024-09-11 21:00,82.40,48.20,30.35,260.00,3.00,0.00,30.00,,6.21,,,,,,,,,,,,,,,,,80.80,SBMT 112100Z 26003KT CAVOK 28/09 Q1016,
SBMT,2024-09-11 22:00,82.40,48.20,30.35,50.00,4.00,0.00,30.03,,6.21,,,,,,,,,,,,,,,,,80.80,SBMT 112200Z 05004KT CAVOK 28/09 Q1017,
SBMT,2024-09-11 23:00,78.80,48.20,34.13,60.00,2.00,0.00,30.06,,6.21,,,,,,,,,,,,,,,,,78.80,SBMT 112300Z 06002KT CAVOK 26/09 Q1018,
SBMT,2024-09-12 00:00,73.40,50.00,43.69,150.00,2.00,0.00,30.06,,6.21,,,,,,,,,,,,,,,,,73.40,SBMT 120000Z 15002KT CAVOK 23/10 Q1018,
SBMT,2024-09-12 01:00,69.80,51.80,52.77,80.00,2.00,0.00,30.06,,6.21,,,,,,,,,,,,,,,,,69.80,SBMT 120100Z 08002KT CAVOK 21/11 Q1018,
SBMT,2024-09-12 02:00,68.00,51.80,56.13,70.00,2.00,0.00,30.06,,6.21,,,,,,,,,,,,,,,,,68.00,SBMT 120200Z 07002KT CAVOK 20/11 Q1018,
SBMT,2024-09-12 09:00,59.00,51.80,76.98,0.00,0.00,0.00,30.09,,3.11,,NSC,,,,,,,,HZ,,,,,,,59.00,SBMT 120900Z 00000KT 5000 HZ NSC 15/11 Q1019,
SBMT,2024-09-12 10:00,60.80,51.80,72.20,100.00,2.00,0.00,30.12,,3.73,,NSC,,,,,,,,,,,,,,,60.80,SBMT 121000Z 10002KT 6000 NSC 16/11 Q1020,
SBMT,2024-09-12 11:00,71.60,51.80,49.64,90.00,5.00,0.00,30.15,,3.73,,NSC,,,,,,,,,,,,,,,71.60,SBMT 121100Z 09005KT 6000 NSC 22/11 Q1021,
SBMT,2024-09-12 12:00,77.00,50.00,38.74,110.00,4.00,0.00,30.15,,3.73,,NSC,,,,,,,,,,,,,,,77.00,SBMT 121200Z 11004KT 020V150 6000 NSC 25/10 Q1021,
SBMT,2024-09-12 13:00,82.40,44.60,26.49,,4.00,0.00,30.12,,3.73,,NSC,,,,,,,,,,,,,,,80.50,SBMT 121300Z VRB04KT 6000 NSC 28/07 Q1020,
SBMT,2024-09-12 14:00,86.00,44.60,23.59,350.00,6.00,0.00,30.09,,4.97,,NSC,,,,,,,,,,,,,,,83.07,SBMT 121400Z 35006KT 250V050 8000 NSC 30/07 Q1019,
SBMT,2024-09-12 15:00,87.80,44.60,22.27,330.00,9.00,0.00,30.09,,6.21,,,,,,,,,,,,,,,,,84.53,SBMT 121500Z 33009KT 290V050 CAVOK 31/07 Q1019,
SBMT,2024-09-12 16:00,89.60,42.80,19.64,350.00,8.00,0.00,30.06,,6.21,,,,,,,,,,,,,,,,,85.93,SBMT 121600Z 35008KT 280V070 CAVOK 32/06 Q1018,
SBMT,2024-09-12 17:00,89.60,42.80,19.64,290.00,10.00,0.00,30.03,,6.21,,,,,,,,,,,,,,,,,85.93,SBMT 121700Z 29010KT CAVOK 32/06 Q1017,
SBMT,2024-09-12 18:00,89.60,37.40,15.92,300.00,7.00,0.00,30.00,,6.21,,,,,,,,,,,,,,,,,85.67,SBMT 121800Z 30007KT CAVOK 32/03 Q1016,
SBMT,2024-09-12 19:00,89.60,37.40,15.92,280.00,6.00,0.00,30.00,,6.21,,,,,,,,,,,,,,,,,85.67,SBMT 121900Z 28006KT CAVOK 32/03 Q1016,
SBMT,2024-09-12 20:00,87.80,37.40,16.86,280.00,5.00,0.00,30.00,,6.21,,,,,,,,,,,,,,,,,84.16,SBMT 122000Z 28005KT CAVOK 31/03 Q1016,
SBMT,2024-09-12 21:00,82.40,42.80,24.72,260.00,4.00,0.00,30.00,,6.21,,,,,,,,,,,,,,,,,80.39,SBMT 122100Z 26004KT CAVOK 28/06 Q1016,
SBMT,2024-09-12 22:00,77.00,44.60,31.62,0.00,0.00,0.00,30.03,,6.21,,,,,,,,,,,,,,,,,77.00,SBMT 122200Z 00000KT CAVOK 25/07 Q1017,
SBMT,2024-09-12 23:00,80.60,42.80,26.22,360.00,2.00,0.00,30.03,,6.21,,,,,,,,,,,,,,,,,79.30,SBMT 122300Z 36002KT CAVOK 27/06 Q1017,
SBMT,2024-09-13 00:00,71.60,48.20,43.42,0.00,0.00,0.00,30.03,,6.21,,,,,,,,,,,,,,,,,71.60,SBMT 130000Z 00000KT CAVOK 22/09 Q1017,
SBMT,2024-09-13 01:00,69.80,46.40,43.13,0.00,0.00,0.00,30.06,,6.21,,,,,,,,,,,,,,,,,69.80,SBMT 130100Z 00000KT CAVOK 21/08 Q1018,
SBMT,2024-09-13 02:00,68.00,48.20,49.10,0.00,0.00,0.00,30.06,,6.21,,,,,,,,,,,,,,,,,68.00,SBMT 130200Z 00000KT CAVOK 20/09 Q1018,
SBMT,2024-09-13 09:00,60.80,50.00,67.54,0.00,0.00,0.00,30.06,,3.11,,NSC,,,,,,,,HZ,,,,,,,60.80,SBMT 130900Z 00000KT 5000 HZ NSC 16/10 Q1018,
SBMT,2024-09-13 10:00,62.60,50.00,63.38,130.00,3.00,0.00,30.09,,3.11,,NSC,,,,,,,,HZ,,,,,,,62.60,SBMT 131000Z 13003KT 5000 HZ NSC 17/10 Q1019,
SBMT,2024-09-13 11:00,69.80,51.80,52.77,100.00,4.00,0.00,30.12,,3.11,,NSC,,,,,,,,HZ,,,,,,,69.80,SBMT 131100Z 10004KT 5000 HZ NSC 21/11 Q1020,
SBMT,2024-09-13 12:00,75.20,50.00,41.14,110.00,5.00,0.00,30.12,,3.11,,NSC,,,,,,,,HZ,,,,,,,75.20,SBMT 131200Z 11005KT 070V140 5000 HZ NSC 24/10 Q1020,
SBMT,2024-09-13 13:00,80.60,48.20,32.18,80.00,6.00,0.00,30.12,,3.11,,NSC,,,,,,,,HZ,,,,,,,79.71,SBMT 131300Z 08006KT 350V130 5000 HZ NSC 27/09 Q1020,
SBMT,2024-09-13 14:00,84.20,48.20,28.63,,4.00,0.00,30.09,,3.73,,NSC,,,,,,,,,,,,,,,82.04,SBMT 131400Z VRB04KT 6000 NSC 29/09 Q1019,
SBMT,2024-09-13 15:00,87.80,48.20,25.52,340.00,6.00,0.00,30.06,,5.59,,NSC,,,,,,,,,,,,,,,84.87,SBMT 131500Z 34006KT 230V020 9000 NSC 31/09 Q1018,
SBMT,2024-09-13 16:00,89.60,48.20,24.11,340.00,5.00,0.00,30.03,,6.21,,,,,,,,,,,,,,,,,86.44,SBMT 131600Z 34005KT 280V050 CAVOK 32/09 Q1017,
SBMT,2024-09-13 17:00,89.60,42.80,19.64,10.00,3.00,0.00,30.00,,6.21,,,,,,,,,,,,,,,,,85.93,SBMT 131700Z 01003KT CAVOK 32/06 Q1016,
SBMT,2024-09-13 18:00,89.60,44.60,21.04,40.00,3.00,0.00,29.97,,6.21,,,,,,,,,,,,,,,,,86.07,SBMT 131800Z 04003KT CAVOK 32/07 Q1015,
SBMT,2024-09-13 19:00,89.60,42.80,19.64,330.00,5.00,0.00,29.97,,6.21,,,,,,,,,,,,,,,,,85.93,SBMT 131900Z 33005KT CAVOK 32/06 Q1015,
SBMT,2024-09-13 20:00,87.80,42.80,20.79,10.00,5.00,0.00,29.97,,6.21,,,,,,,,,,,,,,,,,84.40,SBMT 132000Z 01005KT CAVOK 31/06 Q1015,
SBMT,2024-09-13 21:00,86.00,42.80,22.02,30.00,2.00,0.00,29.97,,6.21,,,,,,,,,,,,,,,,,82.95,SBMT 132100Z 03002KT CAVOK 30/06 Q1015,
SBMT,2024-09-13 22:00,82.40,44.60,26.49,360.00,3.00,0.00,30.00,,6.21,,,,,,,,,,,,,,,,,80.50,SBMT 132200Z 36003KT CAVOK 28/07 Q1016,
SBMT,2024-09-13 23:00,82.40,42.80,24.72,10.00,4.00,0.00,30.00,,6.21,,,,,,,,,,,,,,,,,80.39,SBMT 132300Z 01004KT CAVOK 28/06 Q1016,
SBMT,2024-09-14 00:00,80.60,42.80,26.22,30.00,2.00,0.00,30.00,,6.21,,,,,,,,,,,,,,,,,79.30,SBMT 140000Z 03002KT CAVOK 27/06 Q1016,
SBMT,2024-09-14 01:00,71.60,46.40,40.57,0.00,0.00,0.00,30.00,,6.21,,,,,,,,,,,,,,,,,71.60,SBMT 140100Z 00000KT CAVOK 22/08 Q1016,
SBMT,2024-09-14 02:00,69.80,46.40,43.13,0.00,0.00,0.00,30.00,,6.21,,,,,,,,,,,,,,,,,69.80,SBMT 140200Z 00000KT CAVOK 21/08 Q1016,
SBMT,2024-09-14 09:00,68.00,50.00,52.51,100.00,4.00,0.00,30.03,,4.35,,NSC,,,,,,,,,,,,,,,68.00,SBMT 140900Z 10004KT 7000 NSC 20/10 Q1017,
SBMT,2024-09-14 10:00,62.60,51.80,67.75,,2.00,0.00,30.03,,4.35,,NSC,,,,,,,,,,,,,,,62.60,SBMT 141000Z VRB02KT 7000 NSC 17/11 Q1017,
SBMT,2024-09-14 11:00,73.40,50.00,43.69,110.00,4.00,0.00,30.09,,5.59,,NSC,,,,,,,,,,,,,,,73.40,SBMT 141100Z 11004KT 060V160 9000 NSC 23/10 Q1019,
SBMT,2024-09-14 12:00,75.20,55.40,50.17,140.00,6.00,0.00,30.12,,6.21,,,,,,,,,,,,,,,,,75.20,SBMT 141200Z 14006KT 090V190 CAVOK 24/13 Q1020,
SBMT,2024-09-14 13:00,73.40,57.20,56.88,170.00,6.00,0.00,30.12,,6.21,,,,,,,,,,,,,,,,,73.40,SBMT 141300Z 17006KT 130V210 CAVOK 23/14 Q1020,
SBMT,2024-09-14 14:00,78.80,55.40,44.52,150.00,5.00,0.00,30.12,,6.21,,,,,,,,,,,,,,,,,78.80,SBMT 141400Z 15005KT 060V230 CAVOK 26/13 Q1020,
SBMT,2024-09-14 15:00,80.60,55.40,41.97,160.00,8.00,0.00,30.09,,6.21,,,,,,,,,,,,,,,,,80.53,SBMT 141500Z 16008KT 100V220 CAVOK 27/13 Q1019,
SBMT,2024-09-14 16:00,80.60,53.60,39.30,190.00,5.00,0.00,30.06,,6.21,,,,,,,,,,,,,,,,,80.29,SBMT 141600Z 19005KT 120V270 CAVOK 27/12 Q1018,
SBMT,2024-09-14 17:00,82.40,55.40,39.58,210.00,6.00,0.00,30.06,,6.21,,,,,,,,,,,,,,,,,81.75,SBMT 141700Z 21006KT CAVOK 28/13 Q1018,
SBMT,2024-09-14 18:00,82.40,53.60,37.07,140.00,2.00,0.00,30.03,,6.21,,,,,,,,,,,,,,,,,81.46,SBMT 141800Z 14002KT CAVOK 28/12 Q1017,
SBMT,2024-09-14 19:00,80.60,57.20,44.80,120.00,8.00,0.00,30.03,,6.21,,,,,,,,,,,,,,,,,80.81,SBMT 141900Z 12008KT CAVOK 27/14 Q1017,
SBMT,2024-09-14 20:00,77.00,55.40,47.25,110.00,9.00,0.00,30.03,,6.21,,,,,,,,,,,,,,,,,77.00,SBMT 142000Z 11009KT CAVOK 25/13 Q1017,
SBMT,2024-09-14 21:00,77.00,53.60,44.25,100.00,10.00,0.00,30.06,,6.21,,,,,,,,,,,,,,,,,77.00,SBMT 142100Z 10010KT CAVOK 25/12 Q1018,
SBMT,2024-09-14 22:00,75.20,53.60,46.98,110.00,10.00,0.00,30.12,,6.21,,,,,,,,,,,,,,,,,75.20,SBMT 142200Z 11010KT CAVOK 24/12 Q1020,
SBMT,2024-09-14 23:00,73.40,53.60,49.90,130.00,11.00,0.00,30.12,,6.21,,,,,,,,,,,,,,,,,73.40,SBMT 142300Z 13011KT CAVOK 23/12 Q1020,
SBMT,2024-09-15 00:00,71.60,55.40,56.63,110.00,9.00,0.00,30.15,,6.21,,,,,,,,,,,,,,,,,71.60,SBMT 150000Z 11009KT CAVOK 22/13 Q1021,
SBMT,2024-09-15 01:00,69.80,55.40,60.21,120.00,8.00,0.00,30.15,,6.21,,,,,,,,,,,,,,,,,69.80,SBMT 150100Z 12008KT CAVOK 21/13 Q1021,
SBMT,2024-09-15 02:00,69.80,57.20,64.26,140.00,9.00,0.00,30.18,,6.21,,FEW,,,,3300.00,,,,,,,,,,,69.80,SBMT 150200Z 14009KT 9999 FEW033 21/14 Q1022,
SBMT,2024-09-15 09:00,64.40,59.00,82.62,150.00,9.00,0.00,30.18,,4.97,,BKN,,,,1200.00,,,,,,,,,,,64.40,SBMT 150900Z 15009KT 8000 BKN012 18/15 Q1022,
SBMT,2024-09-15 10:00,64.40,57.20,77.45,130.00,10.00,0.00,30.18,,6.21,,BKN,,,,1300.00,,,,,,,,,,,64.40,SBMT 151000Z 13010KT 9999 BKN013 18/14 Q1022,
SBMT,2024-09-15 11:00,64.40,57.20,77.45,130.00,10.00,0.00,30.21,,6.21,,BKN,,,,1500.00,,,,,,,,,,,64.40,SBMT 151100Z 13010KT 9999 BKN015 18/14 Q1023,
SBMT,2024-09-15 12:00,64.40,57.20,77.45,130.00,10.00,0.00,30.24,,6.21,,BKN,,,,1300.00,,,,,,,,,,,64.40,SBMT 151200Z 13010KT 9999 BKN013 18/14 Q1024,
SBMT,2024-09-15 13:00,64.40,57.20,77.45,120.00,11.00,0.00,30.24,,6.21,,BKN,,,,1500.00,,,,,,,,,,,64.40,SBMT 151300Z 12011KT 9999 BKN015 18/14 Q1024,
SBMT,2024-09-15 14:00,66.20,57.20,72.74,130.00,10.00,0.00,30.21,,6.21,,BKN,,,,1500.00,,,,,,,,,,,66.20,SBMT 151400Z 13010KT 9999 BKN015 19/14 Q1023,
SBMT,2024-09-15 15:00,68.00,57.20,68.35,140.00,8.00,0.00,30.18,,6.21,,BKN,,,,1700.00,,,,,,,,,,,68.00,SBMT 151500Z 14008KT 9999 BKN017 20/14 Q1022,
SBMT,2024-09-15 16:00,69.80,57.20,64.26,130.00,9.00,0.00,30.15,,6.21,,BKN,,,,2000.00,,,,,,,,,,,69.80,SBMT 151600Z 13009KT 9999 BKN020 21/14 Q1021,
SBMT,2024-09-15 17:00,69.80,59.00,68.55,130.00,10.00,0.00,30.09,,6.21,,BKN,,,,2300.00,,,,,,,,,,,69.80,SBMT 151700Z 13010KT 9999 BKN023 21/15 Q1019,
SBMT,2024-09-15 18:00,68.00,59.00,72.92,160.00,9.00,0.00,30.09,,6.21,,BKN,,,,2000.00,,,,,,,,,,,68.00,SBMT 151800Z 16009KT 100V190 9999 BKN020 20/15 Q1019,
SBMT,2024-09-15 19:00,64.40,59.00,82.62,150.00,10.00,0.00,30.09,,6.21,,BKN,,,,1300.00,,,,,,,,,,,64.40,SBMT 151900Z 15010KT 9999 BKN013 18/15 Q1019,
SBMT,2024-09-15 20:00,64.40,60.80,88.09,140.00,10.00,0.00,30.12,,6.21,,OVC,,,,1300.00,,,,,,,,,,,64.40,SBMT 152000Z 14010KT 9999 OVC013 18/16 Q1020,
SBMT,2024-09-15 21:00,64.40,60.80,88.09,140.00,9.00,0.00,30.12,,6.21,,OVC,,,,1100.00,,,,,,,,,,,64.40,SBMT 152100Z 14009KT 9999 OVC011 18/16 Q1020,
SBMT,2024-09-15 22:00,64.40,60.80,88.09,140.00,8.00,0.00,30.15,,6.21,,OVC,,,,900.00,,,,,,,,,,,64.40,SBMT 152200Z 14008KT 9999 OVC009 18/16 Q1021,
SBMT,2024-09-15 23:00,62.60,60.80,93.83,170.00,7.00,0.00,30.18,,4.35,,BKN,,,,800.00,,,,-DZ,,,,,,,62.60,SBMT 152300Z 17007KT 130V200 7000 -DZ BKN008 17/16 Q1022,
SBMT,2024-09-16 00:00,64.40,60.80,88.09,150.00,7.00,0.00,30.18,,4.97,,OVC,,,,900.00,,,,,,,,,,,64.40,SBMT 160000Z 15007KT 8000 OVC009 18/16 Q1022,
SBMT,2024-09-16 01:00,64.40,60.80,88.09,150.00,6.00,0.00,30.18,,6.21,,OVC,,,,1000.00,,,,,,,,,,,64.40,SBMT 160100Z 15006KT 9999 OVC010 18/16 Q1022,
SBMT,2024-09-16 02:00,64.40,60.80,88.09,160.00,6.00,0.00,30.18,,6.21,,BKN,,,,1100.00,,,,,,,,,,,64.40,SBMT 160200Z 16006KT 9999 BKN011 18/16 Q1022,
SBMT,2024-09-16 09:00,60.80,59.00,93.79,270.00,4.00,0.00,30.15,,5.59,,OVC,,,,900.00,,,,-RA,,,,,,,60.80,SBMT 160900Z 27004KT 9000 -RA OVC009 16/15 Q1021,
SBMT,2024-09-16 10:00,60.80,59.00,93.79,270.00,5.00,0.00,30.18,,3.73,,OVC,,,,900.00,,,,-RA,,,,,,,60.80,SBMT 161000Z 27005KT 6000 -RA OVC009 16/15 Q1022,
SBMT,2024-09-16 11:00,60.80,59.00,93.79,270.00,6.00,0.00,30.21,,4.35,,OVC,,,,1000.00,,,,-RA,,,,,,,60.80,SBMT 161100Z 27006KT 7000 -RA OVC010 16/15 Q1023,
SBMT,2024-09-16 12:00,60.80,59.00,93.79,280.00,3.00,0.00,30.21,,5.59,,OVC,,,,900.00,,,,-RA,,,,,,,60.80,SBMT 161200Z 28003KT 9000 -RA OVC009 16/15 Q1023,
SBMT,2024-09-16 13:00,60.80,59.00,93.79,150.00,5.00,0.00,30.18,,6.21,,FEW,BKN,,,900.00,1300.00,,,,,,,,,,60.80,SBMT 161300Z 15005KT 9999 FEW009 BKN013 16/15 Q1022,
SBMT,2024-09-16 14:00,60.80,57.20,87.92,140.00,5.00,0.00,30.21,,6.21,,OVC,,,,1300.00,,,,,,,,,,,60.80,SBMT 161400Z 14005KT 9999 OVC013 16/14 Q1023,
SBMT,2024-09-16 15:00,60.80,59.00,93.79,150.00,4.00,0.00,30.18,,6.21,,BKN,OVC,,,1100.00,1300.00,,,,,,,,,,60.80,SBMT 161500Z 15004KT 9999 BKN011 OVC013 16/15 Q1022,
SBMT,2024-09-16 16:00,62.60,57.20,82.50,180.00,8.00,0.00,30.18,,6.21,,BKN,OVC,,,1300.00,2200.00,,,,,,,,,,62.60,SBMT 161600Z 18008KT 9999 BKN013 OVC022 17/14 Q1022,
SBMT,2024-09-16 17:00,60.80,57.20,87.92,160.00,5.00,0.00,30.18,,6.21,,BKN,OVC,,,1300.00,2000.00,,,,,,,,,,60.80,SBMT 161700Z 16005KT 9999 BKN013 OVC020 16/14 Q1022,
SBMT,2024-09-16 18:00,60.80,57.20,87.92,170.00,6.00,0.00,30.18,,6.21,,SCT,BKN,OVC,,1200.00,1500.00,2200.00,,,,,,,,,60.80,SBMT 161800Z 17006KT 9999 SCT012 BKN015 OVC022 16/14 Q1022,
SBMT,2024-09-16 19:00,60.80,55.40,82.37,160.00,8.00,0.00,30.18,,4.97,,BKN,BKN,OVC,,1100.00,1500.00,2000.00,,,,,,,,,60.80,SBMT 161900Z 16008KT 120V200 8000 BKN011 BKN015 OVC020 16/13 Q1022,
SBMT,2024-09-16 20:00,59.00,55.40,87.83,160.00,7.00,0.00,30.21,,4.97,,BKN,BKN,OVC,,1200.00,1500.00,2000.00,,,,,,,,,59.00,SBMT 162000Z 16007KT 110V190 8000 BKN012 BKN015 OVC020 15/13 Q1023,
SBMT,2024-09-16 21:00,59.00,55.40,87.83,150.00,4.00,0.00,30.24,,4.97,,BKN,OVC,,,1000.00,2000.00,,,,,,,,,,59.00,SBMT 162100Z 15004KT 8000 BKN010 OVC020 15/13 Q1024,
SBMT,2024-09-16 22:00,59.00,57.20,93.74,140.00,5.00,0.00,30.24,,4.97,,BKN,OVC,,,900.00,1300.00,,,,,,,,,,59.00,SBMT 162200Z 14005KT 100V170 8000 BKN009 OVC013 15/14 Q1024,
SBMT,2024-09-16 23:00,59.00,55.40,87.83,140.00,4.00,0.00,30.24,,6.21,,BKN,OVC,,,1000.00,1300.00,,,,,,,,,,59.00,SBMT 162300Z 14004KT 9999 BKN010 OVC013 15/13 Q1024,
SBMT,2024-09-17 00:00,59.00,55.40,87.83,140.00,5.00,0.00,30.27,,6.21,,BKN,OVC,,,1000.00,1300.00,,,,,,,,,,59.00,SBMT 170000Z 14005KT 9999 BKN010 OVC013 15/13 Q1025,
SBMT,2024-09-17 01:00,59.00,55.40,87.83,150.00,6.00,0.00,30.27,,6.21,,BKN,OVC,,,1000.00,1500.00,,,,,,,,,,59.00,SBMT 170100Z 15006KT 9999 BKN010 OVC015 15/13 Q1025,
SBMT,2024-09-17 02:00,57.20,57.20,100.00,130.00,4.00,0.00,30.27,,6.21,,BKN,OVC,,,1000.00,1500.00,,,,,,,,,,57.20,SBMT 170200Z 13004KT 9999 BKN010 OVC015 14/14 Q1025,
SBMT,2024-09-17 09:00,57.20,55.40,93.69,100.00,5.00,0.00,30.21,,2.49,,BKN,BKN,,,800.00,1500.00,,,-DZ,,,,,,,57.20,SBMT 170900Z 10005KT 4000 -DZ BKN008 BKN015 14/13 Q1023,
SBMT,2024-09-17 10:00,59.00,53.60,82.25,130.00,7.00,0.00,30.24,,3.11,,BKN,,,,900.00,,,,BR,,,,,,,59.00,SBMT 171000Z 13007KT 5000 BR BKN009 15/12 Q1024,
SBMT,2024-09-17 11:00,59.00,55.40,87.83,140.00,7.00,0.00,30.24,,2.49,,BKN,,,,800.00,,,,-DZ,,,,,,,59.00,SBMT 171100Z 14007KT 4000 -DZ BKN008 15/13 Q1024,
SBMT,2024-09-17 12:00,60.80,55.40,82.37,140.00,8.00,0.00,30.27,,3.11,,BKN,,,,1200.00,,,,BR,,,,,,,60.80,SBMT 171200Z 14008KT 5000 BR BKN012 16/13 Q1025,
SBMT,2024-09-17 13:00,59.00,53.60,82.25,130.00,13.00,0.00,30.27,,1.86,,BKN,,,,1000.00,,,,-DZ,,,,,,,59.00,SBMT 171300Z 13013KT 3000 -DZ BKN010 15/12 Q1025,
SBMT,2024-09-17 14:00,60.80,53.60,77.14,110.00,12.00,0.00,30.27,,3.73,,BKN,BKN,,,1500.00,3000.00,,,,,,,,,,60.80,SBMT 171400Z 11012KT 6000 BKN015 BKN030 16/12 Q1025,
SBMT,2024-09-17 15:00,62.60,55.40,77.29,160.00,10.00,0.00,30.27,,6.21,,SCT,,,,2000.00,,,,,,,,,,,62.60,SBMT 171500Z 16010KT 9999 SCT020 17/13 Q1025,
SBMT,2024-09-17 16:00,62.60,51.80,67.75,130.00,11.00,0.00,30.24,,6.21,,BKN,,,,2000.00,,,,,,,,,,,62.60,SBMT 171600Z 13011KT 9999 BKN020 17/11 Q1024,
SBMT,2024-09-17 17:00,62.60,53.60,72.38,130.00,9.00,0.00,30.21,,6.21,,BKN,,,,2000.00,,,,,,,,,,,62.60,SBMT 171700Z 13009KT 100V170 9999 BKN020 17/12 Q1023,
SBMT,2024-09-17 18:00,60.80,53.60,77.14,150.00,10.00,0.00,30.21,,6.21,,BKN,BKN,,,1700.00,2000.00,,,,,,,,,,60.80,SBMT 171800Z 15010KT 110V190 9999 BKN017 BKN020 16/12 Q1023,
SBMT,2024-09-17 19:00,60.80,53.60,77.14,,2.00,0.00,30.21,,6.21,,SCT,BKN,,,1700.00,2000.00,,,,,,,,,,60.80,SBMT 171900Z VRB02KT 9999 SCT017 BKN020 16/12 Q1023,
SBMT,2024-09-17 20:00,60.80,53.60,77.14,130.00,11.00,0.00,30.21,,6.21,,SCT,BKN,,,1700.00,2000.00,,,,,,,,,,60.80,SBMT 172000Z 13011KT 9999 SCT017 BKN020 16/12 Q1023,
SBMT,2024-09-17 21:00,59.00,53.60,82.25,130.00,13.00,0.00,30.21,,6.21,,BKN,BKN,,,1500.00,2000.00,,,,,,,,,,59.00,SBMT 172100Z 13013KT 9999 BKN015 BKN020 15/12 Q1023,
SBMT,2024-09-17 22:00,59.00,53.60,82.25,130.00,14.00,0.00,30.21,,6.21,,BKN,BKN,,,1500.00,2000.00,,,,,,,,,,59.00,SBMT 172200Z 13014KT 9999 BKN015 BKN020 15/12 Q1023,
SBMT,2024-09-17 23:00,59.00,53.60,82.25,120.00,10.00,0.00,30.21,,6.21,,SCT,BKN,,,1300.00,1500.00,,,,,,,,,,59.00,SBMT 172300Z 12010KT 9999 SCT013 BKN015 15/12 Q1023,
SBMT,2024-09-18 00:00,59.00,53.60,82.25,110.00,12.00,0.00,30.24,,6.21,,SCT,BKN,,,1300.00,1500.00,,,,,,,,,,59.00,SBMT 180000Z 11012KT 9999 SCT013 BKN015 15/12 Q1024,
SBMT,2024-09-18 01:00,59.00,53.60,82.25,110.00,11.00,0.00,30.24,,6.21,,SCT,BKN,,,1300.00,1500.00,,,,,,,,,,59.00,SBMT 180100Z 11011KT 9999 SCT013 BKN015 15/12 Q1024,
SBMT,2024-09-18 02:00,59.00,53.60,82.25,110.00,13.00,0.00,30.24,,6.21,,SCT,BKN,,,1300.00,1500.00,,,,,,,,,,59.00,SBMT 180200Z 11013KT 9999 SCT013 BKN015 15/12 Q1024,
SBMT,2024-09-18 09:00,59.00,51.80,76.98,90.00,10.00,0.00,30.15,,6.21,,BKN,,,,1500.00,,,,,,,,,,,59.00,SBMT 180900Z 09010KT 9999 BKN015 15/11 Q1021,
SBMT,2024-09-18 10:00,59.00,51.80,76.98,80.00,10.00,0.00,30.18,,6.21,,BKN,,,,1500.00,,,,,,,,,,,59.00,SBMT 181000Z 08010KT 9999 BKN015 15/11 Q1022,
SBMT,2024-09-18 11:00,60.80,51.80,72.20,90.00,14.00,0.00,30.18,,6.21,,BKN,,,,1500.00,,,,,,,,,,,60.80,SBMT 181100Z 09014KT 9999 BKN015 16/11 Q1022,
SBMT,2024-09-18 12:00,62.60,53.60,72.38,80.00,11.00,0.00,30.21,,6.21,,BKN,,,,1500.00,,,,,,,,,,,62.60,SBMT 181200Z 08011KT 9999 BKN015 17/12 Q1023,
SBMT,2024-09-18 13:00,64.40,53.60,67.95,100.00,9.00,0.00,30.24,,6.21,,BKN,,,,2000.00,,,,,,,,,,,64.40,SBMT 181300Z 10009KT 9999 BKN020 18/12 Q1024,
SBMT,2024-09-18 14:00,66.20,53.60,63.82,190.00,2.00,0.00,30.24,,6.21,,BKN,,,,2000.00,,,,,,,,,,,66.20,SBMT 181400Z 19002KT 9999 BKN020 19/12 Q1024,
SBMT,2024-09-18 15:00,62.60,55.40,77.29,160.00,4.00,0.00,30.24,,6.21,,SCT,BKN,,,1500.00,2500.00,,,,,,,,,,62.60,SBMT 181500Z 16004KT 9999 SCT015 BKN025 17/13 Q1024,
SBMT,2024-09-18 16:00,66.20,53.60,63.82,100.00,4.00,0.00,30.18,,6.21,,,,,,,,,,,,,,,,,66.20,SBMT 181600Z 10004KT CAVOK 19/12 Q1022,
SBMT,2024-09-18 17:00,68.00,55.40,64.04,50.00,7.00,0.00,30.12,,6.21,,,,,,,,,,,,,,,,,68.00,SBMT 181700Z 05007KT CAVOK 20/13 Q1020,
SBMT,2024-09-18 18:00,68.00,57.20,68.35,90.00,6.00,0.00,30.09,,6.21,,FEW,,,,3300.00,,,,,,,,,,,68.00,SBMT 181800Z 09006KT 9999 FEW033 20/14 Q1019,
SBMT,2024-09-18 19:00,69.80,57.20,64.26,80.00,8.00,0.00,30.09,,6.21,,FEW,SCT,,,4900.00,10000.00,,,,,,,,,,69.80,SBMT 181900Z 08008KT 040V120 9999 FEW049 SCT100 21/14 Q1019,
SBMT,2024-09-18 20:00,69.80,57.20,64.26,110.00,4.00,0.00,30.09,,6.21,,,,,,,,,,,,,,,,,69.80,SBMT 182000Z 11004KT CAVOK 21/14 Q1019,
SBMT,2024-09-18 21:00,62.60,59.00,88.00,170.00,8.00,0.00,30.12,,6.21,,FEW,,,,1100.00,,,,,,,,,,,62.60,SBMT 182100Z 17008KT 9999 FEW011 17/15 Q1020,
SBMT,2024-09-18 22:00,62.60,59.00,88.00,150.00,4.00,0.00,30.12,,4.35,,OVC,,,,900.00,,,,,,,,,,,62.60,SBMT 182200Z 15004KT 7000 OVC009 17/15 Q1020,
SBMT,2024-09-18 23:00,62.60,59.00,88.00,110.00,6.00,0.00,30.15,,4.35,,OVC,,,,900.00,,,,,,,,,,,62.60,SBMT 182300Z 11006KT 7000 OVC009 17/15 Q1021,
SBMT,2024-09-19 00:00,62.60,59.00,88.00,110.00,6.00,0.00,30.15,,3.73,,OVC,,,,900.00,,,,,,,,,,,62.60,SBMT 190000Z 11006KT 6000 OVC009 17/15 Q1021,
SBMT,2024-09-19 01:00,62.60,59.00,88.00,110.00,5.00,0.00,30.15,,3.73,,BKN,,,,1100.00,,,,,,,,,,,62.60,SBMT 190100Z 11005KT 6000 BKN011 17/15 Q1021,
SBMT,2024-09-19 02:00,62.60,59.00,88.00,110.00,6.00,0.00,30.15,,4.97,,OVC,,,,1100.00,,,,,,,,,,,62.60,SBMT 190200Z 11006KT 8000 OVC011 17/15 Q1021,
SBMT,2024-09-19 09:00,60.80,57.20,87.92,100.00,8.00,0.00,30.06,,1.86,,OVC,,,,800.00,,,,BR,,,,,,,60.80,SBMT 190900Z 10008KT 3000 BR OVC008 16/14 Q1018,
SBMT,2024-09-19 10:00,60.80,57.20,87.92,70.00,7.00,0.00,30.09,,2.49,,OVC,,,,800.00,,,,BR,,,,,,,60.80,SBMT 191000Z 07007KT 4000 BR OVC008 16/14 Q1019,
SBMT,2024-09-19 11:00,62.60,59.00,88.00,60.00,5.00,0.00,30.12,,4.35,,OVC,,,,900.00,,,,,,,,,,,62.60,SBMT 191100Z 06005KT 7000 OVC009 17/15 Q1020,
SBMT,2024-09-19 12:00,64.40,59.00,82.62,60.00,7.00,0.00,30.12,,4.97,,BKN,,,,1100.00,,,,,,,,,,,64.40,SBMT 191200Z 06007KT 8000 BKN011 18/15 Q1020,
SBMT,2024-09-19 13:00,68.00,59.00,72.92,100.00,4.00,0.00,30.12,,4.97,,NSC,,,,,,,,,,,,,,,68.00,SBMT 191300Z 10004KT 8000 NSC 20/15 Q1020,
SBMT,2024-09-19 14:00,68.00,59.00,72.92,150.00,4.00,0.00,30.12,,4.97,,NSC,,,,,,,,,,,,,,,68.00,SBMT 191400Z 15004KT 8000 NSC 20/15 Q1020,
SBMT,2024-09-19 15:00,69.80,59.00,68.55,60.00,6.00,0.00,30.09,,4.97,,NSC,,,,,,,,,,,,,,,69.80,SBMT 191500Z 06006KT 8000 NSC 21/15 Q1019,
SBMT,2024-09-19 16:00,73.40,59.00,60.67,150.00,5.00,0.00,30.09,,4.35,,NSC,,,,,,,,,,,,,,,73.40,SBMT 191600Z 15005KT 7000 NSC 23/15 Q1019,
SBMT,2024-09-19 17:00,75.20,59.00,57.12,240.00,4.00,0.00,30.03,,4.35,,NSC,,,,,,,,,,,,,,,75.20,SBMT 191700Z 24004KT 170V340 7000 NSC 24/15 Q1017,
SBMT,2024-09-19 18:00,75.20,59.00,57.12,220.00,4.00,0.00,30.03,,3.73,,NSC,,,,,,,,,,,,,,,75.20,SBMT 191800Z 22004KT 160V250 6000 NSC 24/15 Q1017,
SBMT,2024-09-19 19:00,71.60,62.60,73.27,160.00,5.00,0.00,30.03,,3.11,,NSC,,,,,,,,HZ,,,,,,,71.60,SBMT 191900Z 16005KT 5000 HZ NSC 22/17 Q1017,
SBMT,2024-09-19 20:00,69.80,62.60,77.90,170.00,9.00,0.00,30.03,,2.49,,NSC,,,,,,,,HZ,,,,,,,69.80,SBMT 192000Z 17009KT 130V210 4000 HZ NSC 21/17 Q1017,
SBMT,2024-09-19 21:00,64.40,60.80,88.09,130.00,7.00,0.00,30.06,,2.17,,BKN,,,,900.00,,,,BR,,,,,,,64.40,SBMT 192100Z 13007KT 090V150 3500 BR BKN009 18/16 Q1018,
SBMT,2024-09-19 22:00,64.40,60.80,88.09,,2.00,0.00,30.06,,1.86,,BKN,,,,900.00,,,,BR,,,,,,,64.40,SBMT 192200Z VRB02KT 3000 BR BKN009 18/16 Q1018,
SBMT,2024-09-19 23:00,64.40,62.60,93.88,160.00,7.00,0.00,30.12,,1.86,,BKN,,,,900.00,,,,BR,,,,,,,64.40,SBMT 192300Z 16007KT 120V220 3000 BR BKN009 18/17 Q1020,
SBMT,2024-09-20 00:00,64.40,60.80,88.09,130.00,3.00,0.00,30.12,,1.86,,BKN,,,,800.00,,,,-DZ BR,,,,,,,64.40,SBMT 200000Z 13003KT 050V170 3000 -DZ BR BKN008 18/16 Q1020,
SBMT,2024-09-20 01:00,64.40,60.80,88.09,60.00,3.00,0.00,30.12,,2.17,,BKN,,,,800.00,,,,BR,,,,,,,64.40,SBMT 200100Z 06003KT 020V090 3500 BR BKN008 18/16 Q1020,
SBMT,2024-09-20 02:00,64.40,60.80,88.09,70.00,8.00,0.00,30.06,,2.49,,BKN,,,,800.00,,,,BR,,,,,,,64.40,SBMT 200200Z 07008KT 040V100 4000 BR BKN008 18/16 Q1018,
SBMT,2024-09-20 09:00,60.80,57.20,87.92,130.00,2.00,0.00,29.97,,2.17,,NSC,,,,,,,,BR,,,,,,,60.80,SBMT 200900Z 13002KT 3500 BR NSC 16/14 Q1015,
SBMT,2024-09-20 10:00,62.60,59.00,88.00,,2.00,0.00,30.00,,3.73,,NSC,,,,,,,,,,,,,,,62.60,SBMT 201000Z VRB02KT 6000 NSC 17/15 Q1016,
SBMT,2024-09-20 11:00,66.20,60.80,82.74,,2.00,0.00,30.03,,3.73,,NSC,,,,,,,,,,,,,,,66.20,SBMT 201100Z VRB02KT 6000 NSC 19/16 Q1017,
SBMT,2024-09-20 12:00,69.80,60.80,73.09,100.00,4.00,0.00,30.03,,3.73,,NSC,,,,,,,,,,,,,,,69.80,SBMT 201200Z 10004KT 030V160 6000 NSC 21/16 Q1017,
SBMT,2024-09-20 13:00,77.00,62.60,61.13,80.00,3.00,0.00,30.03,,6.21,,,,,,,,,,,,,,,,,77.00,SBMT 201300Z 08003KT 360V120 CAVOK 25/17 Q1017,
SBMT,2024-09-20 14:00,84.20,57.20,39.86,320.00,9.00,0.00,30.03,,6.21,,,,,,,,,,,,,,,,,83.47,SBMT 201400Z 32009KT 240V360 CAVOK 29/14 Q1017,
SBMT,2024-09-20 15:00,86.00,57.20,37.62,310.00,13.00,0.00,30.00,,6.21,,,,,,,,,,,,,,,,,84.97,SBMT 201500Z 31013KT 260V360 CAVOK 30/14 Q1016,
SBMT,2024-09-20 16:00,87.80,55.40,33.29,310.00,12.00,0.00,29.97,,6.21,,,,,,,,,,,,,,,,,86.11,SBMT 201600Z 31012KT 270V350 CAVOK 31/13 Q1015,
SBMT,2024-09-20 17:00,89.60,60.80,38.18,310.00,11.00,0.00,29.94,,6.21,,,,,,,,,,,,,,,,,89.54,SBMT 201700Z 31011KT CAVOK 32/16 Q1014,
SBMT,2024-09-20 18:00,89.60,57.20,33.56,290.00,11.00,0.00,29.91,,6.21,,,,,,,,,,,,,,,,,88.28,SBMT 201800Z 29011KT CAVOK 32/14 Q1013,
SBMT,2024-09-20 19:00,89.60,57.20,33.56,310.00,7.00,0.00,29.91,,6.21,,,,,,,,,,,,,,,,,88.28,SBMT 201900Z 31007KT CAVOK 32/14 Q1013,
SBMT,2024-09-20 20:00,87.80,57.20,35.53,280.00,8.00,0.00,29.91,,6.21,,,,,,,,,,,,,,,,,86.58,SBMT 202000Z 28008KT CAVOK 31/14 Q1013,
SBMT,2024-09-20 21:00,84.20,55.40,37.35,230.00,11.00,0.00,29.91,,6.21,,BKN,///,,,8000.00,,,,VCTS,,,,,,,83.09,SBMT 202100Z 23011KT 9999 VCTS BKN080 //////CB 29/13 Q1013,
SBMT,2024-09-20 22:00,71.60,64.40,78.04,170.00,4.00,0.00,30.03,,6.21,,SCT,BKN,///,,2000.00,8000.00,,,TS,,,,,,,71.60,SBMT 202200Z 17004KT 9999 TS SCT020 BKN080 //////CB 22/18 Q1017,
SBMT,2024-09-20 23:00,66.20,62.60,88.18,180.00,11.00,0.00,30.09,,4.97,,BKN,BKN,,,900.00,1100.00,,,,,,,,,,66.20,SBMT 202300Z 18011KT 8000 BKN009 BKN011 19/17 Q1019,
SBMT,2024-09-21 00:00,68.00,60.80,77.75,220.00,9.00,0.00,30.12,,4.97,20.00,SCT,BKN,,,1100.00,1500.00,,,,,,,,,,68.00,SBMT 210000Z 22009G20KT 8000 SCT011 BKN015 20/16 Q1020,
SBMT,2024-09-21 01:00,68.00,59.00,72.92,240.00,8.00,0.00,30.12,,6.21,,SCT,,,,2000.00,,,,,,,,,,,68.00,SBMT 210100Z 24008KT 9999 SCT020 20/15 Q1020,
SBMT,2024-09-21 02:00,66.20,59.00,77.60,280.00,5.00,0.00,30.15,,6.21,,SCT,,,,2000.00,,,,,,,,,,,66.20,SBMT 210200Z 28005KT 9999 SCT020 19/15 Q1021,
SBMT,2024-09-21 09:00,60.80,59.00,93.79,270.00,3.00,0.00,30.03,,6.21,,,,,,,,,,,,,,,,,60.80,SBMT 210900Z 27003KT CAVOK 16/15 Q1017,
SBMT,2024-09-21 10:00,64.40,60.80,88.09,0.00,0.00,0.00,30.06,,6.21,,,,,,,,,,,,,,,,,64.40,SBMT 211000Z 00000KT CAVOK 18/16 Q1018,
SBMT,2024-09-21 11:00,68.00,60.80,77.75,,2.00,0.00,30.09,,6.21,,,,,,,,,,,,,,,,,68.00,SBMT 211100Z VRB02KT CAVOK 20/16 Q1019,
SBMT,2024-09-21 12:00,73.40,60.80,64.69,,2.00,0.00,30.09,,6.21,,,,,,,,,,,,,,,,,73.40,SBMT 211200Z VRB02KT CAVOK 23/16 Q1019,
SBMT,2024-09-21 13:00,77.00,57.20,50.43,,2.00,0.00,30.09,,6.21,,,,,,,,,,,,,,,,,77.00,SBMT 211300Z VRB02KT CAVOK 25/14 Q1019,
SBMT,2024-09-21 14:00,80.60,57.20,44.80,210.00,4.00,0.00,30.06,,6.21,,,,,,,,,,,,,,,,,80.81,SBMT 211400Z 21004KT 150V270 CAVOK 27/14 Q1018,
SBMT,2024-09-21 15:00,78.80,57.20,47.52,270.00,4.00,0.00,30.06,,6.21,,,,,,,,,,,,,,,,,78.80,SBMT 211500Z 27004KT 210V330 CAVOK 26/14 Q1018,
SBMT,2024-09-21 16:00,80.60,57.20,44.80,220.00,3.00,0.00,30.03,,6.21,,,,,,,,,,,,,,,,,80.81,SBMT 211600Z 22003KT 150V290 CAVOK 27/14 Q1017,
SBMT,2024-09-21 17:00,80.60,57.20,44.80,220.00,3.00,0.00,30.00,,6.21,,,,,,,,,,,,,,,,,80.81,SBMT 211700Z 22003KT CAVOK 27/14 Q1016,
SBMT,2024-09-21 18:00,80.60,59.00,47.79,360.00,2.00,0.00,30.00,,6.21,,BKN,,,,4500.00,,,,,,,,,,,81.11,SBMT 211800Z 36002KT 9999 BKN045 27/15 Q1016,
SBMT,2024-09-21 19:00,77.00,60.80,57.36,160.00,6.00,0.00,30.00,,6.21,,BKN,,,,4500.00,,,,,,,,,,,77.00,SBMT 211900Z 16006KT 120V190 9999 BKN045 25/16 Q1016,
SBMT,2024-09-21 20:00,75.20,55.40,50.17,190.00,7.00,0.00,30.00,,6.21,,BKN,,,,4500.00,,,,,,,,,,,75.20,SBMT 212000Z 19007KT 9999 BKN045 24/13 Q1016,
SBMT,2024-09-21 21:00,75.20,55.40,50.17,170.00,5.00,0.00,30.03,,6.21,,BKN,,,,4500.00,,,,,,,,,,,75.20,SBMT 212100Z 17005KT 9999 BKN045 24/13 Q1017,
SBMT,2024-09-21 22:00,73.40,57.20,56.88,150.00,4.00,0.00,30.03,,6.21,,BKN,,,,4500.00,,,,,,,,,,,73.40,SBMT 212200Z 15004KT 9999 BKN045 23/14 Q1017,
SBMT,2024-09-21 23:00,71.60,62.60,73.27,90.00,6.00,0.00,30.03,,6.21,,,,,,,,,,,,,,,,,71.60,SBMT 212300Z 09006KT CAVOK 22/17 Q1017,
SBMT,2024-09-22 00:00,69.80,60.80,73.09,100.00,4.00,0.00,30.06,,6.21,,,,,,,,,,,,,,,,,69.80,SBMT 220000Z 10004KT CAVOK 21/16 Q1018,
SBMT,2024-09-22 01:00,69.80,59.00,68.55,80.00,4.00,0.00,30.06,,6.21,,,,,,,,,,,,,,,,,69.80,SBMT 220100Z 08004KT CAVOK 21/15 Q1018,
SBMT,2024-09-22 02:00,69.80,60.80,73.09,80.00,5.00,0.00,30.06,,6.21,,,,,,,,,,,,,,,,,69.80,SBMT 220200Z 08005KT CAVOK 21/16 Q1018,
SBMT,2024-09-22 09:00,64.40,60.80,88.09,80.00,5.00,0.00,30.00,,3.73,,NSC,,,,,,,,,,,,,,,64.40,SBMT 220900Z 08005KT 6000 NSC 18/16 Q1016,
SBMT,2024-09-22 10:00,66.20,62.60,88.18,80.00,4.00,0.00,30.03,,3.73,,NSC,,,,,,,,,,,,,,,66.20,SBMT 221000Z 08004KT 6000 NSC 19/17 Q1017,
SBMT,2024-09-22 11:00,68.00,62.60,82.86,80.00,4.00,0.00,30.06,,4.35,,NSC,,,,,,,,,,,,,,,68.00,SBMT 221100Z 08004KT 050V120 7000 NSC 20/17 Q1018,
SBMT,2024-09-22 12:00,71.60,62.60,73.27,,3.00,0.00,30.09,,6.21,,,,,,,,,,,,,,,,,71.60,SBMT 221200Z VRB03KT CAVOK 22/17 Q1019,
SBMT,2024-09-22 13:00,75.20,62.60,64.91,,2.00,0.00,30.09,,6.21,,,,,,,,,,,,,,,,,75.20,SBMT 221300Z VRB02KT CAVOK 24/17 Q1019,
SBMT,2024-09-22 14:00,80.60,62.60,54.30,,3.00,0.00,30.06,,6.21,,,,,,,,,,,,,,,,,81.84,SBMT 221400Z VRB03KT CAVOK 27/17 Q1018,
SBMT,2024-09-22 15:00,84.20,60.80,45.34,,3.00,0.00,30.00,,6.21,,,,,,,,,,,,,,,,,84.43,SBMT 221500Z VRB03KT CAVOK 29/16 Q1016,
SBMT,2024-09-22 16:00,86.00,59.00,40.14,,3.00,0.00,29.97,,6.21,,,,,,,,,,,,,,,,,85.47,SBMT 221600Z VRB03KT CAVOK 30/15 Q1015,
SBMT,2024-09-22 17:00,87.80,57.20,35.53,10.00,4.00,0.00,29.94,,6.21,,,,,,,,,,,,,,,,,86.58,SBMT 221700Z 01004KT CAVOK 31/14 Q1014,
SBMT,2024-09-22 18:00,87.80,55.40,33.29,310.00,8.00,0.00,29.94,,6.21,,SCT,,,,4500.00,,,,,,,,,,,86.11,SBMT 221800Z 31008KT 9999 SCT045 31/13 Q1014,
SBMT,2024-09-22 19:00,87.80,57.20,35.53,240.00,5.00,0.00,29.91,,6.21,,SCT,,,,4500.00,,,,,,,,,,,86.58,SBMT 221900Z 24005KT 9999 SCT045 31/14 Q1013,
SBMT,2024-09-22 20:00,82.40,57.20,42.25,160.00,8.00,0.00,29.94,,6.21,,FEW,,,,4500.00,,,,,,,,,,,82.08,SBMT 222000Z 16008KT 9999 FEW045 28/14 Q1014,
SBMT,2024-09-22 21:00,78.80,59.00,50.69,140.00,7.00,0.00,29.97,,6.21,,,,,,,,,,,,,,,,,78.80,SBMT 222100Z 14007KT CAVOK 26/15 Q1015,
SBMT,2024-09-22 22:00,77.00,59.00,53.80,180.00,5.00,0.00,30.00,,6.21,,,,,,,,,,,,,,,,,77.00,SBMT 222200Z 18005KT CAVOK 25/15 Q1016,
SBMT,2024-09-22 23:00,73.40,59.00,60.67,150.00,2.00,0.00,30.00,,6.21,,,,,,,,,,,,,,,,,73.40,SBMT 222300Z 15002KT CAVOK 23/15 Q1016,
SBMT,2024-09-23 00:00,71.60,57.20,60.44,80.00,3.00,0.00,30.03,,6.21,,,,,,,,,,,,,,,,,71.60,SBMT 230000Z 08003KT CAVOK 22/14 Q1017,
SBMT,2024-09-23 01:00,69.80,59.00,68.55,0.00,0.00,0.00,30.03,,6.21,,,,,,,,,,,,,,,,,69.80,SBMT 230100Z 00000KT CAVOK 21/15 Q1017,
SBMT,2024-09-23 02:00,66.20,59.00,77.60,0.00,0.00,0.00,30.03,,6.21,,,,,,,,,,,,,,,,,66.20,SBMT 230200Z 00000KT CAVOK 19/15 Q1017,
SBMT,2024-09-23 09:00,60.80,59.00,93.79,110.00,2.00,0.00,30.03,,3.11,,NSC,,,,,,,,BR,,,,,,,60.80,SBMT 230900Z 11002KT 5000 BR NSC 16/15 Q1017,
SBMT,2024-09-23 10:00,62.60,60.80,93.83,110.00,2.00,0.00,30.06,,6.21,,,,,,,,,,,,,,,,,62.60,SBMT 231000Z 11002KT CAVOK 17/16 Q1018,
SBMT,2024-09-23 11:00,71.60,62.60,73.27,100.00,4.00,0.00,30.06,,6.21,,,,,,,,,,,,,,,,,71.60,SBMT 231100Z 10004KT CAVOK 22/17 Q1018,
SBMT,2024-09-23 12:00,75.20,62.60,64.91,80.00,4.00,0.00,30.06,,6.21,,,,,,,,,,,,,,,,,75.20,SBMT 231200Z 08004KT CAVOK 24/17 Q1018,
SBMT,2024-09-23 13:00,80.60,62.60,54.30,80.00,3.00,0.00,30.03,,6.21,,,,,,,,,,,,,,,,,81.84,SBMT 231300Z 08003KT CAVOK 27/17 Q1017,
SBMT,2024-09-23 14:00,84.20,59.00,42.52,170.00,3.00,0.00,30.03,,6.21,,,,,,,,,,,,,,,,,83.92,SBMT 231400Z 17003KT CAVOK 29/15 Q1017,
SBMT,2024-09-23 15:00,87.80,55.40,33.29,100.00,3.00,0.00,30.00,,6.21,,,,,,,,,,,,,,,,,86.11,SBMT 231500Z 10003KT CAVOK 31/13 Q1016,
SBMT,2024-09-23 16:00,89.60,51.80,27.56,230.00,6.00,0.00,30.00,,6.21,,,,,,,,,,,,,,,,,87.00,SBMT 231600Z 23006KT CAVOK 32/11 Q1016,
SBMT,2024-09-23 17:00,89.60,44.60,21.04,230.00,6.00,0.00,29.97,,6.21,,,,,,,,,,,,,,,,,86.07,SBMT 231700Z 23006KT CAVOK 32/07 Q1015,
SBMT,2024-09-23 18:00,91.40,44.60,19.89,240.00,8.00,0.00,29.94,,6.21,,,,,,,,,,,,,,,,,87.68,SBMT 231800Z 24008KT CAVOK 33/07 Q1014,
SBMT,2024-09-23 19:00,86.00,55.40,35.25,160.00,11.00,0.00,29.97,,6.21,,,,,,,,,,,,,,,,,84.54,SBMT 231900Z 16011KT CAVOK 30/13 Q1015,
SBMT,2024-09-23 20:00,82.40,51.80,34.69,160.00,10.00,0.00,29.97,,6.21,,,,,,,,,,,,,,,,,81.20,SBMT 232000Z 16010KT CAVOK 28/11 Q1015,
SBMT,2024-09-23 21:00,80.60,46.40,30.07,150.00,5.00,0.00,30.00,,6.21,,,,,,,,,,,,,,,,,79.56,SBMT 232100Z 15005KT CAVOK 27/08 Q1016,
SBMT,2024-09-23 22:00,77.00,46.40,33.85,110.00,8.00,0.00,30.03,,6.21,,,,,,,,,,,,,,,,,77.00,SBMT 232200Z 11008KT CAVOK 25/08 Q1017,
SBMT,2024-09-23 23:00,77.00,48.20,36.22,120.00,5.00,0.00,30.06,,6.21,,,,,,,,,,,,,,,,,77.00,SBMT 232300Z 12005KT CAVOK 25/09 Q1018,
SBMT,2024-09-24 00:00,75.20,50.00,41.14,80.00,7.00,0.00,30.06,,6.21,,,,,,,,,,,,,,,,,75.20,SBMT 240000Z 08007KT CAVOK 24/10 Q1018,
SBMT,2024-09-24 01:00,73.40,51.80,46.71,80.00,4.00,0.00,30.06,,6.21,,,,,,,,,,,,,,,,,73.40,SBMT 240100Z 08004KT CAVOK 23/11 Q1018,
SBMT,2024-09-24 02:00,68.00,53.60,59.97,100.00,2.00,0.00,30.03,,6.21,,,,,,,,,,,,,,,,,68.00,SBMT 240200Z 10002KT CAVOK 20/12 Q1017,
SBMT,2024-09-24 09:00,64.40,55.40,72.56,90.00,2.00,0.00,30.06,,3.11,,NSC,,,,,,,,HZ,,,,,,,64.40,SBMT 240900Z 09002KT 5000 HZ NSC 18/13 Q1018,
SBMT,2024-09-24 10:00,69.80,57.20,64.26,80.00,3.00,0.00,30.06,,6.21,,,,,,,,,,,,,,,,,69.80,SBMT 241000Z 08003KT CAVOK 21/14 Q1018,
SBMT,2024-09-24 11:00,71.60,59.00,64.48,70.00,4.00,0.00,30.09,,6.21,,,,,,,,,,,,,,,,,71.60,SBMT 241100Z 07004KT CAVOK 22/15 Q1019,
SBMT,2024-09-24 12:00,75.20,59.00,57.12,100.00,5.00,0.00,30.09,,6.21,,,,,,,,,,,,,,,,,75.20,SBMT 241200Z 10005KT CAVOK 24/15 Q1019,
SBMT,2024-09-24 13:00,78.80,59.00,50.69,140.00,4.00,0.00,30.09,,6.21,,,,,,,,,,,,,,,,,78.80,SBMT 241300Z 14004KT CAVOK 26/15 Q1019,
SBMT,2024-09-24 14:00,84.20,59.00,42.52,10.00,3.00,0.00,30.06,,6.21,,,,,,,,,,,,,,,,,83.92,SBMT 241400Z 01003KT CAVOK 29/15 Q1018,
SBMT,2024-09-24 15:00,86.00,60.80,42.80,160.00,3.00,0.00,30.03,,6.21,,,,,,,,,,,,,,,,,86.05,SBMT 241500Z 16003KT CAVOK 30/16 Q1017,
SBMT,2024-09-24 16:00,89.60,48.20,24.11,310.00,4.00,0.00,30.00,,6.21,,,,,,,,,,,,,,,,,86.44,SBMT 241600Z 31004KT CAVOK 32/09 Q1016,
SBMT,2024-09-24 17:00,93.20,50.00,23.04,240.00,5.00,0.00,29.97,,6.21,,,,,,,,,,,,,,,,,90.10,SBMT 241700Z 24005KT 200V280 CAVOK 34/10 Q1015,
SBMT,2024-09-24 18:00,93.20,46.40,20.13,270.00,4.00,0.00,29.97,,6.21,,,,,,,,,,,,,,,,,89.55,SBMT 241800Z 27004KT 210V330 CAVOK 34/08 Q1015,
SBMT,2024-09-24 19:00,87.80,62.60,43.07,150.00,8.00,0.00,29.97,,6.21,,,,,,,,,,,,,,,,,88.48,SBMT 241900Z 15008KT 110V190 CAVOK 31/17 Q1015,
SBMT,2024-09-24 20:00,80.60,62.60,54.30,160.00,9.00,0.00,29.97,,6.21,,,,,,,,,,,,,,,,,81.84,SBMT 242000Z 16009KT CAVOK 27/17 Q1015,
SBMT,2024-09-24 21:00,77.00,62.60,61.13,150.00,6.00,0.00,30.00,,6.21,,,,,,,,,,,,,,,,,77.00,SBMT 242100Z 15006KT CAVOK 25/17 Q1016,
SBMT,2024-09-24 22:00,73.40,62.60,68.94,160.00,4.00,0.00,30.00,,6.21,,,,,,,,,,,,,,,,,73.40,SBMT 242200Z 16004KT CAVOK 23/17 Q1016,
SBMT,2024-09-24 23:00,73.40,62.60,68.94,140.00,4.00,0.00,30.03,,6.21,,,,,,,,,,,,,,,,,73.40,SBMT 242300Z 14004KT CAVOK 23/17 Q1017,
SBMT,2024-09-25 00:00,71.60,62.60,73.27,120.00,3.00,0.00,30.03,,6.21,,,,,,,,,,,,,,,,,71.60,SBMT 250000Z 12003KT CAVOK 22/17 Q1017,
SBMT,2024-09-25 01:00,73.40,62.60,68.94,110.00,4.00,0.00,30.03,,6.21,,,,,,,,,,,,,,,,,73.40,SBMT 250100Z 11004KT CAVOK 23/17 Q1017,
SBMT,2024-09-25 02:00,71.60,62.60,73.27,100.00,4.00,0.00,30.03,,6.21,,,,,,,,,,,,,,,,,71.60,SBMT 250200Z 10004KT CAVOK 22/17 Q1017,
SBMT,2024-09-25 09:00,68.00,60.80,77.75,90.00,6.00,0.00,30.00,,2.49,,NSC,,,,,,,,HZ,,,,,,,68.00,SBMT 250900Z 09006KT 4000 HZ NSC 20/16 Q1016,
SBMT,2024-09-25 10:00,69.80,62.60,77.90,100.00,5.00,0.00,30.03,,3.73,,NSC,,,,,,,,,,,,,,,69.80,SBMT 251000Z 10005KT 6000 NSC 21/17 Q1017,
SBMT,2024-09-25 11:00,73.40,62.60,68.94,90.00,5.00,0.00,30.03,,4.35,,NSC,,,,,,,,,,,,,,,73.40,SBMT 251100Z 09005KT 7000 NSC 23/17 Q1017,
SBMT,2024-09-25 12:00,77.00,60.80,57.36,70.00,5.00,0.00,30.03,,4.35,,NSC,,,,,,,,,,,,,,,77.00,SBMT 251200Z 07005KT 7000 NSC 25/16 Q1017,
SBMT,2024-09-25 13:00,82.40,60.80,48.05,350.00,2.00,0.00,30.03,,4.97,,NSC,,,,,,,,,,,,,,,82.90,SBMT 251300Z 35002KT 8000 NSC 28/16 Q1017,
SBMT,2024-09-25 14:00,87.80,55.40,33.29,350.00,5.00,0.00,30.00,,6.21,,,,,,,,,,,,,,,,,86.11,SBMT 251400Z 35005KT CAVOK 31/13 Q1016,
SBMT,2024-09-25 15:00,91.40,55.40,29.72,300.00,5.00,0.00,29.97,,6.21,,,,,,,,,,,,,,,,,89.53,SBMT 251500Z 30005KT CAVOK 33/13 Q1015,
SBMT,2024-09-25 16:00,91.40,53.60,27.83,340.00,4.00,0.00,29.97,,6.21,,,,,,,,,,,,,,,,,89.08,SBMT 251600Z 34004KT CAVOK 33/12 Q1015,
SBMT,2024-09-25 17:00,93.20,44.60,18.80,,5.00,0.00,29.94,,6.21,,,,,,,,,,,,,,,,,89.34,SBMT 251700Z VRB05KT CAVOK 34/07 Q1014,
SBMT,2024-09-25 18:00,93.20,44.60,18.80,200.00,6.00,0.00,29.91,,6.21,,,,,,,,,,,,,,,,,89.34,SBMT 251800Z 20006KT 140V270 CAVOK 34/07 Q1013,
SBMT,2024-09-25 19:00,93.20,44.60,18.80,180.00,5.00,0.00,29.91,,6.21,,,,,,,,,,,,,,,,,89.34,SBMT 251900Z 18005KT 100V240 CAVOK 34/07 Q1013,
SBMT,2024-09-25 20:00,89.60,53.60,29.45,170.00,6.00,0.00,29.91,,6.21,,,,,,,,,,,,,,,,,87.36,SBMT 252000Z 17006KT 130V270 CAVOK 32/12 Q1013,
SBMT,2024-09-25 21:00,87.80,55.40,33.29,130.00,8.00,0.00,29.91,,6.21,,,,,,,,,,,,,,,,,86.11,SBMT 252100Z 13008KT 110V170 CAVOK 31/13 Q1013,
SBMT,2024-09-25 22:00,84.20,57.20,39.86,170.00,5.00,0.00,29.94,,6.21,,,,,,,,,,,,,,,,,83.47,SBMT 252200Z 17005KT 120V200 CAVOK 29/14 Q1014,
SBMT,2024-09-25 23:00,84.20,55.40,37.35,140.00,4.00,0.00,29.97,,6.21,,,,,,,,,,,,,,,,,83.09,SBMT 252300Z 14004KT CAVOK 29/13 Q1015,
SBMT,2024-09-26 00:00,80.60,55.40,41.97,80.00,6.00,0.00,29.97,,6.21,,,,,,,,,,,,,,,,,80.53,SBMT 260000Z 08006KT CAVOK 27/13 Q1015,
SBMT,2024-09-26 01:00,80.60,55.40,41.97,90.00,3.00,0.00,30.00,,6.21,,,,,,,,,,,,,,,,,80.53,SBMT 260100Z 09003KT 060V120 CAVOK 27/13 Q1016,
SBMT,2024-09-26 02:00,78.80,55.40,44.52,100.00,4.00,0.00,30.00,,6.21,,,,,,,,,,,,,,,,,78.80,SBMT 260200Z 10004KT CAVOK 26/13 Q1016,
SBMT,2024-09-26 09:00,69.80,55.40,60.21,90.00,5.00,0.00,29.97,,6.21,,,,,,,,,,,,,,,,,69.80,SBMT 260900Z 09005KT CAVOK 21/13 Q1015,
SBMT,2024-09-26 10:00,71.60,55.40,56.63,60.00,3.00,0.00,29.97,,6.21,,,,,,,,,,,,,,,,,71.60,SBMT 261000Z 06003KT CAVOK 22/13 Q1015,
SBMT,2024-09-26 11:00,75.20,55.40,50.17,70.00,5.00,0.00,30.00,,6.21,,,,,,,,,,,,,,,,,75.20,SBMT 261100Z 07005KT CAVOK 24/13 Q1016,
SBMT,2024-09-26 12:00,80.60,55.40,41.97,0.00,0.00,0.00,30.00,,6.21,,,,,,,,,,,,,,,,,80.53,SBMT 261200Z 00000KT CAVOK 27/13 Q1016,
SBMT,2024-09-26 13:00,84.20,53.60,34.97,20.00,3.00,0.00,30.00,,6.21,,,,,,,,,,,,,,,,,82.76,SBMT 261300Z 02003KT CAVOK 29/12 Q1016,
SBMT,2024-09-26 14:00,87.80,53.60,31.17,330.00,7.00,0.00,30.00,,6.21,,,,,,,,,,,,,,,,,85.72,SBMT 261400Z 33007KT CAVOK 31/12 Q1016,
SBMT,2024-09-26 15:00,91.40,51.80,26.05,350.00,6.00,0.00,29.97,,6.21,,,,,,,,,,,,,,,,,88.69,SBMT 261500Z 35006KT CAVOK 33/11 Q1015,
SBMT,2024-09-26 16:00,93.20,51.80,24.63,330.00,6.00,0.00,29.94,,6.21,,,,,,,,,,,,,,,,,90.45,SBMT 261600Z 33006KT CAVOK 34/11 Q1014,
SBMT,2024-09-26 17:00,93.20,51.80,24.63,330.00,6.00,0.00,29.91,,6.21,,,,,,,,,,,,,,,,,90.45,SBMT 261700Z 33006KT CAVOK 34/11 Q1013,
SBMT,2024-09-26 18:00,95.00,50.00,21.79,290.00,4.00,0.00,29.88,,6.21,,,,,,,,,,,,,,,,,91.89,SBMT 261800Z 29004KT CAVOK 35/10 Q1012,
SBMT,2024-09-26 19:00,95.00,50.00,21.79,280.00,5.00,0.00,29.88,,6.21,,,,,,,,,,,,,,,,,91.89,SBMT 261900Z 28005KT CAVOK 35/10 Q1012,
SBMT,2024-09-26 20:00,93.20,48.20,21.54,330.00,5.00,0.00,29.88,,6.21,,,,,,,,,,,,,,,,,89.80,SBMT 262000Z 33005KT CAVOK 34/09 Q1012,
SBMT,2024-09-26 21:00,91.40,48.20,22.78,350.00,3.00,0.00,29.88,,6.21,,,,,,,,,,,,,,,,,88.09,SBMT 262100Z 35003KT CAVOK 33/09 Q1012,
SBMT,2024-09-26 22:00,82.40,51.80,34.69,340.00,3.00,0.00,29.88,,6.21,,,,,,,,,,,,,,,,,81.20,SBMT 262200Z 34003KT CAVOK 28/11 Q1012,
SBMT,2024-09-26 23:00,78.80,53.60,41.69,0.00,0.00,0.00,29.88,,6.21,,,,,,,,,,,,,,,,,78.80,SBMT 262300Z 00000KT CAVOK 26/12 Q1012,
SBMT,2024-09-27 00:00,77.00,55.40,47.25,290.00,1.00,0.00,29.91,,4.35,,NSC,,,,,,,,,,,,,,,77.00,SBMT 270000Z 29001KT 7000 NSC 25/13 Q1013,
SBMT,2024-09-27 01:00,78.80,53.60,41.69,0.00,0.00,0.00,29.91,,6.21,,,,,,,,,,,,,,,,,78.80,SBMT 270100Z 00000KT CAVOK 26/12 Q1013,
SBMT,2024-09-27 02:00,78.80,60.80,54.05,160.00,2.00,0.00,29.94,,6.21,,,,,,,,,,,,,,,,,78.80,SBMT 270200Z 16002KT CAVOK 26/16 Q1014,
SBMT,2024-09-27 09:00,68.00,59.00,72.92,250.00,10.00,0.00,30.00,,6.21,,FEW,,,,2000.00,,,,,,,,,,,68.00,SBMT 270900Z 25010KT 9999 FEW020 20/15 Q1016,
SBMT,2024-09-27 10:00,69.80,59.00,68.55,,2.00,0.00,30.00,,6.21,,,,,,,,,,,,,,,,,69.80,SBMT 271000Z VRB02KT CAVOK 21/15 Q1016,
SBMT,2024-09-27 11:00,69.80,59.00,68.55,100.00,6.00,0.00,30.00,,6.21,,NSC,,,,,,,,-RA,,,,,,,69.80,SBMT 271100Z 10006KT 080V140 9999 -RA NSC 21/15 Q1016,
SBMT,2024-09-27 12:00,71.60,59.00,64.48,50.00,4.00,0.00,30.00,,6.21,,,,,,,,,,,,,,,,,71.60,SBMT 271200Z 05004KT CAVOK 22/15 Q1016,
SBMT,2024-09-27 13:00,73.40,59.00,60.67,320.00,2.00,0.00,30.00,,6.21,,FEW,SCT,,,4000.00,8300.00,,,,,,,,,,73.40,SBMT 271300Z 32002KT 9999 FEW040 SCT083 23/15 Q1016,
SBMT,2024-09-27 13:03,71.60,59.00,64.48,,3.00,0.00,30.00,,2.49,,SCT,BKN,,,4000.00,8300.00,,,-RA,,,,,,,71.60,SBMT 271303Z VRB03KT 4000 -RA SCT040 BKN083 22/15 Q1016,
SBMT,2024-09-27 14:00,71.60,59.00,64.48,40.00,5.00,0.00,30.00,,6.21,,FEW,SCT,BKN,,3000.00,3300.00,8300.00,,,,,,,,,71.60,SBMT 271400Z 04005KT 360V070 9999 FEW030TCU SCT033 BKN083 22/15 Q1016,
SBMT,2024-09-27 15:00,75.20,59.00,57.12,,2.00,0.00,30.00,,6.21,,SCT,BKN,,,3300.00,8300.00,,,,,,,,,,75.20,SBMT 271500Z VRB02KT 9999 SCT033 BKN083 24/15 Q1016,
SBMT,2024-09-27 16:00,78.80,60.80,54.05,270.00,8.00,0.00,29.97,,6.21,,,,,,,,,,,,,,,,,78.80,SBMT 271600Z 27008KT 220V300 CAVOK 26/16 Q1015,
SBMT,2024-09-27 17:00,78.80,60.80,54.05,230.00,10.00,0.00,29.94,,6.21,,SCT,,,,4600.00,,,,,,,,,,,78.80,SBMT 271700Z 23010KT 190V280 9999 SCT046 26/16 Q1014,
SBMT,2024-09-27 18:00,77.00,62.60,61.13,170.00,8.00,0.00,29.97,,6.21,,SCT,,,,3600.00,,,,,,,,,,,77.00,SBMT 271800Z 17008KT 9999 SCT036 25/17 Q1015,
SBMT,2024-09-27 19:00,68.00,62.60,82.86,180.00,13.00,0.00,29.97,,6.21,,FEW,BKN,,,1500.00,1700.00,,,,,,,,,,68.00,SBMT 271900Z 18013KT 140V210 9999 FEW015 BKN017 20/17 Q1015,
SBMT,2024-09-27 20:00,66.20,59.00,77.60,160.00,11.00,0.00,30.03,,6.21,,OVC,,,,1500.00,,,,,,,,,,,66.20,SBMT 272000Z 16011KT 120V210 9999 OVC015 19/15 Q1017,
SBMT,2024-09-27 21:00,64.40,59.00,82.62,150.00,9.00,0.00,30.06,,6.21,,BKN,,,,1300.00,,,,,,,,,,,64.40,SBMT 272100Z 15009KT 9999 BKN013 18/15 Q1018,
SBMT,2024-09-27 22:00,62.60,53.60,72.38,180.00,7.00,0.00,30.09,,6.21,,SCT,BKN,,,1300.00,2300.00,,,,,,,,,,62.60,SBMT 272200Z 18007KT 9999 SCT013 BKN023 17/12 Q1019,
SBMT,2024-09-27 23:00,62.60,51.80,67.75,160.00,8.00,0.00,30.09,,6.21,,BKN,,,,2300.00,,,,,,,,,,,62.60,SBMT 272300Z 16008KT 9999 BKN023 17/11 Q1019,
SBMT,2024-09-28 00:00,62.60,53.60,72.38,180.00,8.00,0.00,30.12,,6.21,,BKN,,,,2100.00,,,,,,,,,,,62.60,SBMT 280000Z 18008KT 9999 BKN021 17/12 Q1020,
SBMT,2024-09-28 01:00,62.60,55.40,77.29,160.00,5.00,0.00,30.15,,6.21,,BKN,,,,1900.00,,,,,,,,,,,62.60,SBMT 280100Z 16005KT 110V220 9999 BKN019 17/13 Q1021,
SBMT,2024-09-28 02:00,62.60,53.60,72.38,150.00,9.00,0.00,30.15,,6.21,,BKN,,,,2100.00,,,,,,,,,,,62.60,SBMT 280200Z 15009KT 9999 BKN021 17/12 Q1021,
SBMT,2024-09-28 09:00,59.00,50.00,72.01,120.00,9.00,0.00,30.12,,6.21,,SCT,SCT,,,2100.00,2300.00,,,,,,,,,,59.00,SBMT 280900Z 12009KT 9999 SCT021 SCT023 15/10 Q1020,
SBMT,2024-09-28 10:00,60.80,50.00,67.54,120.00,8.00,0.00,30.15,,6.21,,FEW,SCT,,,2100.00,2300.00,,,,,,,,,,60.80,SBMT 281000Z 12008KT 9999 FEW021 SCT023 16/10 Q1021,
SBMT,2024-09-28 11:00,62.60,50.00,63.38,120.00,11.00,0.00,30.18,,6.21,,FEW,BKN,,,2100.00,2300.00,,,,,,,,,,62.60,SBMT 281100Z 12011KT 9999 FEW021 BKN023 17/10 Q1022,
SBMT,2024-09-28 12:00,64.40,50.00,59.50,100.00,12.00,0.00,30.18,,6.21,,BKN,,,,2600.00,,,,,,,,,,,64.40,SBMT 281200Z 10012KT 070V130 9999 BKN026 18/10 Q1022,
SBMT,2024-09-28 13:00,66.20,50.00,55.88,100.00,11.00,0.00,30.21,,6.21,,BKN,,,,3000.00,,,,,,,,,,,66.20,SBMT 281300Z 10011KT 060V140 9999 BKN030 19/10 Q1023,
SBMT,2024-09-28 14:00,69.80,51.80,52.77,90.00,10.00,0.00,30.18,,6.21,,SCT,,,,3300.00,,,,,,,,,,,69.80,SBMT 281400Z 09010KT 050V170 9999 SCT033 21/11 Q1022,
SBMT,2024-09-28 15:00,71.60,51.80,49.64,60.00,11.00,0.00,30.15,,6.21,,SCT,,,,4000.00,,,,,,,,,,,71.60,SBMT 281500Z 06011KT 030V110 9999 SCT040 22/11 Q1021,
SBMT,2024-09-28 16:00,69.80,53.60,56.38,130.00,12.00,0.00,30.12,,6.21,,BKN,,,,3300.00,,,,,,,,,,,69.80,SBMT 281600Z 13012KT 100V180 9999 BKN033 21/12 Q1020,
SBMT,2024-09-28 17:00,68.00,57.20,68.35,140.00,12.00,0.00,30.12,,6.21,,BKN,,,,3000.00,,,,,,,,,,,68.00,SBMT 281700Z 14012KT 9999 BKN030 20/14 Q1020,
SBMT,2024-09-28 18:00,64.40,57.20,77.45,160.00,13.00,0.00,30.12,,6.21,,BKN,OVC,,,1800.00,3000.00,,,,,,,,,,64.40,SBMT 281800Z 16013KT 9999 BKN018 OVC030 18/14 Q1020,
SBMT,2024-09-28 19:00,64.40,55.40,72.56,140.00,9.00,0.00,30.12,,6.21,,BKN,OVC,,,1800.00,3300.00,,,,,,,,,,64.40,SBMT 281900Z 14009KT 9999 BKN018 OVC033 18/13 Q1020,
SBMT,2024-09-28 20:00,62.60,55.40,77.29,130.00,10.00,0.00,30.12,,6.21,,OVC,,,,1800.00,,,,,,,,,,,62.60,SBMT 282000Z 13010KT 9999 OVC018 17/13 Q1020,
SBMT,2024-09-28 21:00,62.60,55.40,77.29,130.00,11.00,0.00,30.15,,6.21,,OVC,,,,1500.00,,,,,,,,,,,62.60,SBMT 282100Z 13011KT 9999 OVC015 17/13 Q1021,
SBMT,2024-09-28 22:00,62.60,57.20,82.50,120.00,11.00,0.00,30.15,,6.21,,OVC,,,,1400.00,,,,,,,,,,,62.60,SBMT 282200Z 12011KT 9999 OVC014 17/14 Q1021,
SBMT,2024-09-28 23:00,60.80,55.40,82.37,110.00,10.00,0.00,30.18,,6.21,,BKN,OVC,,,1300.00,1500.00,,,,,,,,,,60.80,SBMT 282300Z 11010KT 9999 BKN013 OVC015 16/13 Q1022,
SBMT,2024-09-29 00:00,60.80,53.60,77.14,110.00,11.00,0.00,30.21,,6.21,,OVC,,,,1600.00,,,,,,,,,,,60.80,SBMT 290000Z 11011KT 9999 OVC016 16/12 Q1023,
SBMT,2024-09-29 01:00,60.80,55.40,82.37,110.00,12.00,0.00,30.21,,6.21,,OVC,,,,1500.00,,,,,,,,,,,60.80,SBMT 290100Z 11012KT 9999 OVC015 16/13 Q1023,
SBMT,2024-09-29 02:00,60.80,55.40,82.37,100.00,11.00,0.00,30.21,,6.21,,OVC,,,,1400.00,,,,,,,,,,,60.80,SBMT 290200Z 10011KT 9999 OVC014 16/13 Q1023,
SBMT,2024-09-29 09:00,60.80,55.40,82.37,100.00,8.00,0.00,30.15,,6.21,,BKN,,,,1500.00,,,,,,,,,,,60.80,SBMT 290900Z 10008KT 9999 BKN015 16/13 Q1021,
SBMT,2024-09-29 10:00,62.60,55.40,77.29,90.00,10.00,0.00,30.15,,6.21,,FEW,BKN,,,1300.00,1500.00,,,,,,,,,,62.60,SBMT 291000Z 09010KT 9999 FEW013 BKN015 17/13 Q1021,
SBMT,2024-09-29 11:00,64.40,57.20,77.45,90.00,9.00,0.00,30.18,,6.21,,BKN,,,,1700.00,,,,,,,,,,,64.40,SBMT 291100Z 09009KT 9999 BKN017 18/14 Q1022,
SBMT,2024-09-29 12:00,68.00,57.20,68.35,100.00,9.00,0.00,30.18,,6.21,,SCT,,,,1900.00,,,,,,,,,,,68.00,SBMT 291200Z 10009KT 9999 SCT019 20/14 Q1022,
SBMT,2024-09-29 13:00,71.60,57.20,60.44,110.00,8.00,0.00,30.18,,6.21,,,,,,,,,,,,,,,,,71.60,SBMT 291300Z 11008KT CAVOK 22/14 Q1022,
SBMT,2024-09-29 14:00,73.40,59.00,60.67,100.00,7.00,0.00,30.18,,6.21,,,,,,,,,,,,,,,,,73.40,SBMT 291400Z 10007KT CAVOK 23/15 Q1022,
SBMT,2024-09-29 15:00,77.00,59.00,53.80,90.00,6.00,0.00,30.15,,6.21,,,,,,,,,,,,,,,,,77.00,SBMT 291500Z 09006KT CAVOK 25/15 Q1021,
SBMT,2024-09-29 16:00,80.60,59.00,47.79,110.00,4.00,0.00,30.09,,6.21,,,,,,,,,,,,,,,,,81.11,SBMT 291600Z 11004KT CAVOK 27/15 Q1019,
SBMT,2024-09-29 17:00,82.40,55.40,39.58,,5.00,0.00,30.06,,6.21,,,,,,,,,,,,,,,,,81.75,SBMT 291700Z VRB05KT CAVOK 28/13 Q1018,
SBMT,2024-09-29 18:00,80.60,60.80,50.95,160.00,10.00,0.00,30.03,,6.21,,,,,,,,,,,,,,,,,81.46,SBMT 291800Z 16010KT 130V190 CAVOK 27/16 Q1017,
SBMT,2024-09-29 19:00,77.00,59.00,53.80,160.00,11.00,0.00,30.06,,6.21,,,,,,,,,,,,,,,,,77.00,SBMT 291900Z 16011KT CAVOK 25/15 Q1018,
SBMT,2024-09-29 20:00,73.40,59.00,60.67,160.00,8.00,0.00,30.06,,6.21,,,,,,,,,,,,,,,,,73.40,SBMT 292000Z 16008KT 130V190 CAVOK 23/15 Q1018,
SBMT,2024-09-29 21:00,68.00,59.00,72.92,140.00,8.00,0.00,30.09,,6.21,,FEW,,,,2000.00,,,,,,,,,,,68.00,SBMT 292100Z 14008KT 110V180 9999 FEW020 20/15 Q1019,
SBMT,2024-09-29 22:00,66.20,59.00,77.60,160.00,6.00,0.00,30.12,,4.97,,FEW,BKN,,,1300.00,1500.00,,,,,,,,,,66.20,SBMT 292200Z 16006KT 110V220 8000 FEW013 BKN015 19/15 Q1020,
SBMT,2024-09-29 23:00,64.40,57.20,77.45,150.00,8.00,0.00,30.15,,3.73,,FEW,BKN,,,1100.00,1300.00,,,,,,,,,,64.40,SBMT 292300Z 15008KT 110V170 6000 FEW011 BKN013 18/14 Q1021,
SBMT,2024-09-30 00:00,64.40,59.00,82.62,130.00,6.00,0.00,30.15,,3.73,,OVC,,,,1100.00,,,,,,,,,,,64.40,SBMT 300000Z 13006KT 100V170 6000 OVC011 18/15 Q1021,
SBMT,2024-09-30 01:00,64.40,59.00,82.62,140.00,7.00,0.00,30.18,,3.11,,BKN,OVC,,,1100.00,1300.00,,,BR,,,,,,,64.40,SBMT 300100Z 14007KT 100V170 5000 BR BKN011 OVC013 18/15 Q1022,
SBMT,2024-09-30 02:00,64.40,59.00,82.62,140.00,7.00,0.00,30.15,,3.11,,SCT,OVC,,,1100.00,1300.00,,,BR,,,,,,,64.40,SBMT 300200Z 14007KT 110V170 5000 BR SCT011 OVC013 18/15 Q1021,
SBMT,2024-09-30 09:00,64.40,60.80,88.09,80.00,8.00,0.00,30.12,,6.21,,FEW,BKN,,,1100.00,1300.00,,,,,,,,,,64.40,SBMT 300900Z 08008KT 9999 FEW011 BKN013 18/16 Q1020,
SBMT,2024-09-30 10:00,64.40,60.80,88.09,80.00,7.00,0.00,30.12,,6.21,,FEW,BKN,,,1100.00,1300.00,,,,,,,,,,64.40,SBMT 301000Z 08007KT 9999 FEW011 BKN013 18/16 Q1020,
SBMT,2024-09-30 11:00,68.00,60.80,77.75,80.00,7.00,0.00,30.15,,6.21,,SCT,,,,1500.00,,,,,,,,,,,68.00,SBMT 301100Z 08007KT 9999 SCT015 20/16 Q1021,
SBMT,2024-09-30 12:00,71.60,60.80,68.75,90.00,9.00,0.00,30.15,,6.21,,,,,,,,,,,,,,,,,71.60,SBMT 301200Z 09009KT CAVOK 22/16 Q1021,
SBMT,2024-09-30 13:00,75.20,62.60,64.91,90.00,6.00,0.00,30.15,,6.21,,,,,,,,,,,,,,,,,75.20,SBMT 301300Z 09006KT CAVOK 24/17 Q1021,
SBMT,2024-09-30 14:00,80.60,62.60,54.30,90.00,4.00,0.00,30.12,,6.21,,,,,,,,,,,,,,,,,81.84,SBMT 301400Z 09004KT CAVOK 27/17 Q1020,
SBMT,2024-09-30 15:00,82.40,62.60,51.21,120.00,3.00,0.00,30.09,,6.21,,,,,,,,,,,,,,,,,83.41,SBMT 301500Z 12003KT CAVOK 28/17 Q1019,
SBMT,2024-09-30 16:00,86.00,60.80,42.80,240.00,4.00,0.00,30.06,,6.21,,FEW,,,,4000.00,,,,,,,,,,,86.05,COR SBMT 301600Z 24004KT 9999 FEW040 30/16 Q1018,
SBMT,2024-09-30 17:00,86.00,57.20,37.62,90.00,5.00,0.00,30.03,,6.21,,,,,,,,,,,,,,,,,84.97,SBMT 301700Z 09005KT CAVOK 30/14 Q1017,
SBMT,2024-09-30 18:00,87.80,57.20,35.53,220.00,4.00,0.00,30.00,,6.21,,,,,,,,,,,,,,,,,86.58,SBMT 301800Z 22004KT 160V280 CAVOK 31/14 Q1016,
SBMT,2024-09-30 19:00,86.00,59.00,40.14,150.00,9.00,0.00,30.00,,6.21,,,,,,,,,,,,,,,,,85.47,SBMT 301900Z 15009KT CAVOK 30/15 Q1016,
SBMT,2024-09-30 20:00,78.80,62.60,57.60,160.00,7.00,0.00,30.00,,6.21,,,,,,,,,,,,,,,,,78.80,SBMT 302000Z 16007KT CAVOK 26/17 Q1016,
SBMT,2024-09-30 21:00,73.40,64.40,73.44,170.00,6.00,0.00,30.03,,6.21,,,,,,,,,,,,,,,,,73.40,SBMT 302100Z 17006KT CAVOK 23/18 Q1017,
SBMT,2024-09-30 22:00,71.60,62.60,73.27,130.00,4.00,0.00,30.03,,6.21,,,,,,,,,,,,,,,,,71.60,SBMT 302200Z 13004KT CAVOK 22/17 Q1017,
SBMT,2024-09-30 23:00,71.60,62.60,73.27,110.00,4.00,0.00,30.03,,6.21,,,,,,,,,,,,,,,,,71.60,SBMT 302300Z 11004KT CAVOK 22/17 Q1017,
SBMT,2024-10-01 00:00,73.40,62.60,68.94,110.00,4.00,0.00,30.06,,6.21,,,,,,,,,,,,,,,,,73.40,SBMT 010000Z 11004KT CAVOK 23/17 Q1018,
SBMT,2024-10-01 01:00,71.60,60.80,68.75,100.00,5.00,0.00,30.06,,6.21,,,,,,,,,,,,,,,,,71.60,SBMT 010100Z 10005KT CAVOK 22/16 Q1018,
SBMT,2024-10-01 02:00,71.60,62.60,73.27,100.00,5.00,0.00,30.03,,6.21,,,,,,,,,,,,,,,,,71.60,SBMT 010200Z 10005KT CAVOK 22/17 Q1017,
SBMT,2024-10-01 09:00,66.20,59.00,77.60,80.00,4.00,0.00,30.00,,6.21,,,,,,,,,,,,,,,,,66.20,SBMT 010900Z 08004KT 040V100 CAVOK 19/15 Q1016,
SBMT,2024-10-01 10:00,68.00,60.80,77.75,100.00,5.00,0.00,30.03,,6.21,,,,,,,,,,,,,,,,,68.00,SBMT 011000Z 10005KT CAVOK 20/16 Q1017,
SBMT,2024-10-01 11:00,71.60,59.00,64.48,100.00,5.00,0.00,30.06,,6.21,,,,,,,,,,,,,,,,,71.60,SBMT 011100Z 10005KT 060V130 CAVOK 22/15 Q1018,
SBMT,2024-10-01 12:00,77.00,59.00,53.80,70.00,3.00,0.00,30.06,,6.21,,,,,,,,,,,,,,,,,77.00,SBMT 011200Z 07003KT 360V140 CAVOK 25/15 Q1018,
SBMT,2024-10-01 13:00,82.40,60.80,48.05,70.00,2.00,0.00,30.03,,6.21,,,,,,,,,,,,,,,,,82.90,SBMT 011300Z 07002KT CAVOK 28/16 Q1017,
SBMT,2024-10-01 14:00,86.00,55.40,35.25,340.00,6.00,0.00,30.00,,6.21,,,,,,,,,,,,,,,,,84.54,SBMT 011400Z 34006KT 290V070 CAVOK 30/13 Q1016,
SBMT,2024-10-01 15:00,87.80,55.40,33.29,310.00,8.00,0.00,29.97,,6.21,,,,,,,,,,,,,,,,,86.11,SBMT 011500Z 31008KT 240V010 CAVOK 31/13 Q1015,
SBMT,2024-10-01 16:00,89.60,53.60,29.45,290.00,10.00,0.00,29.94,,6.21,,,,,,,,,,,,,,,,,87.36,SBMT 011600Z 29010KT 260V330 CAVOK 32/12 Q1014,
SBMT,2024-10-01 17:00,91.40,53.60,27.83,330.00,9.00,0.00,29.91,,6.21,,,,,,,,,,,,,,,,,89.08,SBMT 011700Z 33009KT CAVOK 33/12 Q1013,
SBMT,2024-10-01 18:00,91.40,51.80,26.05,300.00,7.00,0.00,29.88,,6.21,,,,,,,,,,,,,,,,,88.69,SBMT 011800Z 30007KT CAVOK 33/11 Q1012,
SBMT,2024-10-01 19:00,91.40,50.00,24.37,290.00,6.00,0.00,29.88,,6.21,,,,,,,,,,,,,,,,,88.36,SBMT 011900Z 29006KT CAVOK 33/10 Q1012,
SBMT,2024-10-01 20:00,91.40,48.20,22.78,340.00,6.00,0.00,29.88,,6.21,,,,,,,,,,,,,,,,,88.09,SBMT 012000Z 34006KT CAVOK 33/09 Q1012,
SBMT,2024-10-01 21:00,87.80,50.00,27.29,290.00,4.00,0.00,29.88,,6.21,,,,,,,,,,,,,,,,,85.11,SBMT 012100Z 29004KT CAVOK 31/10 Q1012,
SBMT,2024-10-01 22:00,86.00,51.80,30.90,350.00,3.00,0.00,29.88,,6.21,,,,,,,,,,,,,,,,,83.87,SBMT 012200Z 35003KT CAVOK 30/11 Q1012,
SBMT,2024-10-01 23:00,78.80,53.60,41.69,290.00,1.00,0.00,29.91,,6.21,,,,,,,,,,,,,,,,,78.80,SBMT 012300Z 29001KT CAVOK 26/12 Q1013,
SBMT,2024-10-02 00:00,77.00,51.80,41.42,0.00,0.00,0.00,29.91,,6.21,,,,,,,,,,,,,,,,,77.00,SBMT 020000Z 00000KT CAVOK 25/11 Q1013,
SBMT,2024-10-02 01:00,73.40,53.60,49.90,0.00,0.00,0.00,29.94,,6.21,,,,,,,,,,,,,,,,,73.40,SBMT 020100Z 00000KT CAVOK 23/12 Q1014,
SBMT,2024-10-02 02:00,73.40,55.40,53.29,0.00,0.00,0.00,29.94,,6.21,,,,,,,,,,,,,,,,,73.40,SBMT 020200Z 00000KT CAVOK 23/13 Q1014,
SBMT,2024-10-02 09:00,62.60,57.20,82.50,190.00,2.00,0.00,29.91,,4.97,,NSC,,,,,,,,,,,,,,,62.60,SBMT 020900Z 19002KT 8000 NSC 17/14 Q1013,
SBMT,2024-10-02 10:00,69.80,60.80,73.09,140.00,1.00,0.00,29.94,,4.97,,NSC,,,,,,,,,,,,,,,69.80,SBMT 021000Z 14001KT 8000 NSC 21/16 Q1014,
SBMT,2024-10-02 11:00,78.80,57.20,47.52,90.00,4.00,0.00,29.94,,4.97,,NSC,,,,,,,,,,,,,,,78.80,SBMT 021100Z 09004KT 8000 NSC 26/14 Q1014,
SBMT,2024-10-02 12:00,82.40,57.20,42.25,80.00,3.00,0.00,29.94,,4.97,,NSC,,,,,,,,,,,,,,,82.08,SBMT 021200Z 08003KT 8000 NSC 28/14 Q1014,
SBMT,2024-10-02 13:00,86.00,53.60,33.01,330.00,7.00,0.00,29.94,,4.97,,NSC,,,,,,,,,,,,,,,84.18,SBMT 021300Z 33007KT 8000 NSC 30/12 Q1014,
SBMT,2024-10-02 14:00,89.60,53.60,29.45,310.00,9.00,0.00,29.91,,6.21,,,,,,,,,,,,,,,,,87.36,SBMT 021400Z 31009KT CAVOK 32/12 Q1013,
SBMT,2024-10-02 15:00,91.40,53.60,27.83,290.00,10.00,0.00,29.88,,6.21,,,,,,,,,,,,,,,,,89.08,SBMT 021500Z 29010KT CAVOK 33/12 Q1012,
SBMT,2024-10-02 16:00,93.20,51.80,24.63,290.00,9.00,0.00,29.85,,6.21,,,,,,,,,,,,,,,,,90.45,SBMT 021600Z 29009KT CAVOK 34/11 Q1011,
SBMT,2024-10-02 17:00,95.00,50.00,21.79,290.00,11.00,0.00,29.85,,6.21,,,,,,,,,,,,,,,,,91.89,SBMT 021700Z 29011KT 260V360 CAVOK 35/10 Q1011,
SBMT,2024-10-02 18:00,95.00,48.20,20.38,280.00,10.00,0.00,29.80,,6.21,,,,,,,,,,,,,,,,,91.56,SBMT 021800Z 28010KT 260V330 CAVOK 35/09 Q1009,
SBMT,2024-10-02 19:00,82.40,62.60,51.21,150.00,14.00,0.00,29.83,,6.21,,,,,,,,,,,,,,,,,83.41,SBMT 021900Z 15014KT 100V170 CAVOK 28/17 Q1010,
SBMT,2024-10-02 20:00,71.60,62.60,73.27,170.00,11.00,0.00,29.91,,6.21,,,,,,,,,,,,,,,,,71.60,SBMT 022000Z 17011KT 120V210 CAVOK 22/17 Q1013,
SBMT,2024-10-02 21:00,71.60,60.80,68.75,180.00,10.00,0.00,29.94,,6.21,,,,,,,,,,,,,,,,,71.60,SBMT 022100Z 18010KT 130V220 CAVOK 22/16 Q1014,
SBMT,2024-10-02 22:00,69.80,62.60,77.90,170.00,10.00,0.00,30.00,,4.97,,SCT,BKN,,,1700.00,2000.00,,,,,,,,,,69.80,SBMT 022200Z 17010KT 100V230 8000 SCT017 BKN020 21/17 Q1016,
SBMT,2024-10-02 23:00,69.80,60.80,73.09,150.00,10.00,0.00,30.03,,4.97,,SCT,BKN,,,1700.00,2000.00,,,,,,,,,,69.80,SBMT 022300Z 15010KT 110V190 8000 SCT017 BKN020 21/16 Q1017,
SBMT,2024-10-03 00:00,69.80,60.80,73.09,130.00,10.00,0.00,30.03,,4.97,,SCT,BKN,,,1900.00,2300.00,,,,,,,,,,69.80,SBMT 030000Z 13010KT 090V180 8000 SCT019 BKN023 21/16 Q1017,
SBMT,2024-10-03 01:00,69.80,60.80,73.09,120.00,9.00,0.00,30.03,,6.21,,BKN,,,,2100.00,,,,,,,,,,,69.80,SBMT 030100Z 12009KT 090V160 9999 BKN021 21/16 Q1017,
SBMT,2024-10-03 02:00,68.00,59.00,72.92,100.00,9.00,0.00,30.06,,6.21,,BKN,,,,2100.00,,,,,,,,,,,68.00,SBMT 030200Z 10009KT 9999 BKN021 20/15 Q1018,
SBMT,2024-10-03 09:00,66.20,60.80,82.74,120.00,7.00,0.00,30.06,,4.97,,SCT,,,,1500.00,,,,,,,,,,,66.20,COR SBMT 030900Z 12007KT 8000 SCT015 19/16 Q1018,
SBMT,2024-10-03 10:00,68.00,62.60,82.86,120.00,8.00,0.00,30.09,,4.97,,SCT,BKN,,,1500.00,1700.00,,,,,,,,,,68.00,SBMT 031000Z 12008KT 8000 SCT015 BKN017 20/17 Q1019,
SBMT,2024-10-03 11:00,68.00,62.60,82.86,90.00,9.00,0.00,30.09,,4.97,,BKN,,,,1500.00,,,,,,,,,,,68.00,SBMT 031100Z 09009KT 8000 BKN015 20/17 Q1019,
SBMT,2024-10-03 12:00,69.80,62.60,77.90,70.00,10.00,0.00,30.09,,4.97,,BKN,,,,1700.00,,,,,,,,,,,69.80,SBMT 031200Z 07010KT 8000 BKN017 21/17 Q1019,
SBMT,2024-10-03 13:00,69.80,62.60,77.90,130.00,7.00,0.00,30.12,,3.73,,SCT,BKN,,,1700.00,1900.00,,,,,,,,,,69.80,SBMT 031300Z 13007KT 6000 SCT017 BKN019 21/17 Q1020,
SBMT,2024-10-03 14:00,68.00,62.60,82.86,180.00,10.00,0.00,30.12,,4.97,,BKN,,,,1300.00,,,,,,,,,,,68.00,SBMT 031400Z 18010KT 8000 BKN013 20/17 Q1020,
SBMT,2024-10-03 15:00,69.80,62.60,77.90,180.00,10.00,0.00,30.12,,6.21,,SCT,BKN,,,1500.00,1700.00,,,,,,,,,,69.80,SBMT 031500Z 18010KT 9999 SCT015 BKN017 21/17 Q1020,
SBMT,2024-10-03 16:00,68.00,60.80,77.75,150.00,11.00,0.00,30.09,,4.97,,SCT,BKN,,,1500.00,1900.00,,,,,,,,,,68.00,SBMT 031600Z 15011KT 8000 SCT015 BKN019 20/16 Q1019,
SBMT,2024-10-03 17:00,66.20,59.00,77.60,150.00,12.00,0.00,30.09,,6.21,,SCT,BKN,,,1500.00,1700.00,,,,,,,,,,66.20,SBMT 031700Z 15012KT 110V190 9999 SCT015 BKN017 19/15 Q1019,
SBMT,2024-10-03 18:00,66.20,57.20,72.74,160.00,11.00,0.00,30.09,,6.21,,BKN,BKN,,,1500.00,1700.00,,,,,,,,,,66.20,SBMT 031800Z 16011KT 110V190 9999 BKN015 BKN017 19/14 Q1019,
SBMT,2024-10-03 19:00,64.40,55.40,72.56,150.00,11.00,0.00,30.12,,4.97,,BKN,BKN,,,1300.00,1700.00,,,,,,,,,,64.40,SBMT 031900Z 15011KT 110V190 8000 BKN013 BKN017 18/13 Q1020,
SBMT,2024-10-03 20:00,62.60,55.40,77.29,140.00,10.00,0.00,30.12,,6.21,,BKN,BKN,,,1300.00,1500.00,,,,,,,,,,62.60,SBMT 032000Z 14010KT 090V180 9999 BKN013 BKN015 17/13 Q1020,
SBMT,2024-10-03 21:00,62.60,55.40,77.29,150.00,9.00,0.00,30.12,,6.21,,BKN,OVC,,,1300.00,1500.00,,,,,,,,,,62.60,SBMT 032100Z 15009KT 100V180 9999 BKN013 OVC015 17/13 Q1020,
SBMT,2024-10-03 22:00,62.60,55.40,77.29,130.00,9.00,0.00,30.15,,6.21,,BKN,OVC,,,1300.00,1500.00,,,,,,,,,,62.60,SBMT 032200Z 13009KT 100V160 9999 BKN013 OVC015 17/13 Q1021,
SBMT,2024-10-03 23:00,62.60,55.40,77.29,120.00,8.00,0.00,30.18,,6.21,,SCT,OVC,,,1100.00,1300.00,,,,,,,,,,62.60,SBMT 032300Z 12008KT 090V170 9999 SCT011 OVC013 17/13 Q1022,
SBMT,2024-10-04 00:00,60.80,55.40,82.37,110.00,9.00,0.00,30.18,,6.21,,BKN,OVC,,,1100.00,1300.00,,,,,,,,,,60.80,SBMT 040000Z 11009KT 090V160 9999 BKN011 OVC013 16/13 Q1022,
SBMT,2024-10-04 01:00,60.80,55.40,82.37,130.00,10.00,0.00,30.18,,6.21,,OVC,,,,1100.00,,,,,,,,,,,60.80,SBMT 040100Z 13010KT 100V160 9999 OVC011 16/13 Q1022,
SBMT,2024-10-04 02:00,60.80,55.40,82.37,120.00,10.00,0.00,30.18,,6.21,,OVC,,,,1100.00,,,,,,,,,,,60.80,SBMT 040200Z 12010KT 9999 OVC011 16/13 Q1022,
SBMT,2024-10-04 09:00,59.00,57.20,93.74,120.00,9.00,0.00,30.15,,6.21,,OVC,,,,1100.00,,,,,,,,,,,59.00,SBMT 040900Z 12009KT 9999 OVC011 15/14 Q1021,
SBMT,2024-10-04 10:00,60.80,55.40,82.37,120.00,9.00,0.00,30.18,,6.21,,BKN,OVC,,,1300.00,1600.00,,,,,,,,,,60.80,SBMT 041000Z 12009KT 9999 BKN013 OVC016 16/13 Q1022,
SBMT,2024-10-04 11:00,60.80,57.20,87.92,130.00,7.00,0.00,30.18,,6.21,,BKN,OVC,,,1300.00,1600.00,,,,,,,,,,60.80,SBMT 041100Z 13007KT 9999 BKN013 OVC016 16/14 Q1022,
SBMT,2024-10-04 12:00,62.60,57.20,82.50,120.00,6.00,0.00,30.21,,6.21,,OVC,,,,1400.00,,,,,,,,,,,62.60,SBMT 041200Z 12006KT 9999 OVC014 17/14 Q1023,
SBMT,2024-10-04 13:00,60.80,55.40,82.37,140.00,7.00,0.00,30.21,,6.21,,OVC,,,,1500.00,,,,,,,,,,,60.80,SBMT 041300Z 14007KT 9999 OVC015 16/13 Q1023,
SBMT,2024-10-04 14:00,62.60,57.20,82.50,130.00,8.00,0.00,30.21,,6.21,,BKN,BKN,,,1500.00,1800.00,,,,,,,,,,62.60,SBMT 041400Z 13008KT 9999 BKN015 BKN018 17/14 Q1023,
SBMT,2024-10-04 15:00,64.40,57.20,77.45,130.00,8.00,0.00,30.18,,6.21,,OVC,,,,1700.00,,,,,,,,,,,64.40,SBMT 041500Z 13008KT 9999 OVC017 18/14 Q1022,
SBMT,2024-10-04 16:00,62.60,57.20,82.50,150.00,8.00,0.00,30.18,,6.21,,BKN,OVC,,,1500.00,1700.00,,,,,,,,,,62.60,SBMT 041600Z 15008KT 9999 BKN015 OVC017 17/14 Q1022,
SBMT,2024-10-04 17:00,62.60,53.60,72.38,140.00,11.00,0.00,30.18,,4.97,,BKN,,,,1700.00,,,,,,,,,,,62.60,SBMT 041700Z 14011KT 8000 BKN017 17/12 Q1022,
SBMT,2024-10-04 18:00,62.60,53.60,72.38,130.00,11.00,0.00,30.18,,4.97,,BKN,,,,1500.00,,,,,,,,,,,62.60,SBMT 041800Z 13011KT 8000 BKN015 17/12 Q1022,
SBMT,2024-10-04 19:00,62.60,53.60,72.38,140.00,11.00,0.00,30.15,,4.97,,BKN,,,,1500.00,,,,,,,,,,,62.60,SBMT 041900Z 14011KT 8000 BKN015 17/12 Q1021,
SBMT,2024-10-04 20:00,62.60,55.40,77.29,130.00,10.00,0.00,30.18,,4.35,,BKN,,,,1300.00,,,,,,,,,,,62.60,SBMT 042000Z 13010KT 7000 BKN013 17/13 Q1022,
SBMT,2024-10-04 21:00,60.80,53.60,77.14,130.00,10.00,0.00,30.18,,4.35,,BKN,,,,1300.00,,,,,,,,,,,60.80,SBMT 042100Z 13010KT 7000 BKN013 16/12 Q1022,
SBMT,2024-10-04 22:00,60.80,53.60,77.14,130.00,10.00,0.00,30.18,,4.35,,BKN,,,,1300.00,,,,,,,,,,,60.80,SBMT 042200Z 13010KT 7000 BKN013 16/12 Q1022,
SBMT,2024-10-04 23:00,59.00,53.60,82.25,130.00,10.00,0.00,30.21,,6.21,,BKN,,,,1200.00,,,,,,,,,,,59.00,SBMT 042300Z 13010KT 9999 BKN012 15/12 Q1023,
SBMT,2024-10-05 00:00,60.80,53.60,77.14,130.00,10.00,0.00,30.21,,4.35,,BKN,,,,1300.00,,,,,,,,,,,60.80,SBMT 050000Z 13010KT 7000 BKN013 16/12 Q1023,
SBMT,2024-10-05 01:00,60.80,53.60,77.14,100.00,9.00,0.00,30.21,,4.35,,BKN,,,,1300.00,,,,,,,,,,,60.80,SBMT 050100Z 10009KT 7000 BKN013 16/12 Q1023,
SBMT,2024-10-05 02:00,59.00,53.60,82.25,100.00,8.00,0.00,30.21,,3.73,,BKN,,,,1300.00,,,,,,,,,,,59.00,SBMT 050200Z 10008KT 6000 BKN013 15/12 Q1023,
SBMT,2024-10-05 09:00,59.00,53.60,82.25,110.00,10.00,0.00,30.18,,6.21,,BKN,OVC,,,1100.00,1300.00,,,,,,,,,,59.00,SBMT 050900Z 11010KT 9999 BKN011 OVC013 15/12 Q1022,
SBMT,2024-10-05 10:00,60.80,53.60,77.14,110.00,8.00,0.00,30.18,,6.21,,BKN,BKN,,,1100.00,1300.00,,,,,,,,,,60.80,SBMT 051000Z 11008KT 090V150 9999 BKN011 BKN013 16/12 Q1022,
SBMT,2024-10-05 11:00,62.60,53.60,72.38,100.00,9.00,0.00,30.18,,6.21,,FEW,BKN,,,1500.00,1700.00,,,,,,,,,,62.60,SBMT 051100Z 10009KT 070V130 9999 FEW015 BKN017 17/12 Q1022,
SBMT,2024-10-05 12:00,64.40,53.60,67.95,100.00,10.00,0.00,30.18,,6.21,,BKN,,,,2100.00,,,,,,,,,,,64.40,SBMT 051200Z 10010KT 050V120 9999 BKN021 18/12 Q1022,
SBMT,2024-10-05 13:00,68.00,53.60,59.97,90.00,9.00,0.00,30.18,,6.21,,BKN,,,,2300.00,,,,,,,,,,,68.00,SBMT 051300Z 09009KT 050V140 9999 BKN023 20/12 Q1022,
SBMT,2024-10-05 14:00,68.00,55.40,64.04,80.00,9.00,0.00,30.15,,6.21,,BKN,,,,2600.00,,,,,,,,,,,68.00,SBMT 051400Z 08009KT 030V120 9999 BKN026 20/13 Q1021,
SBMT,2024-10-05 15:00,71.60,55.40,56.63,110.00,10.00,0.00,30.12,,6.21,,SCT,,,,3000.00,,,,,,,,,,,71.60,SBMT 051500Z 11010KT 070V150 9999 SCT030 22/13 Q1020,
SBMT,2024-10-05 16:00,73.40,55.40,53.29,120.00,9.00,0.00,30.12,,6.21,,SCT,,,,3600.00,,,,,,,,,,,73.40,SBMT 051600Z 12009KT 040V180 9999 SCT036 23/13 Q1020,
SBMT,2024-10-05 17:00,69.80,59.00,68.55,150.00,11.00,0.00,30.09,,6.21,,SCT,,,,2600.00,,,,,,,,,,,69.80,SBMT 051700Z 15011KT 110V190 9999 SCT026 21/15 Q1019,
SBMT,2024-10-05 18:00,69.80,59.00,68.55,170.00,10.00,0.00,30.09,,6.21,,BKN,,,,2300.00,,,,,,,,,,,69.80,SBMT 051800Z 17010KT 9999 BKN023 21/15 Q1019,
SBMT,2024-10-05 19:00,66.20,59.00,77.60,150.00,10.00,0.00,30.09,,6.21,,BKN,,,,2000.00,,,,,,,,,,,66.20,SBMT 051900Z 15010KT 100V200 9999 BKN020 19/15 Q1019,
SBMT,2024-10-05 20:00,64.40,59.00,82.62,160.00,8.00,0.00,30.09,,6.21,,BKN,,,,1100.00,,,,,,,,,,,64.40,SBMT 052000Z 16008KT 9999 BKN011 18/15 Q1019,
SBMT,2024-10-05 21:00,64.40,57.20,77.45,180.00,8.00,0.00,30.12,,5.59,,OVC,,,,1200.00,,,,,,,,,,,64.40,SBMT 052100Z 18008KT 9000 OVC012 18/14 Q1020,
SBMT,2024-10-05 22:00,62.60,57.20,82.50,140.00,7.00,0.00,30.12,,6.21,,BKN,,,,1200.00,,,,,,,,,,,62.60,SBMT 052200Z 14007KT 9999 BKN012 17/14 Q1020,
SBMT,2024-10-05 23:00,62.60,57.20,82.50,100.00,7.00,0.00,30.12,,6.21,,BKN,,,,1500.00,,,,,,,,,,,62.60,SBMT 052300Z 10007KT 9999 BKN015 17/14 Q1020,
SBMT,2024-10-06 00:00,62.60,57.20,82.50,110.00,7.00,0.00,30.15,,6.21,,OVC,,,,1500.00,,,,,,,,,,,62.60,SBMT 060000Z 11007KT 9999 OVC015 17/14 Q1021,
SBMT,2024-10-06 01:00,62.60,57.20,82.50,110.00,9.00,0.00,30.15,,6.21,,BKN,,,,1500.00,,,,,,,,,,,62.60,SBMT 060100Z 11009KT 9999 BKN015 17/14 Q1021,
SBMT,2024-10-06 02:00,62.60,57.20,82.50,120.00,8.00,0.00,30.15,,6.21,,BKN,,,,1500.00,,,,,,,,,,,62.60,SBMT 060200Z 12008KT 9999 BKN015 17/14 Q1021,
SBMT,2024-10-06 09:00,60.80,53.60,77.14,110.00,5.00,0.00,30.09,,6.21,,BKN,,,,1700.00,,,,,,,,,,,60.80,SBMT 060900Z 11005KT 9999 BKN017 16/12 Q1019,
SBMT,2024-10-06 10:00,60.80,53.60,77.14,70.00,9.00,0.00,30.09,,6.21,,BKN,,,,1500.00,,,,,,,,,,,60.80,SBMT 061000Z 07009KT 9999 BKN015 16/12 Q1019,
SBMT,2024-10-06 11:00,62.60,53.60,72.38,70.00,9.00,0.00,30.09,,4.97,,BKN,,,,1300.00,,,,,,,,,,,62.60,SBMT 061100Z 07009KT 8000 BKN013 17/12 Q1019,
SBMT,2024-10-06 12:00,64.40,55.40,72.56,110.00,8.00,0.00,30.12,,6.21,,BKN,,,,1500.00,,,,,,,,,,,64.40,SBMT 061200Z 11008KT 9999 BKN015 18/13 Q1020,
SBMT,2024-10-06 13:00,68.00,55.40,64.04,60.00,5.00,0.00,30.09,,6.21,,,,,,,,,,,,,,,,,68.00,SBMT 061300Z 06005KT CAVOK 20/13 Q1019,
SBMT,2024-10-06 14:00,71.60,55.40,56.63,120.00,4.00,0.00,30.09,,6.21,,,,,,,,,,,,,,,,,71.60,SBMT 061400Z 12004KT CAVOK 22/13 Q1019,
SBMT,2024-10-06 15:00,73.40,55.40,53.29,120.00,5.00,0.00,30.06,,6.21,,,,,,,,,,,,,,,,,73.40,SBMT 061500Z 12005KT CAVOK 23/13 Q1018,
SBMT,2024-10-06 16:00,77.00,53.60,44.25,210.00,5.00,0.00,30.00,,6.21,,,,,,,,,,,,,,,,,77.00,SBMT 061600Z 21005KT CAVOK 25/12 Q1016,
SBMT,2024-10-06 17:00,80.60,53.60,39.30,,4.00,0.00,30.00,,6.21,,,,,,,,,,,,,,,,,80.29,SBMT 061700Z VRB04KT CAVOK 27/12 Q1016,
SBMT,2024-10-06 18:00,78.80,57.20,47.52,150.00,10.00,0.00,29.97,,6.21,,,,,,,,,,,,,,,,,78.80,SBMT 061800Z 15010KT CAVOK 26/14 Q1015,
SBMT,2024-10-06 19:00,75.20,57.20,53.55,150.00,11.00,0.00,29.97,,6.21,,,,,,,,,,,,,,,,,75.20,SBMT 061900Z 15011KT CAVOK 24/14 Q1015,
SBMT,2024-10-06 20:00,69.80,55.40,60.21,150.00,9.00,0.00,30.00,,6.21,,,,,,,,,,,,,,,,,69.80,SBMT 062000Z 15009KT 110V180 CAVOK 21/13 Q1016,
SBMT,2024-10-06 21:00,66.20,53.60,63.82,140.00,8.00,0.00,30.03,,6.21,,,,,,,,,,,,,,,,,66.20,SBMT 062100Z 14008KT 100V200 CAVOK 19/12 Q1017,
SBMT,2024-10-06 22:00,62.60,55.40,77.29,130.00,7.00,0.00,30.06,,6.21,,SCT,,,,1900.00,,,,,,,,,,,62.60,SBMT 062200Z 13007KT 9999 SCT019 17/13 Q1018,
SBMT,2024-10-06 23:00,62.60,53.60,72.38,150.00,6.00,0.00,30.06,,6.21,,,,,,,,,,,,,,,,,62.60,SBMT 062300Z 15006KT 110V190 CAVOK 17/12 Q1018,
SBMT,2024-10-07 00:00,62.60,53.60,72.38,120.00,8.00,0.00,30.09,,6.21,,,,,,,,,,,,,,,,,62.60,SBMT 070000Z 12008KT CAVOK 17/12 Q1019,
SBMT,2024-10-07 01:00,60.80,53.60,77.14,130.00,8.00,0.00,30.09,,6.21,,FEW,,,,1700.00,,,,,,,,,,,60.80,SBMT 070100Z 13008KT 9999 FEW017 16/12 Q1019,
SBMT,2024-10-07 02:00,60.80,53.60,77.14,130.00,4.00,0.00,30.06,,6.21,,BKN,,,,1700.00,,,,,,,,,,,60.80,SBMT 070200Z 13004KT 110V170 9999 BKN017 16/12 Q1018,
SBMT,2024-10-07 09:00,59.00,53.60,82.25,100.00,9.00,0.00,30.06,,6.21,,BKN,,,,1500.00,,,,,,,,,,,59.00,SBMT 070900Z 10009KT 9999 BKN015 15/12 Q1018,
SBMT,2024-10-07 10:00,60.80,55.40,82.37,110.00,6.00,0.00,30.06,,6.21,,BKN,,,,1500.00,,,,,,,,,,,60.80,SBMT 071000Z 11006KT 9999 BKN015 16/13 Q1018,
SBMT,2024-10-07 11:00,64.40,55.40,72.56,90.00,10.00,0.00,30.09,,6.21,,BKN,,,,1700.00,,,,,,,,,,,64.40,SBMT 071100Z 09010KT 9999 BKN017 18/13 Q1019,
SBMT,2024-10-07 12:00,66.20,55.40,68.15,90.00,9.00,0.00,30.09,,6.21,,,,,,,,,,,,,,,,,66.20,SBMT 071200Z 09009KT CAVOK 19/13 Q1019,
SBMT,2024-10-07 13:00,68.00,55.40,64.04,90.00,12.00,0.00,30.09,,6.21,,,,,,,,,,,,,,,,,68.00,SBMT 071300Z 09012KT CAVOK 20/13 Q1019,
SBMT,2024-10-07 14:00,71.60,53.60,53.03,80.00,9.00,0.00,30.06,,6.21,,,,,,,,,,,,,,,,,71.60,SBMT 071400Z 08009KT CAVOK 22/12 Q1018,
SBMT,2024-10-07 15:00,75.20,51.80,43.97,70.00,8.00,0.00,30.03,,6.21,,,,,,,,,,,,,,,,,75.20,SBMT 071500Z 07008KT CAVOK 24/11 Q1017,
SBMT,2024-10-07 16:00,80.60,50.00,34.41,110.00,8.00,0.00,29.97,,6.21,,,,,,,,,,,,,,,,,79.88,SBMT 071600Z 11008KT CAVOK 27/10 Q1015,
SBMT,2024-10-07 17:00,82.40,44.60,26.49,120.00,8.00,0.00,29.94,,6.21,,,,,,,,,,,,,,,,,80.50,SBMT 071700Z 12008KT CAVOK 28/07 Q1014,
SBMT,2024-10-07 18:00,78.80,57.20,47.52,150.00,11.00,0.00,29.91,,6.21,,,,,,,,,,,,,,,,,78.80,SBMT 071800Z 15011KT CAVOK 26/14 Q1013,
SBMT,2024-10-07 19:00,75.20,55.40,50.17,170.00,11.00,0.00,29.94,,6.21,,,,,,,,,,,,,,,,,75.20,SBMT 071900Z 17011KT CAVOK 24/13 Q1014,
SBMT,2024-10-07 20:00,69.80,57.20,64.26,150.00,10.00,0.00,29.97,,6.21,,,,,,,,,,,,,,,,,69.80,SBMT 072000Z 15010KT CAVOK 21/14 Q1015,
SBMT,2024-10-07 21:00,66.20,57.20,72.74,150.00,9.00,0.00,29.97,,6.21,,FEW,,,,2100.00,,,,,,,,,,,66.20,SBMT 072100Z 15009KT 9999 FEW021 19/14 Q1015,
SBMT,2024-10-07 22:00,62.60,55.40,77.29,140.00,9.00,0.00,30.03,,6.21,,SCT,,,,2100.00,,,,,,,,,,,62.60,SBMT 072200Z 14009KT 100V170 9999 SCT021 17/13 Q1017,
SBMT,2024-10-07 23:00,62.60,57.20,82.50,150.00,9.00,0.00,30.03,,6.21,,BKN,BKN,,,1300.00,1500.00,,,,,,,,,,62.60,SBMT 072300Z 15009KT 9999 BKN013 BKN015 17/14 Q1017,
SBMT,2024-10-08 00:00,62.60,57.20,82.50,110.00,7.00,0.00,30.03,,6.21,,SCT,BKN,,,1500.00,1700.00,,,,,,,,,,62.60,SBMT 080000Z 11007KT 9999 SCT015 BKN017 17/14 Q1017,
SBMT,2024-10-08 01:00,62.60,57.20,82.50,120.00,7.00,0.00,30.03,,6.21,,FEW,,,,1700.00,,,,,,,,,,,62.60,SBMT 080100Z 12007KT 9999 FEW017 17/14 Q1017,
SBMT,2024-10-08 02:00,62.60,55.40,77.29,130.00,6.00,0.00,30.03,,6.21,,,,,,,,,,,,,,,,,62.60,SBMT 080200Z 13006KT CAVOK 17/13 Q1017,
SBMT,2024-10-08 09:00,62.60,57.20,82.50,60.00,7.00,0.00,29.97,,4.97,,BKN,,,,1300.00,,,,,,,,,,,62.60,SBMT 080900Z 06007KT 8000 BKN013 17/14 Q1015,
SBMT,2024-10-08 10:00,62.60,57.20,82.50,80.00,9.00,0.00,29.97,,4.97,,BKN,,,,1300.00,,,,,,,,,,,62.60,SBMT 081000Z 08009KT 8000 BKN013 17/14 Q1015,
SBMT,2024-10-08 11:00,64.40,59.00,82.62,80.00,6.00,0.00,29.97,,4.97,,FEW,,,,1300.00,,,,,,,,,,,64.40,SBMT 081100Z 08006KT 8000 FEW013 18/15 Q1015,
SBMT,2024-10-08 12:00,69.80,59.00,68.55,110.00,6.00,0.00,29.97,,6.21,,,,,,,,,,,,,,,,,69.80,SBMT 081200Z 11006KT CAVOK 21/15 Q1015,
SBMT,2024-10-08 13:00,73.40,59.00,60.67,110.00,4.00,0.00,29.97,,6.21,,,,,,,,,,,,,,,,,73.40,SBMT 081300Z 11004KT CAVOK 23/15 Q1015,
SBMT,2024-10-08 14:00,78.80,59.00,50.69,190.00,2.00,0.00,29.94,,6.21,,,,,,,,,,,,,,,,,78.80,SBMT 081400Z 19002KT CAVOK 26/15 Q1014,
SBMT,2024-10-08 15:00,86.00,60.80,42.80,260.00,3.00,0.00,29.91,,6.21,,,,,,,,,,,,,,,,,86.05,SBMT 081500Z 26003KT CAVOK 30/16 Q1013,
SBMT,2024-10-08 16:00,91.40,57.20,31.72,280.00,11.00,0.00,29.88,,6.21,,,,,,,,,,,,,,,,,90.06,SBMT 081600Z 28011KT CAVOK 33/14 Q1012,
SBMT,2024-10-08 17:00,91.40,59.00,33.84,220.00,7.00,0.00,29.88,,6.21,,,,,,,,,,,,,,,,,90.68,SBMT 081700Z 22007KT 170V250 CAVOK 33/15 Q1012,
SBMT,2024-10-08 18:00,91.40,57.20,31.72,220.00,10.00,0.00,29.88,,6.21,,,,,,,,,,,,,,,,,90.06,SBMT 081800Z 22010KT 170V260 CAVOK 33/14 Q1012,
SBMT,2024-10-08 19:00,73.40,64.40,73.44,140.00,9.00,0.00,29.91,,6.21,,,,,,,,,,,,,,,,,73.40,SBMT 081900Z 14009KT 110V180 CAVOK 23/18 Q1013,
SBMT,2024-10-08 20:00,69.80,62.60,77.90,130.00,9.00,0.00,29.94,,5.59,,FEW,SCT,,,1400.00,1700.00,,,,,,,,,,69.80,SBMT 082000Z 13009KT 110V170 9000 FEW014 SCT017 21/17 Q1014,
SBMT,2024-10-08 21:00,66.20,62.60,88.18,120.00,9.00,0.00,29.97,,3.11,,SCT,BKN,,,1100.00,1300.00,,,BR,,,,,,,66.20,SBMT 082100Z 12009KT 100V160 5000 BR SCT011 BKN013 19/17 Q1015,
SBMT,2024-10-08 22:00,64.40,60.80,88.09,120.00,9.00,0.00,30.00,,3.11,,BKN,BKN,,,1100.00,1300.00,,,BR,,,,,,,64.40,SBMT 082200Z 12009KT 090V150 5000 BR BKN011 BKN013 18/16 Q1016,
SBMT,2024-10-08 23:00,64.40,59.00,82.62,130.00,5.00,0.00,30.00,,3.73,,FEW,BKN,,,1100.00,1300.00,,,,,,,,,,64.40,SBMT 082300Z 13005KT 090V150 6000 FEW011 BKN013 18/15 Q1016,
SBMT,2024-10-09 00:00,64.40,59.00,82.62,110.00,6.00,0.00,30.00,,4.35,,SCT,,,,1500.00,,,,,,,,,,,64.40,SBMT 090000Z 11006KT 7000 SCT015 18/15 Q1016,
SBMT,2024-10-09 01:00,64.40,59.00,82.62,120.00,6.00,0.00,30.03,,5.59,,NSC,,,,,,,,,,,,,,,64.40,SBMT 090100Z 12006KT 090V150 9000 NSC 18/15 Q1017,
SBMT,2024-10-09 02:00,64.40,59.00,82.62,130.00,6.00,0.00,30.03,,5.59,,NSC,,,,,,,,,,,,,,,64.40,SBMT 090200Z 13006KT 9000 NSC 18/15 Q1017,
SBMT,2024-10-09 09:00,62.60,59.00,88.00,100.00,6.00,0.00,30.00,,1.86,,NSC,,,,,,,,BR,,,,,,,62.60,SBMT 090900Z 10006KT 3000 BR NSC 17/15 Q1016,
SBMT,2024-10-09 10:00,62.60,59.00,88.00,80.00,5.00,0.00,30.03,,1.86,,NSC,,,,,,,,BR,,,,,,,62.60,SBMT 091000Z 08005KT 3000 BR NSC 17/15 Q1017,
SBMT,2024-10-09 11:00,66.20,60.80,82.74,90.00,8.00,0.00,30.03,,2.17,,NSC,,,,,,,,BR,,,,,,,66.20,SBMT 091100Z 09008KT 060V120 3500 BR NSC 19/16 Q1017,
SBMT,2024-10-09 12:00,69.80,59.00,68.55,90.00,6.00,0.00,30.06,,3.11,,NSC,,,,,,,,HZ,,,,,,,69.80,SBMT 091200Z 09006KT 050V140 5000 HZ NSC 21/15 Q1018,
SBMT,2024-10-09 13:00,69.80,59.00,68.55,150.00,3.00,0.00,30.09,,3.11,,NSC,,,,,,,,HZ,,,,,,,69.80,SBMT 091300Z 15003KT 5000 HZ NSC 21/15 Q1019,
SBMT,2024-10-09 14:00,69.80,60.80,73.09,130.00,12.00,0.00,30.09,,4.35,,BKN,,,,2000.00,,,,,,,,,,,69.80,SBMT 091400Z 13012KT 100V170 7000 BKN020 21/16 Q1019,
SBMT,2024-10-09 15:00,68.00,60.80,77.75,130.00,10.00,0.00,30.09,,4.35,,BKN,BKN,,,1500.00,2000.00,,,,,,,,,,68.00,SBMT 091500Z 13010KT 7000 BKN015 BKN020 20/16 Q1019,
SBMT,2024-10-09 16:00,66.20,60.80,82.74,140.00,8.00,0.00,30.09,,2.49,,BKN,BKN,,,1200.00,1500.00,,,BR,,,,,,,66.20,SBMT 091600Z 14008KT 100V170 4000 BR BKN012 BKN015 19/16 Q1019,
SBMT,2024-10-09 17:00,66.20,60.80,82.74,140.00,8.00,0.00,30.09,,2.49,,BKN,BKN,,,1100.00,1500.00,,,BR,,,,,,,66.20,SBMT 091700Z 14008KT 100V200 4000 BR BKN011 BKN015 19/16 Q1019,
SBMT,2024-10-09 18:00,66.20,60.80,82.74,140.00,11.00,0.00,30.09,,3.11,,SCT,BKN,OVC,,1100.00,1500.00,2000.00,,BR,,,,,,,66.20,SBMT 091800Z 14011KT 110V170 5000 BR SCT011 BKN015 OVC020 19/16 Q1019,
SBMT,2024-10-09 19:00,66.20,60.80,82.74,140.00,11.00,0.00,30.09,,3.11,,BKN,OVC,,,1500.00,2000.00,,,BR,,,,,,,66.20,SBMT 091900Z 14011KT 5000 BR BKN015 OVC020 19/16 Q1019,
SBMT,2024-10-09 20:00,64.40,59.00,82.62,160.00,10.00,0.00,30.12,,3.11,,BKN,OVC,,,1500.00,2000.00,,,BR,,,,,,,64.40,SBMT 092000Z 16010KT 5000 BR BKN015 OVC020 18/15 Q1020,
SBMT,2024-10-09 21:00,64.40,59.00,82.62,130.00,10.00,0.00,30.12,,3.11,,FEW,BKN,OVC,,1300.00,1500.00,2000.00,,BR,,,,,,,64.40,SBMT 092100Z 13010KT 5000 BR FEW013 BKN015 OVC020 18/15 Q1020,
SBMT,2024-10-09 22:00,64.40,60.80,88.09,130.00,9.00,0.00,30.15,,3.11,,SCT,OVC,,,1300.00,1500.00,,,BR,,,,,,,64.40,SBMT 092200Z 13009KT 5000 BR SCT013 OVC015 18/16 Q1021,
SBMT,2024-10-09 23:00,62.60,60.80,93.83,140.00,6.00,0.00,30.15,,3.11,,BKN,OVC,,,800.00,1200.00,,,-DZ BR,,,,,,,62.60,SBMT 092300Z 14006KT 5000 -DZ BR BKN008 OVC012 17/16 Q1021,
SBMT,2024-10-10 00:00,62.60,60.80,93.83,130.00,8.00,0.00,30.15,,3.11,,BKN,OVC,,,800.00,1200.00,,,BR,,,,,,,62.60,SBMT 100000Z 13008KT 110V170 5000 BR BKN008 OVC012 17/16 Q1021,
SBMT,2024-10-10 01:00,64.40,60.80,88.09,110.00,8.00,0.00,30.12,,3.11,,OVC,,,,800.00,,,,BR,,,,,,,64.40,SBMT 100100Z 11008KT 5000 BR OVC008 18/16 Q1020,
SBMT,2024-10-10 02:00,64.40,60.80,88.09,100.00,9.00,0.00,30.12,,3.11,,OVC,,,,800.00,,,,BR,,,,,,,64.40,SBMT 100200Z 10009KT 5000 BR OVC008 18/16 Q1020,
SBMT,2024-10-10 09:00,64.40,60.80,88.09,70.00,6.00,0.00,30.03,,2.17,,BKN,BKN,,,1100.00,1500.00,,,-DZ BR,,,,,,,64.40,SBMT 100900Z 07006KT 3500 -DZ BR BKN011 BKN015 18/16 Q1017,
SBMT,2024-10-10 10:00,64.40,60.80,88.09,100.00,4.00,0.00,30.06,,2.49,,BKN,BKN,,,1100.00,1500.00,,,BR,,,,,,,64.40,SBMT 101000Z 10004KT 070V170 4000 BR BKN011 BKN015 18/16 Q1018,
SBMT,2024-10-10 11:00,66.20,60.80,82.74,70.00,8.00,0.00,30.06,,3.11,,SCT,BKN,,,1100.00,1300.00,,,BR,,,,,,,66.20,SBMT 101100Z 07008KT 040V110 5000 BR SCT011 BKN013 19/16 Q1018,
SBMT,2024-10-10 12:00,68.00,60.80,77.75,80.00,8.00,0.00,30.06,,4.35,,SCT,BKN,,,1300.00,1700.00,,,,,,,,,,68.00,SBMT 101200Z 08008KT 050V110 7000 SCT013 BKN017 20/16 Q1018,
SBMT,2024-10-10 13:00,69.80,62.60,77.90,80.00,5.00,0.00,30.06,,6.21,,SCT,BKN,,,1300.00,1700.00,,,,,,,,,,69.80,SBMT 101300Z 08005KT 020V150 9999 SCT013 BKN017 21/17 Q1018,
SBMT,2024-10-10 14:00,71.60,62.60,73.27,80.00,4.00,0.00,30.06,,6.21,,BKN,,,,1700.00,,,,,,,,,,,71.60,SBMT 101400Z 08004KT 320V130 9999 BKN017 22/17 Q1018,
SBMT,2024-10-10 15:00,75.20,62.60,64.91,,4.00,0.00,30.03,,6.21,,BKN,,,,2500.00,,,,,,,,,,,75.20,SBMT 101500Z VRB04KT 9999 BKN025 24/17 Q1017,
SBMT,2024-10-10 16:00,77.00,62.60,61.13,,2.00,0.00,30.00,,6.21,,SCT,BKN,,,2500.00,6500.00,,,,,,,,,,77.00,SBMT 101600Z VRB02KT 9999 SCT025 BKN065 25/17 Q1016,
SBMT,2024-10-10 17:00,77.00,62.60,61.13,140.00,4.00,0.00,29.97,,5.59,,SCT,,,,4000.00,,,,,,,,,,,77.00,SBMT 101700Z 14004KT 9000 SCT040 25/17 Q1015,
SBMT,2024-10-10 18:00,77.00,62.60,61.13,90.00,7.00,0.00,29.97,,5.59,,SCT,BKN,,,4000.00,6500.00,,,,,,,,,,77.00,SBMT 101800Z 09007KT 9000 SCT040 BKN065 25/17 Q1015,
SBMT,2024-10-10 19:00,77.00,62.60,61.13,110.00,7.00,0.00,29.97,,5.59,,SCT,BKN,,,3600.00,6000.00,,,,,,,,,,77.00,SBMT 101900Z 11007KT 9000 SCT036 BKN060 25/17 Q1015,
SBMT,2024-10-10 20:00,71.60,64.40,78.04,140.00,7.00,0.00,29.97,,4.97,,FEW,,,,4000.00,,,,,,,,,,,71.60,SBMT 102000Z 14007KT 8000 FEW040 22/18 Q1015,
SBMT,2024-10-10 21:00,69.80,64.40,82.98,160.00,5.00,0.00,29.97,,3.11,,FEW,SCT,,,1300.00,5000.00,,,BR,,,,,,,69.80,SBMT 102100Z 16005KT 5000 BR FEW013 SCT050 21/18 Q1015,
SBMT,2024-10-10 22:00,68.00,64.40,88.26,170.00,6.00,0.00,30.00,,2.80,,OVC,,,,900.00,,,,BR,,,,,,,68.00,SBMT 102200Z 17006KT 4500 BR OVC009 20/18 Q1016,
SBMT,2024-10-10 23:00,68.00,64.40,88.26,130.00,6.00,0.00,30.03,,3.73,,OVC,,,,900.00,,,,,,,,,,,68.00,SBMT 102300Z 13006KT 6000 OVC009 20/18 Q1017,
SBMT,2024-10-11 00:00,66.20,64.40,93.92,160.00,3.00,0.00,30.06,,2.80,,BKN,,,,900.00,,,,+RA BR,,,,,,,66.20,SBMT 110000Z 16003KT 4500 +RA BR BKN009 19/18 Q1018,
SBMT,2024-10-11 01:00,66.20,64.40,93.92,130.00,3.00,0.00,30.06,,3.11,,BKN,,,,700.00,,,,-RA BR,,,,,,,66.20,SBMT 110100Z 13003KT 5000 -RA BR BKN007 19/18 Q1018,
SBMT,2024-10-11 02:00,66.20,64.40,93.92,100.00,3.00,0.00,30.03,,3.11,,SCT,,,,1100.00,,,,BR,,,,,,,66.20,SBMT 110200Z 10003KT 5000 BR SCT011 19/18 Q1017,
SBMT,2024-10-11 09:00,66.20,62.60,88.18,70.00,3.00,0.00,29.97,,2.49,,BKN,BKN,,,700.00,10000.00,,,BR,,,,,,,66.20,SBMT 110900Z 07003KT 4000 BR BKN007 BKN100 19/17 Q1015,
SBMT,2024-10-11 10:00,68.00,64.40,88.26,80.00,4.00,0.00,29.97,,2.49,,BKN,BKN,,,700.00,10000.00,,,BR,,,,,,,68.00,SBMT 111000Z 08004KT 4000 BR BKN007 BKN100 20/18 Q1015,
SBMT,2024-10-11 11:00,68.00,62.60,82.86,70.00,5.00,0.00,29.97,,3.11,,BKN,BKN,,,700.00,10000.00,,,BR,,,,,,,68.00,COR SBMT 111100Z 07005KT 5000 BR BKN007 BKN100 20/17 Q1015,
SBMT,2024-10-11 12:00,68.00,64.40,88.26,70.00,5.00,0.00,29.94,,3.73,,SCT,BKN,,,1000.00,10000.00,,,,,,,,,,68.00,SBMT 111200Z 07005KT 6000 SCT010 BKN100 20/18 Q1014,
SBMT,2024-10-11 13:00,71.60,64.40,78.04,120.00,4.00,0.00,29.97,,3.73,,SCT,BKN,,,1000.00,10000.00,,,,,,,,,,71.60,SBMT 111300Z 12004KT 6000 SCT010 BKN100 22/18 Q1015,
SBMT,2024-10-11 14:00,73.40,66.20,78.19,70.00,3.00,0.00,29.94,,4.97,,SCT,BKN,,,1000.00,10000.00,,,,,,,,,,73.40,SBMT 111400Z 07003KT 8000 SCT010 BKN100 23/19 Q1014,
SBMT,2024-10-11 15:00,77.00,66.20,69.33,340.00,3.00,0.00,29.91,,4.97,,SCT,BKN,,,3000.00,10000.00,,,,,,,,,,77.00,SBMT 111500Z 34003KT 8000 SCT030 BKN100 25/19 Q1013,
SBMT,2024-10-11 16:00,80.60,64.40,57.84,330.00,7.00,0.00,29.88,,6.21,,SCT,BKN,,,3000.00,10000.00,,,,,,,,,,82.27,SBMT 111600Z 33007KT 9999 SCT030 BKN100 27/18 Q1012,
SBMT,2024-10-11 17:00,80.60,66.20,61.58,310.00,5.00,0.00,29.85,,6.21,,SCT,BKN,,,3000.00,10000.00,,,,,,,,,,82.75,SBMT 111700Z 31005KT 9999 SCT030 BKN100 27/19 Q1011,
SBMT,2024-10-11 18:00,82.40,64.40,54.55,320.00,5.00,0.00,29.83,,6.21,,FEW,BKN,,,3000.00,10000.00,,,,,,,,,,83.98,SBMT 111800Z 32005KT 9999 FEW030 BKN100 28/18 Q1010,
SBMT,2024-10-11 19:00,82.40,62.60,51.21,330.00,6.00,0.00,29.83,,6.21,,,,,,,,,,,,,,,,,83.41,SBMT 111900Z 33006KT CAVOK 28/17 Q1010,
SBMT,2024-10-11 20:00,80.60,64.40,57.84,290.00,5.00,0.00,29.83,,6.21,,,,,,,,,,,,,,,,,82.27,SBMT 112000Z 29005KT CAVOK 27/18 Q1010,
SBMT,2024-10-11 21:00,77.00,68.00,73.78,20.00,4.00,0.00,29.85,,6.21,,,,,,,,,,,,,,,,,77.00,SBMT 112100Z 02004KT CAVOK 25/20 Q1011,
SBMT,2024-10-11 22:00,75.20,66.20,73.61,20.00,5.00,0.00,29.85,,6.21,,,,,,,,,,,,,,,,,75.20,SBMT 112200Z 02005KT CAVOK 24/19 Q1011,
SBMT,2024-10-11 23:00,64.40,62.60,93.88,290.00,15.00,0.00,29.94,,0.93,25.00,FEW,BKN,///,,2000.00,10000.00,,,TSRA BR,,,,,,,64.40,SBMT 112300Z 29015G25KT 250V330 1500 TSRA BR FEW020 BKN100 //////CB 18/17 Q1014,
SBMT,2024-10-12 00:00,68.00,64.40,88.26,320.00,6.00,0.00,29.91,,6.21,,SCT,BKN,,,4000.00,10000.00,,,,,,,,,,68.00,SBMT 120000Z 32006KT 280V350 9999 SCT040 BKN100 20/18 Q1013 RETS RETSRA,
SBMT,2024-10-12 01:00,68.00,64.40,88.26,310.00,3.00,0.00,29.91,,6.21,,FEW,BKN,,,4000.00,10000.00,,,,,,,,,,68.00,SBMT 120100Z 31003KT 9999 FEW040 BKN100 20/18 Q1013,
SBMT,2024-10-12 02:00,69.80,62.60,77.90,340.00,4.00,0.00,29.91,,6.21,,FEW,BKN,,,4000.00,10000.00,,,,,,,,,,69.80,SBMT 120200Z 34004KT 9999 FEW040 BKN100 21/17 Q1013,
SBMT,2024-10-12 09:00,68.00,64.40,88.26,300.00,4.00,0.00,29.94,,6.21,,FEW,,,,1300.00,,,,,,,,,,,68.00,SBMT 120900Z 30004KT 270V330 9999 FEW013 20/18 Q1014,
SBMT,2024-10-12 10:00,69.80,64.40,82.98,290.00,7.00,0.00,29.97,,6.21,,,,,,,,,,,,,,,,,69.80,SBMT 121000Z 29007KT CAVOK 21/18 Q1015,
SBMT,2024-10-12 11:00,69.80,64.40,82.98,280.00,7.00,0.00,30.03,,6.21,,BKN,,,,1700.00,,,,,,,,,,,69.80,SBMT 121100Z 28007KT 9999 BKN017 21/18 Q1017,
SBMT,2024-10-12 12:00,71.60,64.40,78.04,280.00,9.00,0.00,30.06,,6.21,,BKN,,,,2000.00,,,,,,,,,,,71.60,SBMT 121200Z 28009KT 9999 BKN020 22/18 Q1018,
SBMT,2024-10-12 13:00,75.20,62.60,64.91,290.00,11.00,0.00,30.06,,6.21,,BKN,,,,2000.00,,,,,,,,,,,75.20,SBMT 121300Z 29011KT 9999 BKN020 24/17 Q1018,
SBMT,2024-10-12 14:00,77.00,60.80,57.36,280.00,7.00,0.00,30.06,,6.21,,BKN,,,,3600.00,,,,,,,,,,,77.00,SBMT 121400Z 28007KT 9999 BKN036 25/16 Q1018,
SBMT,2024-10-12 15:00,77.00,59.00,53.80,290.00,8.00,0.00,30.06,,6.21,,BKN,,,,3600.00,,,,,,,,,,,77.00,SBMT 121500Z 29008KT 9999 BKN036 25/15 Q1018,
SBMT,2024-10-12 16:00,80.60,62.60,54.30,290.00,7.00,0.00,30.03,,6.21,,BKN,,,,4000.00,,,,,,,,,,,81.84,SBMT 121600Z 29007KT 9999 BKN040 27/17 Q1017,
SBMT,2024-10-12 17:00,82.40,59.00,45.07,260.00,6.00,0.00,30.03,,6.21,,BKN,,,,4900.00,,,,,,,,,,,82.46,SBMT 121700Z 26006KT 9999 BKN049 28/15 Q1017,
SBMT,2024-10-12 18:00,75.20,64.40,69.14,150.00,11.00,0.00,30.03,,6.21,,,,,,,,,,,,,,,,,75.20,SBMT 121800Z 15011KT CAVOK 24/18 Q1017,
SBMT,2024-10-12 19:00,71.60,64.40,78.04,170.00,11.00,0.00,30.06,,6.21,,BKN,BKN,,,1700.00,1900.00,,,,,,,,,,71.60,SBMT 121900Z 17011KT 9999 BKN017 BKN019 22/18 Q1018,
SBMT,2024-10-12 20:00,68.00,60.80,77.75,160.00,8.00,0.00,30.09,,6.21,,BKN,BKN,,,1300.00,1500.00,,,,,,,,,,68.00,SBMT 122000Z 16008KT 9999 BKN013 BKN015 20/16 Q1019,
SBMT,2024-10-12 21:00,66.20,60.80,82.74,120.00,10.00,0.00,30.12,,6.21,,SCT,BKN,,,1300.00,1500.00,,,,,,,,,,66.20,SBMT 122100Z 12010KT 9999 SCT013 BKN015 19/16 Q1020,
SBMT,2024-10-12 22:00,66.20,60.80,82.74,160.00,8.00,0.00,30.15,,6.21,,OVC,,,,1500.00,,,,,,,,,,,66.20,SBMT 122200Z 16008KT 9999 OVC015 19/16 Q1021,
SBMT,2024-10-12 23:00,66.20,60.80,82.74,130.00,8.00,0.00,30.18,,6.21,,SCT,BKN,,,1300.00,1500.00,,,,,,,,,,66.20,SBMT 122300Z 13008KT 9999 SCT013 BKN015 19/16 Q1022,
SBMT,2024-10-13 00:00,66.20,60.80,82.74,120.00,7.00,0.00,30.21,,6.21,,BKN,,,,1300.00,,,,,,,,,,,66.20,SBMT 130000Z 12007KT 9999 BKN013 19/16 Q1023,
SBMT,2024-10-13 01:00,66.20,62.60,88.18,120.00,7.00,0.00,30.21,,5.59,,SCT,BKN,,,1100.00,1300.00,,,,,,,,,,66.20,SBMT 130100Z 12007KT 9000 SCT011 BKN013 19/17 Q1023,
SBMT,2024-10-13 02:00,62.60,59.00,88.00,150.00,9.00,0.00,30.24,,6.21,,BKN,,,,900.00,,,,,,,,,,,62.60,SBMT 130200Z 15009KT 9999 BKN009 17/15 Q1024,
SBMT,2024-10-13 09:00,60.80,55.40,82.37,100.00,8.00,0.00,30.27,,4.97,,SCT,BKN,,,1700.00,1900.00,,,,,,,,,,60.80,SBMT 130900Z 10008KT 8000 SCT017 BKN019 16/13 Q1025,
SBMT,2024-10-13 10:00,62.60,57.20,82.50,140.00,8.00,0.00,30.30,,4.97,,FEW,SCT,BKN,,900.00,1900.00,2300.00,,,,,,,,,62.60,SBMT 131000Z 14008KT 8000 FEW009 SCT019 BKN023 17/14 Q1026,
SBMT,2024-10-13 11:00,66.20,57.20,72.74,130.00,9.00,0.00,30.30,,6.21,,BKN,,,,2300.00,,,,,,,,,,,66.20,SBMT 131100Z 13009KT 9999 BKN023 19/14 Q1026,
SBMT,2024-10-13 12:00,68.00,59.00,72.92,130.00,8.00,0.00,30.30,,6.21,,BKN,,,,2100.00,,,,,,,,,,,68.00,SBMT 131200Z 13008KT 9999 BKN021 20/15 Q1026,
SBMT,2024-10-13 13:00,71.60,59.00,64.48,80.00,10.00,0.00,30.30,,6.21,,BKN,,,,2600.00,,,,,,,,,,,71.60,SBMT 131300Z 08010KT 9999 BKN026 22/15 Q1026,
SBMT,2024-10-13 14:00,73.40,59.00,60.67,90.00,11.00,0.00,30.30,,6.21,,BKN,,,,2600.00,,,,,,,,,,,73.40,SBMT 131400Z 09011KT 9999 BKN026 23/15 Q1026,
SBMT,2024-10-13 15:00,75.20,59.00,57.12,80.00,10.00,0.00,30.27,,6.21,,SCT,,,,3600.00,,,,,,,,,,,75.20,SBMT 131500Z 08010KT 9999 SCT036 24/15 Q1025,
SBMT,2024-10-13 16:00,77.00,59.00,53.80,140.00,9.00,0.00,30.24,,6.21,,BKN,,,,4000.00,,,,,,,,,,,77.00,SBMT 131600Z 14009KT 9999 BKN040 25/15 Q1024,
SBMT,2024-10-13 17:00,75.20,60.80,60.90,150.00,13.00,0.00,30.24,,6.21,,FEW,,,,3300.00,,,,,,,,,,,75.20,SBMT 131700Z 15013KT 9999 FEW033 24/16 Q1024,
SBMT,2024-10-13 18:00,68.00,60.80,77.75,170.00,13.00,0.00,30.24,,6.21,,SCT,BKN,,,1500.00,1700.00,,,,,,,,,,68.00,SBMT 131800Z 17013KT 9999 SCT015 BKN017 20/16 Q1024,
SBMT,2024-10-13 19:00,66.20,60.80,82.74,130.00,11.00,0.00,30.24,,6.21,,SCT,BKN,,,1300.00,1500.00,,,,,,,,,,66.20,SBMT 131900Z 13011KT 100V170 9999 SCT013 BKN015 19/16 Q1024,
SBMT,2024-10-13 20:00,64.40,59.00,82.62,150.00,10.00,0.00,30.27,,6.21,,BKN,,,,1300.00,,,,,,,,,,,64.40,SBMT 132000Z 15010KT 9999 BKN013 18/15 Q1025,
SBMT,2024-10-13 21:00,64.40,59.00,82.62,130.00,11.00,0.00,30.30,,6.21,,BKN,,,,1100.00,,,,,,,,,,,64.40,SBMT 132100Z 13011KT 100V180 9999 BKN011 18/15 Q1026,
SBMT,2024-10-13 22:00,64.40,59.00,82.62,130.00,10.00,0.00,30.30,,6.21,,BKN,,,,1100.00,,,,,,,,,,,64.40,SBMT 132200Z 13010KT 9999 BKN011 18/15 Q1026,
SBMT,2024-10-13 23:00,62.60,59.00,88.00,130.00,10.00,0.00,30.33,,6.21,,BKN,,,,1100.00,,,,,,,,,,,62.60,SBMT 132300Z 13010KT 9999 BKN011 17/15 Q1027,
SBMT,2024-10-14 00:00,64.40,59.00,82.62,110.00,4.00,0.00,30.33,,6.21,,OVC,,,,1500.00,,,,,,,,,,,64.40,SBMT 140000Z 11004KT 9999 OVC015 18/15 Q1027,
SBMT,2024-10-14 01:00,64.40,59.00,82.62,100.00,10.00,0.00,30.33,,6.21,,OVC,,,,1500.00,,,,,,,,,,,64.40,SBMT 140100Z 10010KT 9999 OVC015 18/15 Q1027,
SBMT,2024-10-14 02:00,64.40,59.00,82.62,110.00,12.00,0.00,30.33,,6.21,,BKN,,,,1500.00,,,,,,,,,,,64.40,SBMT 140200Z 11012KT 9999 BKN015 18/15 Q1027,
SBMT,2024-10-14 09:00,64.40,57.20,77.45,110.00,9.00,0.00,30.27,,6.21,,OVC,,,,1500.00,,,,,,,,,,,64.40,SBMT 140900Z 11009KT 9999 OVC015 18/14 Q1025,
SBMT,2024-10-14 10:00,64.40,57.20,77.45,100.00,9.00,0.00,30.30,,6.21,,OVC,,,,1500.00,,,,,,,,,,,64.40,SBMT 141000Z 10009KT 9999 OVC015 18/14 Q1026,
SBMT,2024-10-14 11:00,64.40,57.20,77.45,110.00,9.00,0.00,30.33,,6.21,,OVC,,,,1700.00,,,,,,,,,,,64.40,SBMT 141100Z 11009KT 080V140 9999 OVC017 18/14 Q1027,
SBMT,2024-10-14 12:00,66.20,57.20,72.74,100.00,10.00,0.00,30.33,,6.21,,BKN,,,,1900.00,,,,,,,,,,,66.20,SBMT 141200Z 10010KT 060V130 9999 BKN019 19/14 Q1027,
SBMT,2024-10-14 13:00,68.00,57.20,68.35,100.00,9.00,0.00,30.30,,6.21,,BKN,,,,2100.00,,,,,,,,,,,68.00,SBMT 141300Z 10009KT 060V140 9999 BKN021 20/14 Q1026,
SBMT,2024-10-14 14:00,71.60,57.20,60.44,110.00,10.00,0.00,30.30,,6.21,,BKN,,,,2300.00,,,,,,,,,,,71.60,SBMT 141400Z 11010KT 070V140 9999 BKN023 22/14 Q1026,
SBMT,2024-10-14 15:00,75.20,59.00,57.12,110.00,10.00,0.00,30.27,,6.21,,BKN,,,,3000.00,,,,,,,,,,,75.20,SBMT 141500Z 11010KT 080V160 9999 BKN030 24/15 Q1025,
SBMT,2024-10-14 16:00,75.20,59.00,57.12,160.00,9.00,0.00,30.21,,6.21,,FEW,,,,4000.00,,,,,,,,,,,75.20,SBMT 141600Z 16009KT 070V210 9999 FEW040 24/15 Q1023,
SBMT,2024-10-14 17:00,73.40,60.80,64.69,150.00,11.00,0.00,30.21,,6.21,,FEW,,,,4000.00,,,,,,,,,,,73.40,SBMT 141700Z 15011KT 9999 FEW040 23/16 Q1023,
SBMT,2024-10-14 18:00,68.00,59.00,72.92,160.00,8.00,0.00,30.18,,6.21,,BKN,,,,2000.00,,,,,,,,,,,68.00,SBMT 141800Z 16008KT 9999 BKN020 20/15 Q1022,
SBMT,2024-10-14 19:00,66.20,59.00,77.60,180.00,10.00,0.00,30.21,,4.97,,BKN,,,,1300.00,,,,,,,,,,,66.20,SBMT 141900Z 18010KT 8000 BKN013 19/15 Q1023,
SBMT,2024-10-14 20:00,64.40,57.20,77.45,140.00,8.00,0.00,30.21,,3.73,,BKN,,,,1200.00,,,,,,,,,,,64.40,SBMT 142000Z 14008KT 6000 BKN012 18/14 Q1023,
SBMT,2024-10-14 21:00,62.60,57.20,82.50,150.00,8.00,0.00,30.21,,3.73,,BKN,,,,1000.00,,,,,,,,,,,62.60,SBMT 142100Z 15008KT 6000 BKN010 17/14 Q1023,
SBMT,2024-10-14 22:00,62.60,57.20,82.50,150.00,9.00,0.00,30.24,,3.73,,BKN,,,,900.00,,,,,,,,,,,62.60,SBMT 142200Z 15009KT 6000 BKN009 17/14 Q1024,
SBMT,2024-10-14 23:00,62.60,57.20,82.50,140.00,9.00,0.00,30.24,,3.73,,BKN,,,,900.00,,,,,,,,,,,62.60,SBMT 142300Z 14009KT 6000 BKN009 17/14 Q1024,
SBMT,2024-10-15 00:00,62.60,55.40,77.29,140.00,8.00,0.00,30.27,,4.35,,BKN,,,,1300.00,,,,,,,,,,,62.60,SBMT 150000Z 14008KT 7000 BKN013 17/13 Q1025,
SBMT,2024-10-15 01:00,62.60,55.40,77.29,120.00,10.00,0.00,30.27,,4.35,,BKN,,,,1300.00,,,,,,,,,,,62.60,SBMT 150100Z 12010KT 7000 BKN013 17/13 Q1025,
SBMT,2024-10-15 02:00,62.60,55.40,77.29,120.00,12.00,0.00,30.27,,4.35,,BKN,,,,1300.00,,,,,,,,,,,62.60,SBMT 150200Z 12012KT 7000 BKN013 17/13 Q1025,
SBMT,2024-10-15 09:00,62.60,57.20,82.50,90.00,8.00,0.00,31.01,,6.21,,BKN,,,,1500.00,,,,,,,,,,,62.60,SBMT 150900Z 09008KT 9999 BKN015 17/14 Q1050,
SBMT,2024-10-15 10:00,62.60,57.20,82.50,90.00,10.00,0.00,30.18,,6.21,,BKN,,,,1500.00,,,,,,,,,,,62.60,SBMT 151000Z 09010KT 9999 BKN015 17/14 Q1022,
SBMT,2024-10-15 11:00,66.20,57.20,72.74,90.00,9.00,0.00,30.18,,6.21,,BKN,,,,1600.00,,,,,,,,,,,66.20,SBMT 151100Z 09009KT 9999 BKN016 19/14 Q1022,
SBMT,2024-10-15 12:00,68.00,59.00,72.92,90.00,9.00,0.00,30.18,,6.21,,SCT,,,,1800.00,,,,,,,,,,,68.00,SBMT 151200Z 09009KT 9999 SCT018 20/15 Q1022,
SBMT,2024-10-15 13:00,69.80,59.00,68.55,100.00,5.00,0.00,30.15,,6.21,,,,,,,,,,,,,,,,,69.80,SBMT 151300Z 10005KT 050V150 CAVOK 21/15 Q1021,
SBMT,2024-10-15 14:00,73.40,59.00,60.67,100.00,7.00,0.00,30.12,,6.21,,,,,,,,,,,,,,,,,73.40,SBMT 151400Z 10007KT CAVOK 23/15 Q1020,
SBMT,2024-10-15 15:00,77.00,59.00,53.80,150.00,4.00,0.00,30.09,,6.21,,,,,,,,,,,,,,,,,77.00,SBMT 151500Z 15004KT CAVOK 25/15 Q1019,
SBMT,2024-10-15 16:00,80.60,57.20,44.80,140.00,6.00,0.00,30.06,,6.21,,,,,,,,,,,,,,,,,80.81,SBMT 151600Z 14006KT CAVOK 27/14 Q1018,
SBMT,2024-10-15 17:00,80.60,59.00,47.79,150.00,4.00,0.00,30.03,,6.21,,,,,,,,,,,,,,,,,81.11,SBMT 151700Z 15004KT CAVOK 27/15 Q1017,
SBMT,2024-10-15 18:00,80.60,57.20,44.80,140.00,5.00,0.00,30.00,,6.21,,,,,,,,,,,,,,,,,80.81,SBMT 151800Z 14005KT CAVOK 27/14 Q1016,
SBMT,2024-10-15 19:00,80.60,60.80,50.95,170.00,8.00,0.00,30.00,,6.21,,,,,,,,,,,,,,,,,81.46,SBMT 151900Z 17008KT CAVOK 27/16 Q1016,
SBMT,2024-10-15 20:00,75.20,60.80,60.90,140.00,8.00,0.00,30.00,,6.21,,,,,,,,,,,,,,,,,75.20,SBMT 152000Z 14008KT CAVOK 24/16 Q1016,
SBMT,2024-10-15 21:00,71.60,59.00,64.48,150.00,8.00,0.00,30.03,,6.21,,,,,,,,,,,,,,,,,71.60,SBMT 152100Z 15008KT CAVOK 22/15 Q1017,
SBMT,2024-10-15 22:00,66.20,59.00,77.60,160.00,7.00,0.00,30.09,,6.21,,BKN,,,,1500.00,,,,,,,,,,,66.20,SBMT 152200Z 16007KT 9999 BKN015 19/15 Q1019,
SBMT,2024-10-15 23:00,66.20,59.00,77.60,130.00,5.00,0.00,30.09,,4.35,,BKN,,,,1000.00,,,,,,,,,,,66.20,SBMT 152300Z 13005KT 7000 BKN010 19/15 Q1019,
SBMT,2024-10-16 00:00,64.40,57.20,77.45,150.00,5.00,0.00,30.09,,6.21,,BKN,,,,1300.00,,,,,,,,,,,64.40,SBMT 160000Z 15005KT 9999 BKN013 18/14 Q1019,
SBMT,2024-10-16 01:00,64.40,57.20,77.45,120.00,6.00,0.00,30.12,,6.21,,BKN,,,,1300.00,,,,,,,,,,,64.40,SBMT 160100Z 12006KT 9999 BKN013 18/14 Q1020,
SBMT,2024-10-16 02:00,64.40,57.20,77.45,180.00,5.00,0.00,30.09,,6.21,,BKN,,,,1300.00,,,,,,,,,,,64.40,SBMT 160200Z 18005KT 9999 BKN013 18/14 Q1019,
SBMT,2024-10-16 09:00,62.60,57.20,82.50,90.00,5.00,0.00,29.97,,4.97,,NSC,,,,,,,,,,,,,,,62.60,SBMT 160900Z 09005KT 8000 NSC 17/14 Q1015,
SBMT,2024-10-16 10:00,64.40,59.00,82.62,100.00,4.00,0.00,30.00,,4.97,,NSC,,,,,,,,,,,,,,,64.40,SBMT 161000Z 10004KT 040V120 8000 NSC 18/15 Q1016,
SBMT,2024-10-16 11:00,68.00,60.80,77.75,80.00,3.00,0.00,30.03,,6.21,,,,,,,,,,,,,,,,,68.00,SBMT 161100Z 08003KT 010V140 CAVOK 20/16 Q1017,
SBMT,2024-10-16 12:00,75.20,60.80,60.90,,2.00,0.00,30.03,,6.21,,,,,,,,,,,,,,,,,75.20,SBMT 161200Z VRB02KT CAVOK 24/16 Q1017,
SBMT,2024-10-16 13:00,77.00,60.80,57.36,,7.00,0.00,30.03,,6.21,,,,,,,,,,,,,,,,,77.00,SBMT 161300Z VRB07KT CAVOK 25/16 Q1017,
SBMT,2024-10-16 14:00,78.80,60.80,54.05,280.00,10.00,0.00,30.03,,6.21,,,,,,,,,,,,,,,,,78.80,SBMT 161400Z 28010KT CAVOK 26/16 Q1017,
SBMT,2024-10-16 15:00,82.40,60.80,48.05,290.00,9.00,0.00,30.00,,6.21,,,,,,,,,,,,,,,,,82.90,SBMT 161500Z 29009KT 230V330 CAVOK 28/16 Q1016,
SBMT,2024-10-16 16:00,84.20,60.80,45.34,290.00,9.00,0.00,29.97,,6.21,,,,,,,,,,,,,,,,,84.43,SBMT 161600Z 29009KT 260V340 CAVOK 29/16 Q1015,
SBMT,2024-10-16 17:00,86.00,62.60,45.61,260.00,7.00,0.00,29.91,,6.21,,BKN,,,,4000.00,,,,,,,,,,,86.72,SBMT 161700Z 26007KT 230V330 9999 BKN040 30/17 Q1013,
SBMT,2024-10-16 18:00,84.20,60.80,45.34,280.00,8.00,0.00,29.91,,6.21,,BKN,FEW,,,4000.00,5000.00,,,,,,,,,,84.43,SBMT 161800Z 28008KT 9999 BKN040 FEW050TCU 29/16 Q1013,
SBMT,2024-10-16 19:00,82.40,64.40,54.55,140.00,8.00,0.00,29.91,,6.21,,SCT,FEW,,,4000.00,5000.00,,,,,,,,,,83.98,SBMT 161900Z 14008KT 090V170 9999 SCT040 FEW050TCU 28/18 Q1013,
SBMT,2024-10-16 20:00,80.60,64.40,57.84,160.00,8.00,0.00,29.88,,6.21,,FEW,,,,4000.00,,,,,,,,,,,82.27,SBMT 162000Z 16008KT 9999 FEW040 27/18 Q1012,
SBMT,2024-10-16 22:00,71.60,64.40,78.04,100.00,6.00,0.00,29.94,,6.21,,,,,,,,,,,,,,,,,71.60,SBMT 162200Z 10006KT CAVOK 22/18 Q1014,
SBMT,2024-10-16 23:00,71.60,62.60,73.27,160.00,7.00,0.00,30.00,,6.21,,,,,,,,,,,,,,,,,71.60,SBMT 162300Z 16007KT 120V200 CAVOK 22/17 Q1016,
SBMT,2024-10-17 00:00,69.80,62.60,77.90,140.00,6.00,0.00,30.03,,6.21,,SCT,,,,2500.00,,,,,,,,,,,69.80,SBMT 170000Z 14006KT 110V180 9999 SCT025 21/17 Q1017,
SBMT,2024-10-17 01:00,68.00,62.60,82.86,140.00,6.00,0.00,30.03,,6.21,,SCT,,,,2500.00,,,,,,,,,,,68.00,SBMT 170100Z 14006KT 110V180 9999 SCT025 20/17 Q1017,
SBMT,2024-10-17 02:00,68.00,60.80,77.75,140.00,5.00,0.00,30.06,,6.21,,SCT,,,,2500.00,,,,,,,,,,,68.00,SBMT 170200Z 14005KT 110V180 9999 SCT025 20/16 Q1018,
SBMT,2024-10-17 09:00,64.40,59.00,82.62,150.00,4.00,0.00,30.03,,4.97,,BKN,,,,4900.00,,,,,,,,,,,64.40,SBMT 170900Z 15004KT 8000 BKN049 18/15 Q1017,
SBMT,2024-10-17 10:00,66.20,59.00,77.60,130.00,3.00,0.00,30.03,,4.97,,NSC,,,,,,,,,,,,,,,66.20,SBMT 171000Z 13003KT 8000 NSC 19/15 Q1017,
SBMT,2024-10-17 11:00,68.00,59.00,72.92,160.00,3.00,0.00,30.06,,4.97,,NSC,,,,,,,,,,,,,,,68.00,SBMT 171100Z 16003KT 8000 NSC 20/15 Q1018,
SBMT,2024-10-17 12:00,73.40,57.20,56.88,80.00,4.00,0.00,30.06,,6.21,,,,,,,,,,,,,,,,,73.40,SBMT 171200Z 08004KT CAVOK 23/14 Q1018,
SBMT,2024-10-17 13:00,77.00,57.20,50.43,110.00,3.00,0.00,30.06,,6.21,,,,,,,,,,,,,,,,,77.00,SBMT 171300Z 11003KT CAVOK 25/14 Q1018,
SBMT,2024-10-17 14:00,78.80,59.00,50.69,150.00,4.00,0.00,30.03,,6.21,,,,,,,,,,,,,,,,,78.80,SBMT 171400Z 15004KT CAVOK 26/15 Q1017,
SBMT,2024-10-17 15:00,82.40,62.60,51.21,170.00,3.00,0.00,30.00,,6.21,,,,,,,,,,,,,,,,,83.41,SBMT 171500Z 17003KT CAVOK 28/17 Q1016,
SBMT,2024-10-17 16:00,86.00,62.60,45.61,180.00,5.00,0.00,30.00,,6.21,,,,,,,,,,,,,,,,,86.72,SBMT 171600Z 18005KT CAVOK 30/17 Q1016,
SBMT,2024-10-17 17:00,84.20,59.00,42.52,140.00,8.00,0.00,29.94,,6.21,,,,,,,,,,,,,,,,,83.92,SBMT 171700Z 14008KT CAVOK 29/15 Q1014,
SBMT,2024-10-17 18:00,84.20,62.60,48.32,160.00,8.00,0.00,29.94,,6.21,,,,,,,,,,,,,,,,,85.03,SBMT 171800Z 16008KT CAVOK 29/17 Q1014,
SBMT,2024-10-17 19:00,80.60,62.60,54.30,160.00,10.00,0.00,29.94,,6.21,,,,,,,,,,,,,,,,,81.84,SBMT 171900Z 16010KT 130V210 CAVOK 27/17 Q1014,
SBMT,2024-10-17 20:00,75.20,60.80,60.90,140.00,9.00,0.00,29.97,,6.21,,,,,,,,,,,,,,,,,75.20,SBMT 172000Z 14009KT CAVOK 24/16 Q1015,
SBMT,2024-10-17 21:00,69.80,60.80,73.09,140.00,8.00,0.00,30.00,,6.21,,,,,,,,,,,,,,,,,69.80,SBMT 172100Z 14008KT CAVOK 21/16 Q1016,
SBMT,2024-10-17 22:00,66.20,60.80,82.74,140.00,9.00,0.00,30.03,,6.21,,BKN,,,,1700.00,,,,,,,,,,,66.20,SBMT 172200Z 14009KT 9999 BKN017 19/16 Q1017,
SBMT,2024-10-17 23:00,66.20,60.80,82.74,120.00,7.00,0.00,30.03,,6.21,,BKN,,,,1500.00,,,,,,,,,,,66.20,SBMT 172300Z 12007KT 9999 BKN015 19/16 Q1017,
SBMT,2024-10-18 00:00,64.40,59.00,82.62,120.00,7.00,0.00,30.06,,6.21,,BKN,,,,1500.00,,,,,,,,,,,64.40,SBMT 180000Z 12007KT 9999 BKN015 18/15 Q1018,
SBMT,2024-10-18 01:00,64.40,57.20,77.45,100.00,8.00,0.00,30.06,,6.21,,FEW,,,,1700.00,,,,,,,,,,,64.40,SBMT 180100Z 10008KT 9999 FEW017 18/14 Q1018,
SBMT,2024-10-18 02:00,64.40,59.00,82.62,120.00,7.00,0.00,30.06,,6.21,,SCT,,,,1700.00,,,,,,,,,,,64.40,SBMT 180200Z 12007KT 9999 SCT017 18/15 Q1018,
SBMT,2024-10-18 09:00,62.60,57.20,82.50,80.00,5.00,0.00,30.00,,4.97,,NSC,,,,,,,,,,,,,,,62.60,SBMT 180900Z 08005KT 8000 NSC 17/14 Q1016,
SBMT,2024-10-18 10:00,64.40,59.00,82.62,80.00,6.00,0.00,30.00,,4.97,,SCT,,,,1300.00,,,,,,,,,,,64.40,SBMT 181000Z 08006KT 8000 SCT013 18/15 Q1016,
SBMT,2024-10-18 11:00,66.20,60.80,82.74,90.00,6.00,0.00,30.00,,4.97,,SCT,,,,1300.00,,,,,,,,,,,66.20,SBMT 181100Z 09006KT 8000 SCT013 19/16 Q1016,
SBMT,2024-10-18 12:00,69.80,60.80,73.09,90.00,4.00,0.00,30.03,,4.97,,NSC,,,,,,,,,,,,,,,69.80,SBMT 181200Z 09004KT 8000 NSC 21/16 Q1017,
SBMT,2024-10-18 13:00,73.40,60.80,64.69,50.00,6.00,0.00,30.03,,4.97,,NSC,,,,,,,,,,,,,,,73.40,SBMT 181300Z 05006KT 8000 NSC 23/16 Q1017,
SBMT,2024-10-18 14:00,78.80,60.80,54.05,80.00,4.00,0.00,30.00,,6.21,,,,,,,,,,,,,,,,,78.80,SBMT 181400Z 08004KT CAVOK 26/16 Q1016,
SBMT,2024-10-18 15:00,82.40,60.80,48.05,230.00,3.00,0.00,30.00,,6.21,,,,,,,,,,,,,,,,,82.90,SBMT 181500Z 23003KT CAVOK 28/16 Q1016,
SBMT,2024-10-18 16:00,78.80,62.60,57.60,150.00,8.00,0.00,29.97,,4.35,,NSC,,,,,,,,,,,,,,,78.80,SBMT 181600Z 15008KT 7000 NSC 26/17 Q1015,
SBMT,2024-10-18 17:00,77.00,60.80,57.36,150.00,10.00,0.00,29.94,,3.73,,NSC,,,,,,,,,,,,,,,77.00,SBMT 181700Z 15010KT 110V180 6000 NSC 25/16 Q1014,
SBMT,2024-10-18 18:00,69.80,60.80,73.09,140.00,11.00,0.00,29.97,,3.73,,NSC,,,,,,,,,,,,,,,69.80,SBMT 181800Z 14011KT 110V190 6000 NSC 21/16 Q1015,
SBMT,2024-10-18 19:00,68.00,60.80,77.75,150.00,8.00,0.00,29.97,,2.17,,BKN,,,,1300.00,,,,HZ,,,,,,,68.00,SBMT 181900Z 15008KT 130V190 3500 HZ BKN013 20/16 Q1015,
SBMT,2024-10-18 20:00,66.20,59.00,77.60,140.00,7.00,0.00,29.97,,2.17,,FEW,BKN,,,1100.00,1200.00,,,BR,,,,,,,66.20,SBMT 182000Z 14007KT 100V200 3500 BR FEW011 BKN012 19/15 Q1015,
SBMT,2024-10-18 21:00,64.40,59.00,82.62,170.00,8.00,0.00,29.97,,2.17,,BKN,,,,900.00,,,,BR,,,,,,,64.40,SBMT 182100Z 17008KT 110V200 3500 BR BKN009 18/15 Q1015,
SBMT,2024-10-18 22:00,64.40,59.00,82.62,150.00,8.00,0.00,30.00,,2.49,,BKN,,,,1100.00,,,,BR,,,,,,,64.40,SBMT 182200Z 15008KT 110V190 4000 BR BKN011 18/15 Q1016,
SBMT,2024-10-18 23:00,64.40,59.00,82.62,100.00,9.00,0.00,30.03,,2.49,,BKN,,,,1100.00,,,,BR,,,,,,,64.40,SBMT 182300Z 10009KT 060V120 4000 BR BKN011 18/15 Q1017,
SBMT,2024-10-19 00:00,64.40,59.00,82.62,100.00,7.00,0.00,30.03,,6.21,,FEW,BKN,,,1300.00,1600.00,,,,,,,,,,64.40,SBMT 190000Z 10007KT 070V130 9999 FEW013 BKN016 18/15 Q1017,
SBMT,2024-10-19 01:00,66.20,59.00,77.60,90.00,8.00,0.00,30.06,,6.21,,BKN,BKN,,,1500.00,2000.00,,,,,,,,,,66.20,SBMT 190100Z 09008KT 060V130 9999 BKN015 BKN020 19/15 Q1018,
SBMT,2024-10-19 02:00,66.20,57.20,72.74,110.00,9.00,0.00,30.03,,6.21,,BKN,BKN,,,1500.00,2000.00,,,,,,,,,,66.20,SBMT 190200Z 11009KT 090V150 9999 BKN015 BKN020 19/14 Q1017,
SBMT,2024-10-19 09:00,64.40,59.00,82.62,140.00,4.00,0.00,29.97,,4.97,,SCT,BKN,,,1500.00,2100.00,,,,,,,,,,64.40,SBMT 190900Z 14004KT 8000 SCT015 BKN021 18/15 Q1015,
SBMT,2024-10-19 10:00,64.40,59.00,82.62,130.00,4.00,0.00,29.97,,4.35,,SCT,BKN,,,1300.00,1500.00,,,,,,,,,,64.40,SBMT 191000Z 13004KT 7000 SCT013 BKN015 18/15 Q1015,
SBMT,2024-10-19 11:00,64.40,60.80,88.09,150.00,7.00,0.00,30.00,,2.49,,SCT,BKN,,,1300.00,1500.00,,,BR,,,,,,,64.40,SBMT 191100Z 15007KT 4000 BR SCT013 BKN015 18/16 Q1016,
SBMT,2024-10-19 12:00,64.40,60.80,88.09,150.00,6.00,0.00,30.03,,0.62,,BKN,,,,1000.00,,,,BR,,,,,,,64.40,SBMT 191200Z 15006KT 1000 BR BKN010 18/16 Q1017,
SBMT,2024-10-19 13:00,64.40,60.80,88.09,130.00,5.00,0.00,30.03,,3.11,,BKN,,,,900.00,,,,BR,,,,,,,64.40,SBMT 191300Z 13005KT 5000 BR BKN009 18/16 Q1017,
SBMT,2024-10-19 14:00,64.40,62.60,93.88,140.00,4.00,0.00,30.03,,0.62,,BKN,,,,600.00,,,,-RA BR,,,,,,,64.40,SBMT 191400Z 14004KT 1000 -RA BR BKN006 18/17 Q1017,
SBMT,2024-10-19 15:00,62.60,60.80,93.83,140.00,5.00,0.00,30.00,,1.24,,BKN,,,,600.00,,,,RA BR,,,,,,,62.60,SBMT 191500Z 14005KT 2000 RA BR BKN006 17/16 Q1016,
SBMT,2024-10-19 16:00,62.60,60.80,93.83,150.00,6.00,0.00,30.00,,0.62,,BKN,,,,900.00,,,,RA BR,,,,,,,62.60,SBMT 191600Z 15006KT 1000 RA BR BKN009 17/16 Q1016,
SBMT,2024-10-19 17:00,62.60,59.00,88.00,140.00,8.00,0.00,30.00,,6.21,,FEW,BKN,,,1100.00,2000.00,,,-DZ,,,,,,,62.60,SBMT 191700Z 14008KT 9999 -DZ FEW011 BKN020 17/15 Q1016 RERA,
SBMT,2024-10-19 18:00,60.80,59.00,93.79,160.00,7.00,0.00,29.97,,6.21,,SCT,BKN,,,1100.00,1500.00,,,-DZ,,,,,,,60.80,SBMT 191800Z 16007KT 9999 -DZ SCT011 BKN015 16/15 Q1015,
SBMT,2024-10-19 19:00,60.80,57.20,87.92,160.00,6.00,0.00,29.97,,6.21,,BKN,BKN,,,900.00,1500.00,,,-RA,,,,,,,60.80,SBMT 191900Z 16006KT 100V200 9999 -RA BKN009 BKN015 16/14 Q1015,
SBMT,2024-10-19 20:00,60.80,57.20,87.92,140.00,8.00,0.00,29.97,,6.21,,BKN,BKN,,,900.00,1500.00,,,-DZ,,,,,,,60.80,SBMT 192000Z 14008KT 100V190 9999 -DZ BKN009 BKN015 16/14 Q1015,
SBMT,2024-10-19 21:00,59.00,55.40,87.83,150.00,8.00,0.00,30.00,,6.21,,BKN,BKN,,,900.00,1300.00,,,-DZ,,,,,,,59.00,SBMT 192100Z 15008KT 120V190 9999 -DZ BKN009 BKN013 15/13 Q1016,
SBMT,2024-10-19 22:00,59.00,55.40,87.83,150.00,6.00,0.00,30.00,,6.21,,BKN,BKN,,,900.00,1300.00,,,-RA,,,,,,,59.00,SBMT 192200Z 15006KT 110V190 9999 -RA BKN009 BKN013 15/13 Q1016,
SBMT,2024-10-19 23:00,57.20,55.40,93.69,120.00,7.00,0.00,30.00,,6.21,,SCT,BKN,,,900.00,1300.00,,,-DZ,,,,,,,57.20,SBMT 192300Z 12007KT 9999 -DZ SCT009 BKN013 14/13 Q1016,
SBMT,2024-10-20 00:00,57.20,55.40,93.69,130.00,5.00,0.00,30.03,,6.21,,SCT,BKN,,,900.00,1300.00,,,-RA,,,,,,,57.20,SBMT 200000Z 13005KT 9999 -RA SCT009 BKN013 14/13 Q1017,
SBMT,2024-10-20 01:00,57.20,57.20,100.00,110.00,6.00,0.00,30.03,,6.21,,SCT,BKN,,,900.00,1300.00,,,-RA,,,,,,,57.20,SBMT 200100Z 11006KT 090V150 9999 -RA SCT009 BKN013 14/14 Q1017,
SBMT,2024-10-20 02:00,57.20,57.20,100.00,90.00,7.00,0.00,30.00,,6.21,,BKN,BKN,,,900.00,1300.00,,,-RA,,,,,,,57.20,SBMT 200200Z 09007KT 9999 -RA BKN009 BKN013 14/14 Q1016,
SBMT,2024-10-20 09:00,60.80,57.20,87.92,120.00,8.00,0.00,29.97,,6.21,,OVC,,,,1000.00,,,,,,,,,,,60.80,SBMT 200900Z 12008KT 9999 OVC010 16/14 Q1015,
SBMT,2024-10-20 10:00,60.80,59.00,93.79,120.00,5.00,0.00,30.00,,5.59,,OVC,,,,1000.00,,,,-RA,,,,,,,60.80,SBMT 201000Z 12005KT 9000 -RA OVC010 16/15 Q1016,
SBMT,2024-10-20 11:00,60.80,59.00,93.79,120.00,7.00,0.00,30.03,,5.59,,OVC,,,,1000.00,,,,-RA,,,,,,,60.80,SBMT 201100Z 12007KT 9000 -RA OVC010 16/15 Q1017,
SBMT,2024-10-20 12:00,60.80,59.00,93.79,130.00,8.00,0.00,30.03,,4.97,,OVC,,,,900.00,,,,-RA,,,,,,,60.80,SBMT 201200Z 13008KT 8000 -RA OVC009 16/15 Q1017,
SBMT,2024-10-20 13:00,62.60,59.00,88.00,130.00,8.00,0.00,30.06,,5.59,,OVC,,,,1000.00,,,,-RA,,,,,,,62.60,SBMT 201300Z 13008KT 9000 -RA OVC010 17/15 Q1018,
SBMT,2024-10-20 14:00,62.60,60.80,93.83,110.00,8.00,0.00,30.06,,5.59,,BKN,OVC,,,1000.00,1900.00,,,-DZ,,,,,,,62.60,SBMT 201400Z 11008KT 9000 -DZ BKN010 OVC019 17/16 Q1018,
SBMT,2024-10-20 15:00,64.40,60.80,88.09,120.00,8.00,0.00,30.03,,6.21,,BKN,OVC,,,1100.00,1800.00,,,,,,,,,,64.40,SBMT 201500Z 12008KT 9999 BKN011 OVC018 18/16 Q1017,
SBMT,2024-10-20 16:00,64.40,60.80,88.09,130.00,7.00,0.00,30.00,,6.21,,OVC,,,,1100.00,,,,,,,,,,,64.40,SBMT 201600Z 13007KT 9999 OVC011 18/16 Q1016,
SBMT,2024-10-20 17:00,64.40,60.80,88.09,130.00,6.00,0.00,30.00,,6.21,,OVC,,,,1100.00,,,,,,,,,,,64.40,SBMT 201700Z 13006KT 9999 OVC011 18/16 Q1016,
SBMT,2024-10-20 18:00,64.40,60.80,88.09,150.00,6.00,0.00,30.00,,6.21,,OVC,,,,1100.00,,,,,,,,,,,64.40,SBMT 201800Z 15006KT 9999 OVC011 18/16 Q1016,
SBMT,2024-10-20 19:00,62.60,60.80,93.83,140.00,7.00,0.00,30.00,,6.21,,BKN,,,,900.00,,,,,,,,,,,62.60,SBMT 201900Z 14007KT 9999 BKN009 17/16 Q1016,
SBMT,2024-10-20 20:00,62.60,60.80,93.83,120.00,6.00,0.00,30.00,,0.62,,BKN,,,,900.00,,,,-DZ BR,,,,,,,62.60,SBMT 202000Z 12006KT 1000 -DZ BR BKN009 17/16 Q1016,
SBMT,2024-10-20 21:00,62.60,60.80,93.83,130.00,6.00,0.00,30.00,,2.49,,BKN,,,,900.00,,,,BR,,,,,,,62.60,SBMT 202100Z 13006KT 4000 BR BKN009 17/16 Q1016,
SBMT,2024-10-20 22:00,64.40,60.80,88.09,130.00,7.00,0.00,30.03,,4.97,,BKN,,,,900.00,,,,,,,,,,,64.40,SBMT 202200Z 13007KT 8000 BKN009 18/16 Q1017,
SBMT,2024-10-20 23:00,62.60,60.80,93.83,130.00,6.00,0.00,30.06,,0.62,,BKN,,,,800.00,,,,BR,,,,,,,62.60,SBMT 202300Z 13006KT 1000 BR BKN008 17/16 Q1018,
SBMT,2024-10-21 00:00,62.60,60.80,93.83,130.00,5.00,0.00,30.06,,4.97,,BKN,,,,900.00,,,,,,,,,,,62.60,SBMT 210000Z 13005KT 8000 BKN009 17/16 Q1018,
SBMT,2024-10-21 01:00,64.40,60.80,88.09,130.00,7.00,0.00,30.09,,4.97,,BKN,,,,900.00,,,,,,,,,,,64.40,SBMT 210100Z 13007KT 8000 BKN009 18/16 Q1019,
SBMT,2024-10-21 02:00,64.40,60.80,88.09,120.00,6.00,0.00,30.09,,4.97,,BKN,,,,900.00,,,,,,,,,,,64.40,SBMT 210200Z 12006KT 8000 BKN009 18/16 Q1019,
SBMT,2024-10-21 09:00,62.60,59.00,88.00,100.00,6.00,0.00,30.06,,6.21,,FEW,BKN,,,1000.00,2000.00,,,,,,,,,,62.60,SBMT 210900Z 10006KT 9999 FEW010 BKN020 17/15 Q1018,
SBMT,2024-10-21 10:00,64.40,59.00,82.62,90.00,7.00,0.00,30.09,,6.21,,SCT,BKN,,,1000.00,2000.00,,,,,,,,,,64.40,SBMT 211000Z 09007KT 9999 SCT010 BKN020 18/15 Q1019,
SBMT,2024-10-21 11:00,66.20,59.00,77.60,100.00,9.00,0.00,30.12,,6.21,,BKN,,,,1500.00,,,,,,,,,,,66.20,SBMT 211100Z 10009KT 9999 BKN015 19/15 Q1020,
SBMT,2024-10-21 12:00,68.00,59.00,72.92,80.00,10.00,0.00,30.12,,6.21,,BKN,,,,2000.00,,,,,,,,,,,68.00,SBMT 211200Z 08010KT 9999 BKN020 20/15 Q1020,
SBMT,2024-10-21 13:00,69.80,59.00,68.55,80.00,10.00,0.00,30.15,,6.21,,BKN,,,,2000.00,,,,,,,,,,,69.80,SBMT 211300Z 08010KT 9999 BKN020 21/15 Q1021,
SBMT,2024-10-21 14:00,71.60,60.80,68.75,70.00,11.00,0.00,30.15,,6.21,,BKN,,,,2000.00,,,,,,,,,,,71.60,SBMT 211400Z 07011KT 9999 BKN020 22/16 Q1021,
SBMT,2024-10-21 15:00,73.40,60.80,64.69,70.00,8.00,0.00,30.12,,6.21,,BKN,,,,2500.00,,,,,,,,,,,73.40,SBMT 211500Z 07008KT 9999 BKN025 23/16 Q1020,
SBMT,2024-10-21 16:00,73.40,60.80,64.69,90.00,9.00,0.00,30.12,,6.21,,BKN,SCT,,,2500.00,4000.00,,,,,,,,,,73.40,SBMT 211600Z 09009KT 9999 BKN025 SCT040 23/16 Q1020,
SBMT,2024-10-21 17:00,75.20,62.60,64.91,90.00,7.00,0.00,30.09,,6.21,,FEW,BKN,,,3000.00,4900.00,,,,,,,,,,75.20,SBMT 211700Z 09007KT 9999 FEW030 BKN049 24/17 Q1019,
SBMT,2024-10-21 18:00,77.00,64.40,65.12,70.00,7.00,0.00,30.06,,6.21,,BKN,BKN,,,3300.00,5000.00,,,,,,,,,,77.00,SBMT 211800Z 07007KT 9999 BKN033 BKN050 25/18 Q1018,
SBMT,2024-10-21 19:00,73.40,66.20,78.19,140.00,7.00,0.00,30.06,,6.21,,SCT,BKN,,,3000.00,5000.00,,,,,,,,,,73.40,SBMT 211900Z 14007KT 9999 SCT030 BKN050 23/19 Q1018,
SBMT,2024-10-21 20:00,71.60,66.20,83.09,140.00,7.00,0.00,30.06,,6.21,,BKN,,,,3000.00,,,,,,,,,,,71.60,SBMT 212000Z 14007KT 9999 BKN030 22/19 Q1018,
SBMT,2024-10-21 21:00,71.60,66.20,83.09,130.00,6.00,0.00,30.06,,6.21,,FEW,SCT,BKN,,2300.00,5000.00,10000.00,,,,,,,,,71.60,SBMT 212100Z 13006KT 100V170 9999 FEW023 SCT050 BKN100 22/19 Q1018,
SBMT,2024-10-21 22:00,71.60,66.20,83.09,110.00,4.00,0.00,30.09,,6.21,,FEW,BKN,,,2300.00,10000.00,,,,,,,,,,71.60,SBMT 212200Z 11004KT 9999 FEW023 BKN100 22/19 Q1019,
SBMT,2024-10-21 23:00,69.80,66.20,88.34,90.00,4.00,0.00,30.09,,6.21,,,,,,,,,,,,,,,,,69.80,SBMT 212300Z 09004KT CAVOK 21/19 Q1019,
SBMT,2024-10-22 00:00,69.80,66.20,88.34,100.00,4.00,0.00,30.12,,6.21,,,,,,,,,,,,,,,,,69.80,SBMT 220000Z 10004KT CAVOK 21/19 Q1020,
SBMT,2024-10-22 01:00,69.80,66.20,88.34,100.00,6.00,0.00,30.12,,6.21,,,,,,,,,,,,,,,,,69.80,SBMT 220100Z 10006KT CAVOK 21/19 Q1020,
SBMT,2024-10-22 02:00,69.80,64.40,82.98,70.00,7.00,0.00,30.12,,6.21,,,,,,,,,,,,,,,,,69.80,SBMT 220200Z 07007KT CAVOK 21/18 Q1020,
SBMT,2024-10-22 09:00,68.00,66.20,93.97,,2.00,0.00,30.12,,6.21,,,,,,,,,,,,,,,,,68.00,SBMT 220900Z VRB02KT CAVOK 20/19 Q1020,
SBMT,2024-10-22 10:00,69.80,66.20,88.34,70.00,2.00,0.00,30.15,,6.21,,,,,,,,,,,,,,,,,69.80,SBMT 221000Z 07002KT CAVOK 21/19 Q1021,
SBMT,2024-10-22 11:00,73.40,66.20,78.19,90.00,3.00,0.00,30.15,,6.21,,,,,,,,,,,,,,,,,73.40,SBMT 221100Z 09003KT 050V150 CAVOK 23/19 Q1021,
SBMT,2024-10-22 12:00,78.80,66.20,65.33,,3.00,0.00,30.15,,6.21,,,,,,,,,,,,,,,,,78.80,SBMT 221200Z VRB03KT CAVOK 26/19 Q1021,
SBMT,2024-10-22 13:00,80.60,66.20,61.58,320.00,7.00,0.00,30.12,,6.21,,FEW,,,,3300.00,,,,,,,,,,,82.75,SBMT 221300Z 32007KT 270V060 9999 FEW033 27/19 Q1020,
SBMT,2024-10-22 14:00,82.40,66.20,58.08,30.00,7.00,0.00,30.12,,6.21,,FEW,,,,3300.00,,,,,,,,,,,84.63,SBMT 221400Z 03007KT 330V070 9999 FEW033 28/19 Q1020,
SBMT,2024-10-22 15:00,84.20,64.40,51.47,330.00,7.00,0.00,30.09,,6.21,,SCT,,,,3300.00,,,,,,,,,,,85.71,SBMT 221500Z 33007KT 290V020 9999 SCT033 29/18 Q1019,
SBMT,2024-10-22 16:00,84.20,66.20,54.80,320.00,6.00,0.00,30.06,,6.21,,BKN,,,,4000.00,,,,,,,,,,,86.50,SBMT 221600Z 32006KT 270V010 9999 BKN040 29/19 Q1018,
SBMT,2024-10-22 17:00,86.00,62.60,45.61,320.00,5.00,0.00,30.03,,6.21,,BKN,,,,4000.00,,,,,,,,,,,86.72,SBMT 221700Z 32005KT 9999 BKN040 30/17 Q1017,
SBMT,2024-10-22 18:00,86.00,60.80,42.80,310.00,5.00,0.00,30.00,,6.21,,BKN,,,,4000.00,,,,,,,,,,,86.05,SBMT 221800Z 31005KT 9999 BKN040 30/16 Q1016,
SBMT,2024-10-22 19:00,80.60,66.20,61.58,150.00,9.00,0.00,30.00,,6.21,,BKN,,,,4500.00,,,,,,,,,,,82.75,SBMT 221900Z 15009KT 9999 BKN045 27/19 Q1016,
SBMT,2024-10-22 20:00,80.60,64.40,57.84,140.00,10.00,0.00,30.00,,6.21,,BKN,,,,4500.00,,,,,,,,,,,82.27,SBMT 222000Z 14010KT 9999 BKN045 27/18 Q1016,
SBMT,2024-10-22 21:00,77.00,66.20,69.33,120.00,7.00,0.00,30.03,,4.97,,BKN,FEW,,,4000.00,4500.00,,,,,,,,,,77.00,SBMT 222100Z 12007KT 8000 BKN040 FEW045TCU 25/19 Q1017 RERA,
SBMT,2024-10-22 22:00,75.20,66.20,73.61,110.00,6.00,0.00,30.03,,6.21,,SCT,,,,4500.00,,,,,,,,,,,75.20,SBMT 222200Z 11006KT 9999 SCT045 24/19 Q1017,
SBMT,2024-10-22 23:00,75.20,64.40,69.14,150.00,4.00,0.00,30.03,,6.21,,SCT,,,,4500.00,,,,,,,,,,,75.20,SBMT 222300Z 15004KT 9999 SCT045 24/18 Q1017,
SBMT,2024-10-23 00:00,75.20,64.40,69.14,80.00,4.00,0.00,30.06,,6.21,,SCT,,,,4500.00,,,,,,,,,,,75.20,SBMT 230000Z 08004KT 9999 SCT045 24/18 Q1018,
SBMT,2024-10-23 01:00,75.20,62.60,64.91,130.00,3.00,0.00,30.06,,6.21,,SCT,,,,4500.00,,,,,,,,,,,75.20,SBMT 230100Z 13003KT 9999 SCT045 24/17 Q1018,
SBMT,2024-10-23 02:00,75.20,62.60,64.91,90.00,4.00,0.00,30.06,,6.21,,SCT,,,,4500.00,,,,,,,,,,,75.20,SBMT 230200Z 09004KT 9999 SCT045 24/17 Q1018,
SBMT,2024-10-23 09:00,69.80,68.00,94.01,340.00,5.00,0.00,30.03,,2.49,,BKN,,,,4900.00,,,,RA BR,,,,,,,69.80,SBMT 230900Z 34005KT 4000 RA BR BKN049 21/20 Q1017,
SBMT,2024-10-23 10:00,71.60,69.80,94.06,250.00,3.00,0.00,30.03,,6.21,,SCT,,,,4900.00,,,,,,,,,,,71.60,SBMT 231000Z 25003KT 9999 SCT049 22/21 Q1017 RERA,
SBMT,2024-10-23 11:00,73.40,69.80,88.51,160.00,2.00,0.00,30.03,,6.21,,,,,,,,,,,,,,,,,73.40,SBMT 231100Z 16002KT CAVOK 23/21 Q1017,
SBMT,2024-10-23 12:00,75.20,69.80,83.32,270.00,2.00,0.00,30.03,,6.21,,SCT,BKN,,,3000.00,3600.00,,,,,,,,,,75.20,SBMT 231200Z 27002KT 9999 SCT030 BKN036 24/21 Q1017,
SBMT,2024-10-23 13:00,73.40,69.80,88.51,290.00,2.00,0.00,30.03,,4.35,,SCT,BKN,,,3000.00,4900.00,,,,,,,,,,73.40,SBMT 231300Z 29002KT 7000 SCT030 BKN049 23/21 Q1017,
SBMT,2024-10-23 14:00,77.00,71.60,83.44,0.00,0.00,0.00,30.03,,6.21,,,,,,,,,,,,,,,,,77.00,SBMT 231400Z 00000KT CAVOK 25/22 Q1017,
SBMT,2024-10-23 15:00,78.80,71.60,78.62,130.00,2.00,0.00,29.97,,6.21,,SCT,,,,2100.00,,,,,,,,,,,78.80,SBMT 231500Z 13002KT 9999 SCT021 26/22 Q1015,
SBMT,2024-10-23 16:00,80.60,68.00,65.54,40.00,3.00,0.00,29.94,,6.21,,SCT,,,,3000.00,,,,,,,,,,,83.29,SBMT 231600Z 04003KT 9999 SCT030 27/20 Q1014,
SBMT,2024-10-23 17:00,82.40,69.80,65.74,260.00,4.00,0.00,29.94,,6.21,,BKN,,,,3000.00,,,,,,,,,,,86.22,SBMT 231700Z 26004KT 220V300 9999 BKN030 28/21 Q1014,
SBMT,2024-10-23 18:00,80.60,71.60,74.11,200.00,4.00,0.00,29.88,,6.21,,SCT,BKN,,,3000.00,8000.00,,,,,,,,,,84.57,SBMT 231800Z 20004KT 9999 SCT030 BKN080 27/22 Q1012,
SBMT,2024-10-23 19:00,80.60,69.80,69.71,260.00,4.00,0.00,29.88,,6.21,,BKN,BKN,,,3000.00,8000.00,,,,,,,,,,83.90,SBMT 231900Z 26004KT 9999 BKN030 BKN080 27/21 Q1012,
SBMT,2024-10-23 20:00,77.00,69.80,78.48,170.00,3.00,0.00,29.88,,6.21,,SCT,BKN,,,3000.00,8000.00,,,,,,,,,,77.00,SBMT 232000Z 17003KT 9999 SCT030 BKN080 25/21 Q1012,
SBMT,2024-10-23 21:00,68.00,66.20,93.97,110.00,13.00,0.00,29.94,,0.62,,BKN,BKN,///,,700.00,2000.00,,,+TSRA,,,,,,,68.00,SBMT 232100Z 11013KT 070V130 1000 +TSRA BKN007 BKN020 //////CB 20/19 Q1014 RERA,
SBMT,2024-10-23 22:00,68.00,66.20,93.97,70.00,2.00,0.00,29.94,,6.21,,FEW,BKN,,,2000.00,10000.00,,,,,,,,,,68.00,SBMT 232200Z 07002KT 9999 FEW020 BKN100 20/19 Q1014 RETSRA,
SBMT,2024-10-23 23:00,68.00,66.20,93.97,70.00,3.00,0.00,29.97,,6.21,,SCT,BKN,,,1100.00,10000.00,,,-RA,,,,,,,68.00,SBMT 232300Z 07003KT 9999 -RA SCT011 BKN100 20/19 Q1015,
SBMT,2024-10-24 00:00,69.80,68.00,94.01,0.00,0.00,0.00,29.97,,6.21,,BKN,BKN,,,900.00,10000.00,,,-DZ,,,,,,,69.80,SBMT 240000Z 00000KT 9999 -DZ BKN009 BKN100 21/20 Q1015,
SBMT,2024-10-24 01:00,69.80,68.00,94.01,140.00,4.00,0.00,30.00,,6.21,,BKN,BKN,,,900.00,10000.00,,,-RA,,,,,,,69.80,SBMT 240100Z 14004KT 100V170 9999 -RA BKN009 BKN100 21/20 Q1016,
SBMT,2024-10-24 02:00,68.00,68.00,100.00,190.00,3.00,0.00,30.00,,6.21,,BKN,BKN,,,900.00,10000.00,,,-RA,,,,,,,68.00,SBMT 240200Z 19003KT 9999 -RA BKN009 BKN100 20/20 Q1016,
SBMT,2024-10-24 09:00,69.80,64.40,82.98,350.00,3.00,0.00,29.88,,6.21,,,,,,,,,,,,,,,,,69.80,SBMT 240900Z 35003KT CAVOK 21/18 Q1012,
SBMT,2024-10-24 10:00,71.60,66.20,83.09,290.00,2.00,0.00,29.91,,6.21,,,,,,,,,,,,,,,,,71.60,SBMT 241000Z 29002KT CAVOK 22/19 Q1013,
SBMT,2024-10-24 11:00,73.40,64.40,73.44,280.00,3.00,0.00,29.91,,6.21,,,,,,,,,,,,,,,,,73.40,SBMT 241100Z 28003KT CAVOK 23/18 Q1013,
SBMT,2024-10-24 12:00,75.20,62.60,64.91,330.00,4.00,0.00,29.91,,6.21,,,,,,,,,,,,,,,,,75.20,SBMT 241200Z 33004KT CAVOK 24/17 Q1013,
SBMT,2024-10-24 13:00,73.40,64.40,73.44,280.00,17.00,0.00,29.94,,6.21,,BKN,BKN,,,2500.00,3300.00,,,,,,,,,,73.40,SBMT 241300Z 28017KT 9999 BKN025 BKN033 23/18 Q1014,
SBMT,2024-10-24 14:00,71.60,64.40,78.04,310.00,7.00,0.00,29.91,,6.21,,SCT,BKN,///,,2500.00,8000.00,,,-TSRA,,,,,,,71.60,SBMT 241400Z 31007KT 9999 -TSRA SCT025 BKN080 //////CB 22/18 Q1013,
SBMT,2024-10-24 15:00,75.20,64.40,69.14,320.00,9.00,0.00,29.85,,6.21,,FEW,BKN,,,2500.00,8000.00,,,,,,,,,,75.20,SBMT 241500Z 32009KT 9999 FEW025 BKN080 24/18 Q1011 RETS,
SBMT,2024-10-24 16:00,80.60,69.80,69.71,290.00,10.00,0.00,29.83,,6.21,,FEW,FEW,BKN,,2500.00,4000.00,8000.00,,,,,,,,,83.90,SBMT 241600Z 29010KT 9999 FEW025 FEW040TCU BKN080 27/21 Q1010,
SBMT,2024-10-24 17:00,82.40,68.00,61.81,310.00,11.00,0.00,29.80,,6.21,,FEW,,,,3300.00,,,,,,,,,,,85.38,SBMT 241700Z 31011KT 9999 FEW033 28/20 Q1009,
SBMT,2024-10-24 18:00,84.20,68.00,58.32,300.00,10.00,0.00,29.74,,6.21,,SCT,,,,4000.00,,,,,,,,,,,87.40,SBMT 241800Z 30010KT 9999 SCT040 29/20 Q1007,
SBMT,2024-10-24 19:00,84.20,66.20,54.80,320.00,8.00,0.00,29.74,,6.21,,BKN,,,,4900.00,,,,,,,,,,,86.50,SBMT 241900Z 32008KT 9999 BKN049 29/19 Q1007,
SBMT,2024-10-24 20:00,82.40,66.20,58.08,310.00,7.00,0.00,29.74,,6.21,,SCT,,,,4000.00,,,,,,,,,,,84.63,SBMT 242000Z 31007KT 9999 SCT040 28/19 Q1007,
SBMT,2024-10-24 21:00,80.60,66.20,61.58,10.00,7.00,0.00,29.74,,6.21,,SCT,,,,4200.00,,,,,,,,,,,82.75,SBMT 242100Z 01007KT 9999 SCT042 27/19 Q1007,
SBMT,2024-10-24 22:00,77.00,66.20,69.33,330.00,7.00,0.00,29.77,,6.21,,FEW,SCT,,,4000.00,10000.00,,,,,,,,,,77.00,SBMT 242200Z 33007KT 9999 FEW040 SCT100 25/19 Q1008,
SBMT,2024-10-24 23:00,71.60,64.40,78.04,280.00,10.00,0.00,29.85,,6.21,,FEW,BKN,,,4900.00,10000.00,,,,,,,,,,71.60,SBMT 242300Z 28010KT 9999 FEW049 BKN100 22/18 Q1011,
SBMT,2024-10-25 00:00,69.80,64.40,82.98,330.00,6.00,0.00,29.85,,6.21,,FEW,BKN,,,5000.00,10000.00,,,-TSRA,,,,,,,69.80,SBMT 250000Z 33006KT 9999 -TSRA FEW050CB BKN100 21/18 Q1011,
SBMT,2024-10-25 01:00,68.00,66.20,93.97,260.00,5.00,0.00,29.91,,3.73,,SCT,FEW,,,1900.00,5000.00,,,-TSRA,,,,,,,68.00,SBMT 250100Z 26005KT 6000 -TSRA SCT019 FEW050CB 20/19 Q1013,
SBMT,2024-10-25 02:00,68.00,66.20,93.97,360.00,5.00,0.00,29.88,,6.21,,BKN,,,,3000.00,,,,-RA,,,,,,,68.00,SBMT 250200Z 36005KT 9999 -RA BKN030 20/19 Q1012 RETS,
SBMT,2024-10-25 09:00,68.00,64.40,88.26,330.00,5.00,0.00,29.85,,5.59,,FEW,OVC,,,1600.00,10000.00,,,-RA,,,,,,,68.00,SBMT 250900Z 33005KT 240V340 9000 -RA FEW016 OVC100 20/18 Q1011,
SBMT,2024-10-25 10:00,69.80,64.40,82.98,340.00,10.00,0.00,29.83,,6.21,,,,,,,,,,,,,,,,,69.80,SBMT 251000Z 34010KT CAVOK 21/18 Q1010,
SBMT,2024-10-25 11:00,69.80,64.40,82.98,320.00,11.00,0.00,29.85,,6.21,,,,,,,,,,,,,,,,,69.80,SBMT 251100Z 32011KT CAVOK 21/18 Q1011,
SBMT,2024-10-25 12:00,71.60,64.40,78.04,320.00,5.00,0.00,29.88,,6.21,,,,,,,,,,,,,,,,,71.60,SBMT 251200Z 32005KT CAVOK 22/18 Q1012,
SBMT,2024-10-25 13:00,73.40,66.20,78.19,330.00,12.00,0.00,29.88,,6.21,,SCT,,,,2300.00,,,,,,,,,,,73.40,SBMT 251300Z 33012KT 9999 SCT023 23/19 Q1012,
SBMT,2024-10-25 14:00,77.00,68.00,73.78,340.00,9.00,0.00,29.88,,6.21,,BKN,,,,2300.00,,,,,,,,,,,77.00,SBMT 251400Z 34009KT 9999 BKN023 25/20 Q1012,
SBMT,2024-10-25 15:00,77.00,64.40,65.12,340.00,10.00,0.00,29.85,,6.21,22.00,BKN,,,,3000.00,,,,,,,,,,,77.00,SBMT 251500Z 34010G22KT 9999 BKN030 25/18 Q1011,
SBMT,2024-10-25 16:00,78.80,66.20,65.33,340.00,10.00,0.00,29.85,,6.21,22.00,BKN,,,,3300.00,,,,,,,,,,,78.80,SBMT 251600Z 34010G22KT 9999 BKN033 26/19 Q1011 WS R30,
SBMT,2024-10-25 17:00,80.60,66.20,61.58,310.00,11.00,0.00,29.85,,6.21,,BKN,,,,3300.00,,,,,,,,,,,82.75,SBMT 251700Z 31011KT 9999 BKN033 27/19 Q1011,
SBMT,2024-10-25 18:00,78.80,66.20,65.33,320.00,8.00,0.00,29.83,,6.21,,BKN,,,,3300.00,,,,,,,,,,,78.80,SBMT 251800Z 32008KT 9999 BKN033 26/19 Q1010,
SBMT,2024-10-25 19:00,77.00,66.20,69.33,320.00,7.00,0.00,29.83,,6.21,,BKN,,,,3300.00,,,,,,,,,,,77.00,SBMT 251900Z 32007KT 9999 BKN033 25/19 Q1010,
SBMT,2024-10-25 20:00,77.00,66.20,69.33,310.00,7.00,0.00,29.85,,6.21,,BKN,,,,4900.00,,,,,,,,,,,77.00,SBMT 252000Z 31007KT 9999 BKN049 25/19 Q1011,
SBMT,2024-10-25 21:00,77.00,66.20,69.33,330.00,5.00,0.00,29.85,,6.21,,BKN,,,,3000.00,,,,,,,,,,,77.00,SBMT 252100Z 33005KT 9999 BKN030 25/19 Q1011,
SBMT,2024-10-25 22:00,75.20,68.00,78.34,330.00,6.00,0.00,29.85,,6.21,,,,,,,,,,,,,,,,,75.20,SBMT 252200Z 33006KT CAVOK 24/20 Q1011,
SBMT,2024-10-25 23:00,75.20,68.00,78.34,310.00,6.00,0.00,29.91,,6.21,,BKN,,,,3000.00,,,,,,,,,,,75.20,SBMT 252300Z 31006KT 9999 BKN030 24/20 Q1013,
SBMT,2024-10-26 00:00,75.20,66.20,73.61,320.00,5.00,0.00,29.91,,6.21,,,,,,,,,,,,,,,,,75.20,SBMT 260000Z 32005KT CAVOK 24/19 Q1013,
SBMT,2024-10-26 01:00,75.20,66.20,73.61,320.00,6.00,0.00,29.94,,6.21,,,,,,,,,,,,,,,,,75.20,SBMT 260100Z 32006KT CAVOK 24/19 Q1014,
SBMT,2024-10-26 02:00,73.40,66.20,78.19,320.00,5.00,0.00,29.94,,6.21,,,,,,,,,,,,,,,,,73.40,SBMT 260200Z 32005KT CAVOK 23/19 Q1014,
SBMT,2024-10-26 09:00,71.60,66.20,83.09,,2.00,0.00,29.91,,6.21,,,,,,,,,,,,,,,,,71.60,SBMT 260900Z VRB02KT CAVOK 22/19 Q1013,
SBMT,2024-10-26 10:00,75.20,68.00,78.34,280.00,3.00,0.00,29.94,,6.21,,,,,,,,,,,,,,,,,75.20,SBMT 261000Z 28003KT CAVOK 24/20 Q1014,
SBMT,2024-10-26 11:00,77.00,68.00,73.78,290.00,10.00,0.00,29.97,,6.21,,,,,,,,,,,,,,,,,77.00,SBMT 261100Z 29010KT CAVOK 25/20 Q1015,
SBMT,2024-10-26 12:00,78.80,69.80,73.95,280.00,11.00,0.00,29.97,,6.21,,SCT,,,,2500.00,,,,,,,,,,,78.80,SBMT 261200Z 28011KT 260V330 9999 SCT025 26/21 Q1015,
SBMT,2024-10-26 13:00,80.60,71.60,74.11,270.00,10.00,0.00,30.00,,6.21,,BKN,,,,2500.00,,,,,,,,,,,84.57,SBMT 261300Z 27010KT 9999 BKN025 27/22 Q1016,
SBMT,2024-10-26 14:00,82.40,69.80,65.74,270.00,11.00,0.00,29.97,,6.21,,BKN,,,,2500.00,,,,,,,,,,,86.22,SBMT 261400Z 27011KT 9999 BKN025 28/21 Q1015,
SBMT,2024-10-26 15:00,82.40,69.80,65.74,260.00,9.00,0.00,29.97,,6.21,,BKN,,,,3000.00,,,,,,,,,,,86.22,SBMT 261500Z 26009KT 220V300 9999 BKN030 28/21 Q1015,
SBMT,2024-10-26 16:00,82.40,68.00,61.81,260.00,8.00,0.00,29.97,,6.21,,BKN,,,,3500.00,,,,,,,,,,,85.38,SBMT 261600Z 26008KT 240V300 9999 BKN035 28/20 Q1015,
SBMT,2024-10-26 17:00,84.20,68.00,58.32,290.00,4.00,0.00,29.94,,6.21,,BKN,,,,3500.00,,,,,,,,,,,87.40,SBMT 261700Z 29004KT 9999 BKN035 29/20 Q1014,
SBMT,2024-10-26 18:00,73.40,62.60,68.94,140.00,9.00,0.00,29.94,,6.21,,SCT,BKN,,,1500.00,3500.00,,,,,,,,,,73.40,SBMT 261800Z 14009KT 9999 SCT015 BKN035 23/17 Q1014,
SBMT,2024-10-26 19:00,73.40,57.20,56.88,130.00,8.00,0.00,29.97,,6.21,,BKN,,,,2500.00,,,,,,,,,,,73.40,SBMT 261900Z 13008KT 9999 BKN025 23/14 Q1015,
SBMT,2024-10-26 20:00,73.40,51.80,46.71,140.00,8.00,0.00,29.97,,6.21,,BKN,,,,3000.00,,,,,,,,,,,73.40,SBMT 262000Z 14008KT 9999 BKN030 23/11 Q1015,
SBMT,2024-10-26 21:00,69.80,55.40,60.21,130.00,9.00,0.00,30.03,,6.21,,SCT,,,,3000.00,,,,,,,,,,,69.80,SBMT 262100Z 13009KT 9999 SCT030 21/13 Q1017,
SBMT,2024-10-26 22:00,68.00,57.20,68.35,130.00,7.00,0.00,30.06,,6.21,,SCT,,,,2000.00,,,,,,,,,,,68.00,SBMT 262200Z 13007KT 9999 SCT020 20/14 Q1018,
SBMT,2024-10-26 23:00,66.20,57.20,72.74,140.00,6.00,0.00,30.06,,6.21,,BKN,,,,2000.00,,,,,,,,,,,66.20,SBMT 262300Z 14006KT 9999 BKN020 19/14 Q1018,
SBMT,2024-10-27 00:00,66.20,59.00,77.60,110.00,10.00,0.00,30.09,,6.21,,BKN,,,,1700.00,,,,,,,,,,,66.20,SBMT 270000Z 11010KT 9999 BKN017 19/15 Q1019,
SBMT,2024-10-27 01:00,64.40,59.00,82.62,110.00,8.00,0.00,30.12,,1.86,,BKN,,,,1300.00,,,,-DZ,,,,,,,64.40,SBMT 270100Z 11008KT 3000 -DZ BKN013 18/15 Q1020,
SBMT,2024-10-27 02:00,66.20,60.80,82.74,120.00,7.00,0.00,30.12,,1.86,,BKN,,,,1000.00,,,,BR,,,,,,,66.20,SBMT 270200Z 12007KT 3000 BR BKN010 19/16 Q1020,
SBMT,2024-10-27 09:00,60.80,55.40,82.37,130.00,9.00,0.00,30.15,,4.97,,BKN,,,,900.00,,,,,,,,,,,60.80,SBMT 270900Z 13009KT 8000 BKN009 16/13 Q1021,
SBMT,2024-10-27 10:00,60.80,57.20,87.92,120.00,8.00,0.00,30.18,,4.97,,BKN,,,,900.00,,,,,,,,,,,60.80,SBMT 271000Z 12008KT 8000 BKN009 16/14 Q1022,
SBMT,2024-10-27 11:00,62.60,55.40,77.29,130.00,6.00,0.00,30.21,,4.97,,BKN,,,,1000.00,,,,,,,,,,,62.60,SBMT 271100Z 13006KT 8000 BKN010 17/13 Q1023,
SBMT,2024-10-27 12:00,62.60,55.40,77.29,110.00,9.00,0.00,30.21,,4.97,,BKN,,,,1200.00,,,,,,,,,,,62.60,SBMT 271200Z 11009KT 8000 BKN012 17/13 Q1023,
SBMT,2024-10-27 13:00,62.60,57.20,82.50,140.00,8.00,0.00,30.21,,4.97,,BKN,,,,1200.00,,,,,,,,,,,62.60,SBMT 271300Z 14008KT 8000 BKN012 17/14 Q1023,
SBMT,2024-10-27 14:00,64.40,57.20,77.45,120.00,9.00,0.00,30.21,,6.21,,BKN,,,,1500.00,,,,,,,,,,,64.40,SBMT 271400Z 12009KT 9999 BKN015 18/14 Q1023,
SBMT,2024-10-27 15:00,64.40,57.20,77.45,120.00,8.00,0.00,30.21,,6.21,,BKN,,,,1500.00,,,,,,,,,,,64.40,SBMT 271500Z 12008KT 9999 BKN015 18/14 Q1023,
SBMT,2024-10-27 16:00,64.40,57.20,77.45,150.00,7.00,0.00,30.18,,4.35,,BKN,,,,1200.00,,,,,,,,,,,64.40,SBMT 271600Z 15007KT 7000 BKN012 18/14 Q1022,
SBMT,2024-10-27 17:00,62.60,59.00,88.00,160.00,7.00,0.00,30.18,,3.73,,BKN,,,,1100.00,,,,-DZ,,,,,,,62.60,SBMT 271700Z 16007KT 140V200 6000 -DZ BKN011 17/15 Q1022,
SBMT,2024-10-27 18:00,62.60,59.00,88.00,150.00,7.00,0.00,30.18,,4.35,,BKN,,,,1100.00,,,,,,,,,,,62.60,SBMT 271800Z 15007KT 110V210 7000 BKN011 17/15 Q1022,
SBMT,2024-10-27 19:00,60.80,59.00,93.79,120.00,8.00,0.00,30.15,,3.11,,BKN,BKN,,,1100.00,1300.00,,,-RA BR,,,,,,,60.80,SBMT 271900Z 12008KT 090V150 5000 -RA BR BKN011 BKN013 16/15 Q1021,
SBMT,2024-10-27 20:00,62.60,59.00,88.00,140.00,8.00,0.00,30.15,,4.35,,BKN,BKN,,,1100.00,1300.00,,,,,,,,,,62.60,SBMT 272000Z 14008KT 110V170 7000 BKN011 BKN013 17/15 Q1021,
SBMT,2024-10-27 21:00,60.80,59.00,93.79,130.00,11.00,0.00,30.15,,4.97,,BKN,BKN,,,900.00,1100.00,,,,,,,,,,60.80,SBMT 272100Z 13011KT 8000 BKN009 BKN011 16/15 Q1021,
SBMT,2024-10-27 22:00,60.80,57.20,87.92,120.00,9.00,0.00,30.18,,4.97,,BKN,BKN,,,1100.00,1300.00,,,,,,,,,,60.80,SBMT 272200Z 12009KT 090V150 8000 BKN011 BKN013 16/14 Q1022,
SBMT,2024-10-27 23:00,60.80,57.20,87.92,130.00,9.00,0.00,30.18,,4.97,,BKN,BKN,,,1100.00,1300.00,,,,,,,,,,60.80,SBMT 272300Z 13009KT 100V170 8000 BKN011 BKN013 16/14 Q1022,
SBMT,2024-10-28 00:00,60.80,59.00,93.79,110.00,8.00,0.00,30.21,,3.73,,BKN,BKN,,,900.00,1100.00,,,-DZ,,,,,,,60.80,SBMT 280000Z 11008KT 080V140 6000 -DZ BKN009 BKN011 16/15 Q1023,
SBMT,2024-10-28 01:00,60.80,59.00,93.79,110.00,7.00,0.00,30.21,,3.73,,BKN,BKN,,,900.00,1100.00,,,,,,,,,,60.80,SBMT 280100Z 11007KT 6000 BKN009 BKN011 16/15 Q1023,
SBMT,2024-10-28 02:00,60.80,57.20,87.92,110.00,11.00,0.00,30.21,,3.73,,BKN,BKN,,,900.00,1100.00,,,,,,,,,,60.80,SBMT 280200Z 11011KT 080V140 6000 BKN009 BKN011 16/14 Q1023,
SBMT,2024-10-28 09:00,60.80,57.20,87.92,100.00,7.00,0.00,30.15,,6.21,,FEW,BKN,,,800.00,900.00,,,,,,,,,,60.80,SBMT 280900Z 10007KT 9999 FEW008 BKN009 16/14 Q1021,
SBMT,2024-10-28 10:00,62.60,57.20,82.50,90.00,8.00,0.00,30.18,,6.21,,BKN,,,,900.00,,,,,,,,,,,62.60,SBMT 281000Z 09008KT 9999 BKN009 17/14 Q1022,
SBMT,2024-10-28 11:00,62.60,57.20,82.50,90.00,9.00,0.00,30.18,,6.21,,BKN,,,,900.00,,,,,,,,,,,62.60,SBMT 281100Z 09009KT 060V120 9999 BKN009 17/14 Q1022,
SBMT,2024-10-28 12:00,64.40,57.20,77.45,80.00,8.00,0.00,30.18,,6.21,,BKN,OVC,,,1100.00,1300.00,,,,,,,,,,64.40,SBMT 281200Z 08008KT 9999 BKN011 OVC013 18/14 Q1022,
SBMT,2024-10-28 12:07,64.40,57.20,77.45,90.00,9.00,0.00,30.18,,6.21,,BKN,BKN,,,1300.00,1500.00,,,,,,,,,,64.40,SBMT 281207Z 09009KT 050V130 9999 BKN013 BKN015 18/14 Q1022,
SBMT,2024-10-28 13:00,66.20,57.20,72.74,100.00,7.00,0.00,30.21,,6.21,,SCT,BKN,,,1500.00,1700.00,,,,,,,,,,66.20,SBMT 281300Z 10007KT 060V130 9999 SCT015 BKN017 19/14 Q1023,
SBMT,2024-10-28 14:00,68.00,57.20,68.35,90.00,8.00,0.00,30.18,,6.21,,SCT,BKN,,,2100.00,3000.00,,,,,,,,,,68.00,SBMT 281400Z 09008KT 050V130 9999 SCT021 BKN030 20/14 Q1022,
SBMT,2024-10-28 15:00,69.80,59.00,68.55,90.00,9.00,0.00,30.15,,6.21,,SCT,BKN,,,2100.00,3000.00,,,,,,,,,,69.80,SBMT 281500Z 09009KT 060V120 9999 SCT021 BKN030 21/15 Q1021,
SBMT,2024-10-28 16:00,69.80,59.00,68.55,70.00,6.00,0.00,30.12,,6.21,,BKN,,,,2300.00,,,,,,,,,,,69.80,SBMT 281600Z 07006KT 9999 BKN023 21/15 Q1020,
SBMT,2024-10-28 17:00,69.80,60.80,73.09,120.00,5.00,0.00,30.12,,6.21,,OVC,,,,2300.00,,,,,,,,,,,69.80,SBMT 281700Z 12005KT 9999 OVC023 21/16 Q1020,
SBMT,2024-10-28 18:00,66.20,62.60,88.18,150.00,8.00,0.00,30.09,,3.11,,BKN,,,,2100.00,,,,-RA,,,,,,,66.20,SBMT 281800Z 15008KT 5000 -RA BKN021 19/17 Q1019,
SBMT,2024-10-28 19:00,66.20,62.60,88.18,140.00,6.00,0.00,30.09,,3.11,,BKN,BKN,,,900.00,2000.00,,,BR,,,,,,,66.20,SBMT 281900Z 14006KT 5000 BR BKN009 BKN020 19/17 Q1019,
SBMT,2024-10-28 20:00,64.40,62.60,93.88,140.00,7.00,0.00,30.09,,3.73,,OVC,,,,900.00,,,,,,,,,,,64.40,SBMT 282000Z 14007KT 6000 OVC009 18/17 Q1019,
SBMT,2024-10-28 21:00,64.40,62.60,93.88,160.00,7.00,0.00,30.12,,3.11,,OVC,,,,900.00,,,,BR,,,,,,,64.40,SBMT 282100Z 16007KT 5000 BR OVC009 18/17 Q1020,
SBMT,2024-10-28 22:00,64.40,62.60,93.88,130.00,6.00,0.00,30.12,,3.73,,OVC,,,,1000.00,,,,,,,,,,,64.40,SBMT 282200Z 13006KT 6000 OVC010 18/17 Q1020,
SBMT,2024-10-28 23:00,64.40,62.60,93.88,110.00,6.00,0.00,30.12,,4.97,,BKN,BKN,,,1000.00,1400.00,,,,,,,,,,64.40,SBMT 282300Z 11006KT 8000 BKN010 BKN014 18/17 Q1020,
SBMT,2024-10-29 00:00,66.20,62.60,88.18,130.00,5.00,0.00,30.12,,5.59,,OVC,,,,1300.00,,,,,,,,,,,66.20,SBMT 290000Z 13005KT 9000 OVC013 19/17 Q1020,
SBMT,2024-10-29 01:00,66.20,62.60,88.18,100.00,6.00,0.00,30.15,,6.21,,OVC,,,,1500.00,,,,,,,,,,,66.20,SBMT 290100Z 10006KT 9999 OVC015 19/17 Q1021,
SBMT,2024-10-29 02:00,66.20,62.60,88.18,100.00,7.00,0.00,30.12,,6.21,,OVC,,,,1400.00,,,,,,,,,,,66.20,SBMT 290200Z 10007KT 9999 OVC014 19/17 Q1020,
SBMT,2024-10-29 09:00,64.40,59.00,82.62,90.00,6.00,0.00,30.09,,6.21,,OVC,,,,900.00,,,,,,,,,,,64.40,SBMT 290900Z 09006KT 070V130 9999 OVC009 18/15 Q1019,
SBMT,2024-10-29 10:00,64.40,59.00,82.62,80.00,6.00,0.00,30.12,,6.21,,OVC,,,,1100.00,,,,,,,,,,,64.40,SBMT 291000Z 08006KT 040V120 9999 OVC011 18/15 Q1020,
SBMT,2024-10-29 11:00,66.20,59.00,77.60,90.00,6.00,0.00,30.12,,6.21,,OVC,,,,1100.00,,,,,,,,,,,66.20,SBMT 291100Z 09006KT 050V120 9999 OVC011 19/15 Q1020,
SBMT,2024-10-29 12:00,66.20,59.00,77.60,90.00,6.00,0.00,30.12,,6.21,,OVC,,,,1300.00,,,,,,,,,,,66.20,SBMT 291200Z 09006KT 060V130 9999 OVC013 19/15 Q1020,
SBMT,2024-10-29 13:00,68.00,60.80,77.75,150.00,5.00,0.00,30.12,,4.97,,OVC,,,,1500.00,,,,,,,,,,,68.00,SBMT 291300Z 15005KT 120V180 8000 OVC015 20/16 Q1020,
SBMT,2024-10-29 14:00,68.00,60.80,77.75,130.00,5.00,0.00,30.12,,6.21,,BKN,OVC,,,1500.00,1700.00,,,,,,,,,,68.00,SBMT 291400Z 13005KT 090V170 9999 BKN015 OVC017 20/16 Q1020,
SBMT,2024-10-29 15:00,69.80,60.80,73.09,140.00,5.00,0.00,30.12,,4.97,,OVC,,,,1700.00,,,,,,,,,,,69.80,SBMT 291500Z 14005KT 110V190 8000 OVC017 21/16 Q1020,
SBMT,2024-10-29 16:00,71.60,60.80,68.75,140.00,6.00,0.00,30.09,,6.21,,SCT,BKN,,,1900.00,2100.00,,,,,,,,,,71.60,SBMT 291600Z 14006KT 090V190 9999 SCT019 BKN021 22/16 Q1019,
SBMT,2024-10-29 17:00,71.60,60.80,68.75,130.00,6.00,0.00,30.06,,6.21,,BKN,,,,2000.00,,,,,,,,,,,71.60,SBMT 291700Z 13006KT 9999 BKN020 22/16 Q1018,
SBMT,2024-10-29 18:00,73.40,62.60,68.94,150.00,7.00,0.00,30.06,,6.21,,BKN,,,,2000.00,,,,,,,,,,,73.40,SBMT 291800Z 15007KT 9999 BKN020 23/17 Q1018,
SBMT,2024-10-29 19:00,71.60,60.80,68.75,160.00,9.00,0.00,30.03,,6.21,,BKN,,,,2000.00,,,,,,,,,,,71.60,SBMT 291900Z 16009KT 9999 BKN020 22/16 Q1017,
SBMT,2024-10-29 20:00,69.80,60.80,73.09,140.00,9.00,0.00,30.03,,6.21,,BKN,BKN,,,1700.00,3000.00,,,,,,,,,,69.80,SBMT 292000Z 14009KT 9999 BKN017 BKN030 21/16 Q1017,
SBMT,2024-10-29 21:00,68.00,60.80,77.75,150.00,7.00,0.00,30.03,,3.73,,BKN,,,,1300.00,,,,,,,,,,,68.00,SBMT 292100Z 15007KT 6000 BKN013 20/16 Q1017,
SBMT,2024-10-29 22:00,66.20,60.80,82.74,130.00,9.00,0.00,30.06,,4.97,,BKN,,,,1300.00,,,,,,,,,,,66.20,SBMT 292200Z 13009KT 8000 BKN013 19/16 Q1018,
SBMT,2024-10-29 23:00,66.20,59.00,77.60,120.00,8.00,0.00,30.06,,4.97,,BKN,,,,1300.00,,,,,,,,,,,66.20,SBMT 292300Z 12008KT 8000 BKN013 19/15 Q1018,
SBMT,2024-10-30 00:00,66.20,59.00,77.60,110.00,9.00,0.00,30.09,,6.21,,BKN,,,,1500.00,,,,,,,,,,,66.20,SBMT 300000Z 11009KT 9999 BKN015 19/15 Q1019,
SBMT,2024-10-30 01:00,66.20,59.00,77.60,130.00,8.00,0.00,30.09,,6.21,,BKN,,,,1500.00,,,,,,,,,,,66.20,SBMT 300100Z 13008KT 9999 BKN015 19/15 Q1019,
SBMT,2024-10-30 02:00,66.20,59.00,77.60,110.00,7.00,0.00,30.09,,6.21,,BKN,,,,1500.00,,,,,,,,,,,66.20,SBMT 300200Z 11007KT 9999 BKN015 19/15 Q1019,
SBMT,2024-10-30 09:00,62.60,57.20,82.50,130.00,6.00,0.00,30.06,,4.97,,BKN,,,,1800.00,,,,,,,,,,,62.60,SBMT 300900Z 13006KT 8000 BKN018 17/14 Q1018,
SBMT,2024-10-30 10:00,66.20,59.00,77.60,130.00,5.00,0.00,30.06,,4.35,,BKN,,,,1800.00,,,,,,,,,,,66.20,SBMT 301000Z 13005KT 7000 BKN018 19/15 Q1018,
SBMT,2024-10-30 11:00,68.00,59.00,72.92,120.00,6.00,0.00,30.09,,6.21,,BKN,,,,1700.00,,,,,,,,,,,68.00,SBMT 301100Z 12006KT 9999 BKN017 20/15 Q1019,
SBMT,2024-10-30 12:00,69.80,59.00,68.55,90.00,7.00,0.00,30.09,,6.21,,BKN,,,,1700.00,,,,,,,,,,,69.80,SBMT 301200Z 09007KT 9999 BKN017 21/15 Q1019,
SBMT,2024-10-30 13:00,73.40,57.20,56.88,130.00,8.00,0.00,30.09,,6.21,,SCT,,,,2500.00,,,,,,,,,,,73.40,SBMT 301300Z 13008KT 9999 SCT025 23/14 Q1019,
SBMT,2024-10-30 14:00,75.20,59.00,57.12,100.00,7.00,0.00,30.06,,6.21,,BKN,,,,3500.00,,,,,,,,,,,75.20,SBMT 301400Z 10007KT 9999 BKN035 24/15 Q1018,
SBMT,2024-10-30 15:00,75.20,57.20,53.55,150.00,7.00,0.00,30.06,,6.21,,BKN,,,,3500.00,,,,,,,,,,,75.20,SBMT 301500Z 15007KT 9999 BKN035 24/14 Q1018,
SBMT,2024-10-30 16:00,75.20,59.00,57.12,150.00,6.00,0.00,30.03,,6.21,,BKN,,,,3500.00,,,,,,,,,,,75.20,SBMT 301600Z 15006KT 9999 BKN035 24/15 Q1017,
SBMT,2024-10-30 17:00,77.00,59.00,53.80,160.00,9.00,0.00,30.03,,6.21,,BKN,,,,3500.00,,,,,,,,,,,77.00,SBMT 301700Z 16009KT 130V200 9999 BKN035 25/15 Q1017,
SBMT,2024-10-30 18:00,75.20,59.00,57.12,160.00,9.00,0.00,30.00,,6.21,,BKN,,,,3500.00,,,,,,,,,,,75.20,SBMT 301800Z 16009KT 120V200 9999 BKN035 24/15 Q1016,
SBMT,2024-10-30 19:00,73.40,59.00,60.67,150.00,9.00,0.00,30.03,,6.21,,SCT,,,,3500.00,,,,,,,,,,,73.40,SBMT 301900Z 15009KT 120V180 9999 SCT035 23/15 Q1017,
SBMT,2024-10-30 20:00,71.60,59.00,64.48,160.00,11.00,0.00,30.03,,6.21,,SCT,,,,3500.00,,,,,,,,,,,71.60,SBMT 302000Z 16011KT 110V190 9999 SCT035 22/15 Q1017,
SBMT,2024-10-30 21:00,68.00,59.00,72.92,140.00,10.00,0.00,30.06,,6.21,,SCT,,,,2300.00,,,,,,,,,,,68.00,SBMT 302100Z 14010KT 100V180 9999 SCT023 20/15 Q1018,
SBMT,2024-10-30 22:00,66.20,59.00,77.60,140.00,8.00,0.00,30.06,,6.21,,BKN,,,,2000.00,,,,,,,,,,,66.20,SBMT 302200Z 14008KT 070V200 9999 BKN020 19/15 Q1018,
SBMT,2024-10-30 23:00,66.20,59.00,77.60,130.00,9.00,0.00,30.09,,6.21,,BKN,,,,2000.00,,,,,,,,,,,66.20,SBMT 302300Z 13009KT 090V170 9999 BKN020 19/15 Q1019,
SBMT,2024-10-31 00:00,66.20,57.20,72.74,100.00,12.00,0.00,30.09,,6.21,,BKN,,,,2000.00,,,,,,,,,,,66.20,SBMT 310000Z 10012KT 9999 BKN020 19/14 Q1019,
SBMT,2024-10-31 01:00,64.40,57.20,77.45,110.00,11.00,0.00,30.09,,6.21,,BKN,,,,2000.00,,,,,,,,,,,64.40,SBMT 310100Z 11011KT 9999 BKN020 18/14 Q1019,
SBMT,2024-10-31 02:00,64.40,57.20,77.45,110.00,9.00,0.00,30.09,,6.21,,BKN,,,,2000.00,,,,,,,,,,,64.40,SBMT 310200Z 11009KT 080V140 9999 BKN020 18/14 Q1019,
SBMT,2024-10-31 09:00,60.80,53.60,77.14,90.00,6.00,0.00,30.06,,6.21,,,,,,,,,,,,,,,,,60.80,SBMT 310900Z 09006KT CAVOK 16/12 Q1018,
SBMT,2024-10-31 10:00,64.40,53.60,67.95,80.00,6.00,0.00,30.09,,6.21,,,,,,,,,,,,,,,,,64.40,SBMT 311000Z 08006KT 050V110 CAVOK 18/12 Q1019,
SBMT,2024-10-31 11:00,66.20,59.00,77.60,80.00,10.00,0.00,30.09,,6.21,,,,,,,,,,,,,,,,,66.20,SBMT 311100Z 08010KT CAVOK 19/15 Q1019,
SBMT,2024-10-31 12:00,68.00,57.20,68.35,90.00,8.00,0.00,30.09,,6.21,,,,,,,,,,,,,,,,,68.00,SBMT 311200Z 09008KT 050V120 CAVOK 20/14 Q1019,
SBMT,2024-10-31 13:00,73.40,57.20,56.88,80.00,8.00,0.00,30.09,,6.21,,FEW,,,,3300.00,,,,,,,,,,,73.40,SBMT 311300Z 08008KT 030V140 9999 FEW033 23/14 Q1019,
SBMT,2024-10-31 14:00,75.20,55.40,50.17,70.00,7.00,0.00,30.06,,6.21,,FEW,,,,4000.00,,,,,,,,,,,75.20,SBMT 311400Z 07007KT 010V180 9999 FEW040 24/13 Q1018,
SBMT,2024-10-31 15:00,75.20,55.40,50.17,140.00,9.00,0.00,30.06,,6.21,,SCT,,,,4600.00,,,,,,,,,,,75.20,SBMT 311500Z 14009KT 100V200 9999 SCT046 24/13 Q1018,
SBMT,2024-10-31 16:00,75.20,59.00,57.12,150.00,9.00,0.00,30.06,,6.21,,SCT,,,,4000.00,,,,,,,,,,,75.20,SBMT 311600Z 15009KT 110V190 9999 SCT040 24/15 Q1018,
SBMT,2024-10-31 17:00,75.20,60.80,60.90,150.00,10.00,0.00,30.03,,6.21,,SCT,,,,3000.00,,,,,,,,,,,75.20,SBMT 311700Z 15010KT 9999 SCT030 24/16 Q1017,
SBMT,2024-10-31 18:00,73.40,59.00,60.67,140.00,11.00,0.00,30.03,,6.21,,SCT,,,,3000.00,,,,,,,,,,,73.40,SBMT 311800Z 14011KT 9999 SCT030 23/15 Q1017,
SBMT,2024-10-31 19:00,71.60,59.00,64.48,170.00,10.00,0.00,30.03,,6.21,,BKN,,,,2600.00,,,,,,,,,,,71.60,SBMT 311900Z 17010KT 9999 BKN026 22/15 Q1017,
SBMT,2024-10-31 20:00,69.80,59.00,68.55,120.00,10.00,0.00,30.03,,6.21,,BKN,,,,2500.00,,,,,,,,,,,69.80,SBMT 312000Z 12010KT 9999 BKN025 21/15 Q1017,
SBMT,2024-10-31 21:00,66.20,59.00,77.60,130.00,12.00,0.00,30.03,,6.21,,BKN,,,,2200.00,,,,,,,,,,,66.20,SBMT 312100Z 13012KT 9999 BKN022 19/15 Q1017,
SBMT,2024-10-31 22:00,66.20,59.00,77.60,140.00,10.00,0.00,30.06,,6.21,,BKN,,,,2000.00,,,,,,,,,,,66.20,SBMT 312200Z 14010KT 9999 BKN020 19/15 Q1018,
SBMT,2024-10-31 23:00,66.20,59.00,77.60,130.00,9.00,0.00,30.06,,6.21,,BKN,,,,1900.00,,,,,,,,,,,66.20,SBMT 312300Z 13009KT 9999 BKN019 19/15 Q1018,
SBMT,2024-11-01 00:00,66.20,57.20,72.74,100.00,12.00,0.00,30.09,,6.21,,SCT,BKN,,,2000.00,3000.00,,,,,,,,,,66.20,SBMT 010000Z 10012KT 9999 SCT020 BKN030 19/14 Q1019,
SBMT,2024-11-01 01:00,64.40,57.20,77.45,110.00,8.00,0.00,30.09,,6.21,,BKN,,,,2500.00,,,,,,,,,,,64.40,SBMT 010100Z 11008KT 9999 BKN025 18/14 Q1019,
SBMT,2024-11-01 02:00,64.40,57.20,77.45,110.00,10.00,0.00,30.09,,6.21,,BKN,,,,3100.00,,,,,,,,,,,64.40,SBMT 010200Z 11010KT 9999 BKN031 18/14 Q1019,
SBMT,2024-11-01 09:00,62.60,59.00,88.00,90.00,9.00,0.00,30.09,,6.21,,BKN,,,,1700.00,,,,,,,,,,,62.60,SBMT 010900Z 09009KT 060V120 9999 BKN017 17/15 Q1019,
SBMT,2024-11-01 10:00,66.20,59.00,77.60,100.00,9.00,0.00,30.09,,6.21,,FEW,,,,1700.00,,,,,,,,,,,66.20,SBMT 011000Z 10009KT 9999 FEW017 19/15 Q1019,
SBMT,2024-11-01 11:00,68.00,59.00,72.92,100.00,9.00,0.00,30.09,,6.21,,,,,,,,,,,,,,,,,68.00,SBMT 011100Z 10009KT CAVOK 20/15 Q1019,
SBMT,2024-11-01 12:00,71.60,59.00,64.48,100.00,8.00,0.00,30.12,,6.21,,,,,,,,,,,,,,,,,71.60,SBMT 011200Z 10008KT CAVOK 22/15 Q1020,
SBMT,2024-11-01 13:00,75.20,60.80,60.90,100.00,7.00,0.00,30.09,,6.21,,,,,,,,,,,,,,,,,75.20,SBMT 011300Z 10007KT CAVOK 24/16 Q1019,
SBMT,2024-11-01 14:00,77.00,60.80,57.36,110.00,7.00,0.00,30.06,,6.21,,,,,,,,,,,,,,,,,77.00,SBMT 011400Z 11007KT CAVOK 25/16 Q1018,
SBMT,2024-11-01 15:00,80.60,60.80,50.95,70.00,5.00,0.00,30.03,,6.21,,FEW,,,,4000.00,,,,,,,,,,,81.46,SBMT 011500Z 07005KT 9999 FEW040 27/16 Q1017,
SBMT,2024-11-01 16:00,82.40,62.60,51.21,110.00,4.00,0.00,30.03,,6.21,,SCT,,,,4000.00,,,,,,,,,,,83.41,SBMT 011600Z 11004KT 9999 SCT040 28/17 Q1017,
SBMT,2024-11-01 17:00,82.40,59.00,45.07,100.00,3.00,0.00,30.00,,6.21,,BKN,,,,4900.00,,,,,,,,,,,82.46,SBMT 011700Z 10003KT 9999 BKN049 28/15 Q1016,
SBMT,2024-11-01 18:00,80.60,64.40,57.84,150.00,9.00,0.00,29.97,,6.21,,,,,,,,,,,,,,,,,82.27,SBMT 011800Z 15009KT CAVOK 27/18 Q1015,
SBMT,2024-11-01 19:00,77.00,64.40,65.12,160.00,11.00,0.00,29.97,,6.21,,,,,,,,,,,,,,,,,77.00,SBMT 011900Z 16011KT 120V200 CAVOK 25/18 Q1015,
SBMT,2024-11-01 20:00,71.60,62.60,73.27,170.00,10.00,0.00,30.00,,6.21,,SCT,,,,1900.00,,,,,,,,,,,71.60,SBMT 012000Z 17010KT 9999 SCT019 22/17 Q1016,
SBMT,2024-11-01 21:00,69.80,62.60,77.90,150.00,9.00,0.00,30.00,,6.21,,SCT,,,,1900.00,,,,,,,,,,,69.80,SBMT 012100Z 15009KT 9999 SCT019 21/17 Q1016,
SBMT,2024-11-01 22:00,69.80,62.60,77.90,150.00,6.00,0.00,30.00,,6.21,,FEW,,,,1900.00,,,,,,,,,,,69.80,COR SBMT 012200Z 15006KT 9999 FEW019 21/17 Q1016,
SBMT,2024-11-01 23:00,68.00,62.60,82.86,130.00,7.00,0.00,30.03,,6.21,,,,,,,,,,,,,,,,,68.00,SBMT 012300Z 13007KT CAVOK 20/17 Q1017,
SBMT,2024-11-02 00:00,68.00,62.60,82.86,130.00,5.00,0.00,30.06,,6.21,,,,,,,,,,,,,,,,,68.00,SBMT 020000Z 13005KT CAVOK 20/17 Q1018,
SBMT,2024-11-02 01:00,68.00,60.80,77.75,100.00,7.00,0.00,30.09,,6.21,,,,,,,,,,,,,,,,,68.00,SBMT 020100Z 10007KT CAVOK 20/16 Q1019,
SBMT,2024-11-02 02:00,68.00,62.60,82.86,100.00,7.00,0.00,30.09,,6.21,,,,,,,,,,,,,,,,,68.00,SBMT 020200Z 10007KT CAVOK 20/17 Q1019,
SBMT,2024-11-02 09:00,66.20,60.80,82.74,80.00,6.00,0.00,30.03,,6.21,,,,,,,,,,,,,,,,,66.20,SBMT 020900Z 08006KT 050V120 CAVOK 19/16 Q1017,
SBMT,2024-11-02 10:00,68.00,60.80,77.75,80.00,6.00,0.00,30.06,,6.21,,,,,,,,,,,,,,,,,68.00,SBMT 021000Z 08006KT 040V110 CAVOK 20/16 Q1018,
SBMT,2024-11-02 11:00,71.60,62.60,73.27,80.00,7.00,0.00,30.06,,6.21,,,,,,,,,,,,,,,,,71.60,SBMT 021100Z 08007KT 040V100 CAVOK 22/17 Q1018,
SBMT,2024-11-02 12:00,75.20,60.80,60.90,80.00,5.00,0.00,30.09,,6.21,,FEW,,,,4000.00,,,,,,,,,,,75.20,SBMT 021200Z 08005KT 020V140 9999 FEW040 24/16 Q1019,
SBMT,2024-11-02 13:00,78.80,62.60,57.60,,4.00,0.00,30.09,,6.21,,FEW,,,,4000.00,,,,,,,,,,,78.80,SBMT 021300Z VRB04KT 9999 FEW040 26/17 Q1019,
SBMT,2024-11-02 14:00,82.40,62.60,51.21,,2.00,0.00,30.06,,6.21,,,,,,,,,,,,,,,,,83.41,SBMT 021400Z VRB02KT CAVOK 28/17 Q1018,
SBMT,2024-11-02 15:00,82.40,60.80,48.05,,3.00,0.00,30.03,,6.21,,SCT,FEW,,,4600.00,5000.00,,,,,,,,,,82.90,SBMT 021500Z VRB03KT 9999 SCT046 FEW050TCU 28/16 Q1017,
SBMT,2024-11-02 16:00,82.40,59.00,45.07,80.00,10.00,0.00,30.00,,6.21,,BKN,FEW,,,4600.00,5000.00,,,,,,,,,,82.46,SBMT 021600Z 08010KT 9999 BKN046 FEW050TCU 28/15 Q1016,
SBMT,2024-11-02 17:00,73.40,64.40,73.44,140.00,6.00,0.00,30.00,,5.59,,SCT,FEW,,,2500.00,5000.00,,,-TSRA,,,,,,,73.40,SBMT 021700Z 14006KT 9000 -TSRA SCT025 FEW050CB 23/18 Q1016,
SBMT,2024-11-02 18:00,68.00,64.40,88.26,220.00,10.00,0.00,30.00,,3.73,,BKN,FEW,,,3000.00,5000.00,,,-TSRA,,,,,,,68.00,SBMT 021800Z 22010KT 6000 -TSRA BKN030 FEW050CB 20/18 Q1016 RERA,
SBMT,2024-11-02 19:00,69.80,68.00,94.01,200.00,3.00,0.00,30.00,,6.21,,BKN,FEW,,,3000.00,5000.00,,,-TSRA,,,,,,,69.80,SBMT 021900Z 20003KT 9999 -TSRA BKN030 FEW050CB 21/20 Q1016,
SBMT,2024-11-02 20:00,69.80,66.20,88.34,280.00,1.00,0.00,30.03,,6.21,,BKN,FEW,,,3000.00,5000.00,,,-RA VCTS,,,,,,,69.80,SBMT 022000Z 28001KT 9999 -RA VCTS BKN030 FEW050CB 21/19 Q1017 RETS,
SBMT,2024-11-02 21:00,68.00,66.20,93.97,280.00,5.00,0.00,30.03,,6.21,,BKN,BKN,,,3000.00,8000.00,,,-RA,,,,,,,68.00,SBMT 022100Z 28005KT 9999 -RA BKN030 BKN080 20/19 Q1017,
SBMT,2024-11-02 22:00,68.00,66.20,93.97,280.00,4.00,0.00,30.03,,6.21,,FEW,BKN,,,3000.00,8000.00,,,-RA,,,,,,,68.00,SBMT 022200Z 28004KT 9999 -RA FEW030 BKN080 20/19 Q1017,
SBMT,2024-11-02 23:00,69.80,68.00,94.01,330.00,2.00,0.00,30.03,,6.21,,FEW,BKN,,,3000.00,8000.00,,,,,,,,,,69.80,SBMT 022300Z 33002KT 9999 FEW030 BKN080 21/20 Q1017,
SBMT,2024-11-03 00:00,68.00,68.00,100.00,260.00,2.00,0.00,30.06,,6.21,,FEW,BKN,,,3000.00,8000.00,,,-RA,,,,,,,68.00,SBMT 030000Z 26002KT 9999 -RA FEW030 BKN080 20/20 Q1018,
SBMT,2024-11-03 01:00,68.00,66.20,93.97,280.00,2.00,0.00,30.06,,6.21,,FEW,BKN,,,800.00,8000.00,,,,,,,,,,68.00,SBMT 030100Z 28002KT 9999 FEW008 BKN080 20/19 Q1018,
SBMT,2024-11-03 02:00,68.00,66.20,93.97,140.00,4.00,0.00,30.06,,6.21,,FEW,BKN,,,800.00,8000.00,,,,,,,,,,68.00,SBMT 030200Z 14004KT 9999 FEW008 BKN080 20/19 Q1018,
SBMT,2024-11-03 09:00,68.00,66.20,93.97,60.00,3.00,0.00,30.03,,2.17,,SCT,OVC,,,1100.00,4000.00,,,-DZ,,,,,,,68.00,SBMT 030900Z 06003KT 3500 -DZ SCT011 OVC040 20/19 Q1017,
SBMT,2024-11-03 10:00,66.20,66.20,100.00,100.00,4.00,0.00,30.03,,1.86,,SCT,OVC,,,1100.00,4000.00,,,-RA BR,,,,,,,66.20,SBMT 031000Z 10004KT 3000 -RA BR SCT011 OVC040 19/19 Q1017,
SBMT,2024-11-03 11:00,68.00,66.20,93.97,80.00,6.00,0.00,30.06,,1.86,,SCT,OVC,,,1100.00,4000.00,,,-DZ BR,,,,,,,68.00,SBMT 031100Z 08006KT 3000 -DZ BR SCT011 OVC040 20/19 Q1018,
SBMT,2024-11-03 12:00,68.00,66.20,93.97,60.00,4.00,0.00,30.06,,3.11,,SCT,OVC,,,1100.00,4000.00,,,-RA BR,,,,,,,68.00,SBMT 031200Z 06004KT 5000 -RA BR SCT011 OVC040 20/19 Q1018,
SBMT,2024-11-03 13:00,68.00,66.20,93.97,80.00,4.00,0.00,30.06,,3.11,,BKN,OVC,,,1500.00,4000.00,,,-RA BR,,,,,,,68.00,SBMT 031300Z 08004KT 5000 -RA BR BKN015 OVC040 20/19 Q1018,
SBMT,2024-11-03 14:00,69.80,68.00,94.01,80.00,6.00,0.00,30.03,,4.35,,BKN,OVC,,,2000.00,4000.00,,,,,,,,,,69.80,SBMT 031400Z 08006KT 7000 BKN020 OVC040 21/20 Q1017,
SBMT,2024-11-03 15:00,71.60,66.20,83.09,80.00,6.00,0.00,30.03,,6.21,,BKN,OVC,,,2000.00,4000.00,,,,,,,,,,71.60,SBMT 031500Z 08006KT 9999 BKN020 OVC040 22/19 Q1017,
SBMT,2024-11-03 16:00,69.80,64.40,82.98,40.00,7.00,0.00,30.03,,4.97,,BKN,OVC,,,2000.00,4000.00,,,-RA,,,,,,,69.80,SBMT 031600Z 04007KT 8000 -RA BKN020 OVC040 21/18 Q1017,
SBMT,2024-11-03 17:00,68.00,62.60,82.86,50.00,4.00,0.00,30.00,,4.35,,FEW,OVC,,,1900.00,4200.00,,,-RA,,,,,,,68.00,SBMT 031700Z 05004KT 360V100 7000 -RA FEW019 OVC042 20/17 Q1016,
SBMT,2024-11-03 18:00,69.80,64.40,82.98,100.00,6.00,0.00,29.97,,6.21,,FEW,OVC,,,2000.00,6000.00,,,,,,,,,,69.80,SBMT 031800Z 10006KT 9999 FEW020 OVC060 21/18 Q1015,
SBMT,2024-11-03 19:00,69.80,64.40,82.98,120.00,8.00,0.00,29.94,,6.21,,SCT,OVC,,,1800.00,5000.00,,,,,,,,,,69.80,SBMT 031900Z 12008KT 9999 SCT018 OVC050 21/18 Q1014,
SBMT,2024-11-03 20:00,69.80,60.80,73.09,90.00,12.00,0.00,29.94,,6.21,,FEW,BKN,,,2500.00,5000.00,,,,,,,,,,69.80,SBMT 032000Z 09012KT 9999 FEW025 BKN050 21/16 Q1014,
SBMT,2024-11-03 21:00,68.00,64.40,88.26,110.00,7.00,0.00,29.97,,6.21,,FEW,OVC,,,1800.00,5000.00,,,,,,,,,,68.00,SBMT 032100Z 11007KT 9999 FEW018 OVC050 20/18 Q1015,
SBMT,2024-11-03 22:00,68.00,62.60,82.86,90.00,8.00,0.00,29.97,,6.21,,FEW,OVC,,,2000.00,8000.00,,,,,,,,,,68.00,SBMT 032200Z 09008KT 9999 FEW020 OVC080 20/17 Q1015,
SBMT,2024-11-03 23:00,66.20,62.60,88.18,100.00,8.00,0.00,30.00,,6.21,,FEW,BKN,,,2000.00,8000.00,,,,,,,,,,66.20,SBMT 032300Z 10008KT 9999 FEW020 BKN080 19/17 Q1016,
SBMT,2024-11-04 00:00,66.20,62.60,88.18,90.00,7.00,0.00,30.03,,5.59,,FEW,OVC,,,1200.00,7000.00,,,-RA,,,,,,,66.20,SBMT 040000Z 09007KT 9000 -RA FEW012 OVC070 19/17 Q1017,
SBMT,2024-11-04 01:00,66.20,62.60,88.18,90.00,5.00,0.00,30.03,,3.73,,SCT,OVC,,,1100.00,6000.00,,,-RA,,,,,,,66.20,SBMT 040100Z 09005KT 6000 -RA SCT011 OVC060 19/17 Q1017,
SBMT,2024-11-04 02:00,64.40,62.60,93.88,100.00,6.00,0.00,30.03,,4.35,,BKN,BKN,,,1000.00,8000.00,,,-RA,,,,,,,64.40,SBMT 040200Z 10006KT 7000 -RA BKN010 BKN080 18/17 Q1017,
SBMT,2024-11-04 09:00,66.20,62.60,88.18,90.00,4.00,0.00,30.00,,1.86,,BKN,,,,700.00,,,,-RA,,,,,,,66.20,SBMT 040900Z 09004KT 3000 -RA BKN007 19/17 Q1016,
SBMT,2024-11-04 10:00,66.20,64.40,93.92,90.00,3.00,0.00,30.00,,2.49,,BKN,,,,800.00,,,,-RA,,,,,,,66.20,SBMT 041000Z 09003KT 4000 -RA BKN008 19/18 Q1016,
SBMT,2024-11-04 11:00,68.00,64.40,88.26,70.00,5.00,0.00,30.03,,2.49,,BKN,,,,800.00,,,,-RA,,,,,,,68.00,SBMT 041100Z 07005KT 4000 -RA BKN008 20/18 Q1017,
SBMT,2024-11-04 12:00,69.80,64.40,82.98,80.00,5.00,0.00,30.03,,3.73,,BKN,,,,900.00,,,,,,,,,,,69.80,COR SBMT 041200Z 08005KT 6000 BKN009 21/18 Q1017,
SBMT,2024-11-04 13:00,69.80,64.40,82.98,60.00,4.00,0.00,30.03,,4.97,,BKN,,,,1200.00,,,,,,,,,,,69.80,SBMT 041300Z 06004KT 8000 BKN012 21/18 Q1017,
SBMT,2024-11-04 14:00,71.60,64.40,78.04,60.00,5.00,0.00,30.03,,4.97,,BKN,SCT,,,1500.00,2500.00,,,,,,,,,,71.60,SBMT 041400Z 06005KT 8000 BKN015 SCT025 22/18 Q1017,
SBMT,2024-11-04 15:00,73.40,64.40,73.44,50.00,6.00,0.00,30.03,,6.21,,BKN,SCT,,,2000.00,3000.00,,,,,,,,,,73.40,SBMT 041500Z 05006KT 9999 BKN020 SCT030 23/18 Q1017,
SBMT,2024-11-04 16:00,73.40,64.40,73.44,50.00,5.00,0.00,30.00,,6.21,,BKN,SCT,,,1700.00,3000.00,,,,,,,,,,73.40,SBMT 041600Z 05005KT 9999 BKN017 SCT030 23/18 Q1016,
SBMT,2024-11-04 17:00,73.40,64.40,73.44,,4.00,0.00,30.00,,6.21,,BKN,BKN,,,1700.00,3300.00,,,,,,,,,,73.40,SBMT 041700Z VRB04KT 9999 BKN017 BKN033 23/18 Q1016,
SBMT,2024-11-04 18:00,69.80,64.40,82.98,330.00,6.00,0.00,30.00,,2.49,,BKN,OVC,,,1500.00,3000.00,,,-RA,,,,,,,69.80,SBMT 041800Z 33006KT 250V030 4000 -RA BKN015 OVC030 21/18 Q1016 RERA,
SBMT,2024-11-04 19:00,69.80,66.20,88.34,,2.00,0.00,29.97,,3.73,,BKN,BKN,,,1700.00,3000.00,,,-RA,,,,,,,69.80,SBMT 041900Z VRB02KT 6000 -RA BKN017 BKN030 21/19 Q1015,
SBMT,2024-11-04 20:00,69.80,64.40,82.98,300.00,4.00,0.00,29.97,,4.97,,BKN,BKN,,,1300.00,1500.00,,,,,,,,,,69.80,SBMT 042000Z 30004KT 240V340 8000 BKN013 BKN015 21/18 Q1015,
SBMT,2024-11-04 21:00,69.80,64.40,82.98,30.00,3.00,0.00,30.00,,6.21,,BKN,BKN,,,1300.00,1700.00,,,,,,,,,,69.80,SBMT 042100Z 03003KT 340V070 9999 BKN013 BKN017 21/18 Q1016,
SBMT,2024-11-04 22:00,68.00,60.80,77.75,70.00,5.00,0.00,30.00,,6.21,,SCT,BKN,,,1700.00,7000.00,,,,,,,,,,68.00,SBMT 042200Z 07005KT 040V100 9999 SCT017 BKN070 20/16 Q1016,
SBMT,2024-11-04 23:00,68.00,62.60,82.86,90.00,3.00,0.00,30.03,,6.21,,,,,,,,,,,,,,,,,68.00,SBMT 042300Z 09003KT CAVOK 20/17 Q1017,
SBMT,2024-11-05 00:00,68.00,62.60,82.86,100.00,3.00,0.00,30.03,,6.21,,FEW,BKN,,,4000.00,7000.00,,,,,,,,,,68.00,SBMT 050000Z 10003KT 060V120 9999 FEW040 BKN070 20/17 Q1017,
SBMT,2024-11-05 01:00,68.00,64.40,88.26,80.00,3.00,0.00,30.06,,6.21,,SCT,SCT,,,1100.00,4000.00,,,,,,,,,,68.00,SBMT 050100Z 08003KT 9999 SCT011 SCT040 20/18 Q1018,
SBMT,2024-11-05 02:00,68.00,64.40,88.26,,1.00,0.00,30.06,,6.21,,SCT,BKN,,,1100.00,4000.00,,,,,,,,,,68.00,SBMT 050200Z VRB01KT 9999 SCT011 BKN040 20/18 Q1018,
SBMT,2024-11-05 09:00,66.20,62.60,88.18,90.00,3.00,0.00,30.00,,4.97,,BKN,,,,800.00,,,,,,,,,,,66.20,SBMT 050900Z 09003KT 8000 BKN008 19/17 Q1016,
SBMT,2024-11-05 10:00,69.80,62.60,77.90,90.00,4.00,0.00,30.03,,4.97,,BKN,,,,900.00,,,,,,,,,,,69.80,SBMT 051000Z 09004KT 8000 BKN009 21/17 Q1017,
SBMT,2024-11-05 11:00,69.80,62.60,77.90,90.00,7.00,0.00,30.06,,4.97,,BKN,,,,900.00,,,,,,,,,,,69.80,SBMT 051100Z 09007KT 8000 BKN009 21/17 Q1018,
SBMT,2024-11-05 12:00,71.60,62.60,73.27,100.00,7.00,0.00,30.06,,6.21,,BKN,,,,1500.00,,,,,,,,,,,71.60,SBMT 051200Z 10007KT 9999 BKN015 22/17 Q1018,
SBMT,2024-11-05 13:00,75.20,62.60,64.91,80.00,7.00,0.00,30.03,,6.21,,SCT,,,,2000.00,,,,,,,,,,,75.20,SBMT 051300Z 08007KT 9999 SCT020 24/17 Q1017,
SBMT,2024-11-05 14:00,77.00,64.40,65.12,90.00,4.00,0.00,30.03,,6.21,,SCT,SCT,,,2000.00,4000.00,,,,,,,,,,77.00,SBMT 051400Z 09004KT 9999 SCT020 SCT040 25/18 Q1017,
SBMT,2024-11-05 15:00,77.00,64.40,65.12,60.00,6.00,0.00,30.00,,6.21,,,,,,,,,,,,,,,,,77.00,SBMT 051500Z 06006KT CAVOK 25/18 Q1016,
SBMT,2024-11-05 16:00,78.80,64.40,61.36,100.00,2.00,0.00,30.00,,6.21,,,,,,,,,,,,,,,,,78.80,SBMT 051600Z 10002KT CAVOK 26/18 Q1016,
SBMT,2024-11-05 17:00,78.80,68.00,69.52,10.00,4.00,0.00,29.97,,6.21,,BKN,,,,3600.00,,,,,,,,,,,78.80,SBMT 051700Z 01004KT 9999 BKN036 26/20 Q1015,
SBMT,2024-11-05 18:00,82.40,66.20,58.08,260.00,4.00,0.00,29.94,,6.21,,BKN,FEW,,,3900.00,4000.00,,,,,,,,,,84.63,SBMT 051800Z 26004KT 9999 BKN039 FEW040TCU 28/19 Q1014,
SBMT,2024-11-05 19:00,75.20,68.00,78.34,330.00,3.00,0.00,29.94,,6.21,,BKN,,,,4900.00,,,,RA,,,,,,,75.20,SBMT 051900Z 33003KT 9999 RA BKN049 24/20 Q1014,
SBMT,2024-11-05 20:00,77.00,68.00,73.78,180.00,4.00,0.00,29.94,,6.21,,BKN,,,,4900.00,,,,,,,,,,,77.00,SBMT 052000Z 18004KT 9999 BKN049 25/20 Q1014 RERA,
SBMT,2024-11-05 21:00,73.40,69.80,88.51,140.00,5.00,0.00,29.97,,4.35,,BKN,,,,2600.00,,,,,,,,,,,73.40,SBMT 052100Z 14005KT 7000 BKN026 23/21 Q1015,
SBMT,2024-11-05 22:00,73.40,68.00,83.21,140.00,5.00,0.00,29.97,,4.35,,BKN,,,,2300.00,,,,,,,,,,,73.40,SBMT 052200Z 14005KT 7000 BKN023 23/20 Q1015,
SBMT,2024-11-05 23:00,73.40,66.20,78.19,80.00,4.00,0.00,30.00,,6.21,,BKN,,,,4900.00,,,,,,,,,,,73.40,SBMT 052300Z 08004KT 9999 BKN049 23/19 Q1016,
SBMT,2024-11-06 00:00,73.40,66.20,78.19,110.00,6.00,0.00,30.03,,6.21,,BKN,,,,3600.00,,,,,,,,,,,73.40,SBMT 060000Z 11006KT 9999 BKN036 23/19 Q1017,
SBMT,2024-11-06 01:00,73.40,68.00,83.21,90.00,4.00,0.00,30.03,,4.35,,BKN,,,,1700.00,,,,,,,,,,,73.40,SBMT 060100Z 09004KT 7000 BKN017 23/20 Q1017,
SBMT,2024-11-06 02:00,71.60,68.00,88.43,80.00,5.00,0.00,30.03,,1.86,,BKN,,,,1500.00,,,,BR,,,,,,,71.60,SBMT 060200Z 08005KT 3000 BR BKN015 22/20 Q1017,
SBMT,2024-11-06 09:00,71.60,68.00,88.43,40.00,2.00,0.00,30.00,,6.21,,FEW,BKN,,,1700.00,3600.00,,,,,,,,,,71.60,SBMT 060900Z 04002KT 9999 FEW017 BKN036 22/20 Q1016,
SBMT,2024-11-06 10:00,73.40,68.00,83.21,80.00,5.00,0.00,30.00,,4.97,,SCT,,,,1500.00,,,,,,,,,,,73.40,SBMT 061000Z 08005KT 8000 SCT015 23/20 Q1016,
SBMT,2024-11-06 11:00,75.20,66.20,73.61,60.00,5.00,0.00,30.00,,6.21,,BKN,,,,2000.00,,,,,,,,,,,75.20,SBMT 061100Z 06005KT 9999 BKN020 24/19 Q1016,
SBMT,2024-11-06 12:00,75.20,66.20,73.61,330.00,7.00,0.00,30.00,,6.21,,BKN,,,,2300.00,,,,,,,,,,,75.20,SBMT 061200Z 33007KT 9999 BKN023 24/19 Q1016,
SBMT,2024-11-06 13:00,75.20,68.00,78.34,330.00,6.00,0.00,30.00,,6.21,,,,,,,,,,,,,,,,,75.20,SBMT 061300Z 33006KT CAVOK 24/20 Q1016,
SBMT,2024-11-06 14:00,80.60,68.00,65.54,290.00,6.00,0.00,30.00,,6.21,,BKN,,,,3000.00,,,,,,,,,,,83.29,SBMT 061400Z 29006KT 9999 BKN030 27/20 Q1016,
SBMT,2024-11-06 15:00,80.60,66.20,61.58,280.00,5.00,0.00,29.97,,6.21,,SCT,,,,3600.00,,,,,,,,,,,82.75,SBMT 061500Z 28005KT 9999 SCT036 27/19 Q1015,
SBMT,2024-11-06 16:00,82.40,68.00,61.81,250.00,5.00,0.00,29.94,,6.21,,BKN,,,,4900.00,,,,,,,,,,,85.38,SBMT 061600Z 25005KT 9999 BKN049 28/20 Q1014,
SBMT,2024-11-06 17:00,80.60,64.40,57.84,290.00,4.00,0.00,29.91,,6.21,,BKN,,,,3500.00,,,,,,,,,,,82.27,SBMT 061700Z 29004KT 9999 BKN035 27/18 Q1013,
SBMT,2024-11-06 18:00,75.20,68.00,78.34,120.00,7.00,0.00,29.91,,3.73,,BKN,FEW,,,2000.00,3000.00,,,,,,,,,,75.20,SBMT 061800Z 12007KT 6000 BKN020 FEW030TCU 24/20 Q1013,
SBMT,2024-11-06 19:00,73.40,66.20,78.19,110.00,7.00,0.00,29.91,,3.73,,SCT,BKN,FEW,,1200.00,3000.00,4500.00,,,,,,,,,73.40,SBMT 061900Z 11007KT 6000 SCT012 BKN030 FEW045TCU 23/19 Q1013,
SBMT,2024-11-06 20:00,69.80,66.20,88.34,280.00,6.00,0.00,29.94,,1.24,,BKN,BKN,FEW,,900.00,2500.00,4500.00,,TSRA BR,,,,,,,69.80,SBMT 062000Z 28006KT 2000 TSRA BR BKN009 BKN025 FEW045CB 21/19 Q1014,
SBMT,2024-11-06 21:00,69.80,68.00,94.01,130.00,6.00,0.00,29.94,,1.24,,BKN,BKN,FEW,,800.00,2000.00,4000.00,,TSRA BR,,,,,,,69.80,SBMT 062100Z 13006KT 2000 TSRA BR BKN008 BKN020 FEW040CB 21/20 Q1014,
SBMT,2024-11-06 22:00,69.80,68.00,94.01,130.00,2.00,0.00,29.94,,4.35,,SCT,SCT,FEW,,900.00,3000.00,4000.00,,-RA,,,,,,,69.80,SBMT 062200Z 13002KT 7000 -RA SCT009 SCT030 FEW040TCU 21/20 Q1014 RETS,
SBMT,2024-11-06 23:00,69.80,68.00,94.01,0.00,0.00,0.00,29.97,,6.21,,SCT,SCT,,,1000.00,4000.00,,,,,,,,,,69.80,SBMT 062300Z 00000KT 9999 SCT010 SCT040 21/20 Q1015,
SBMT,2024-11-07 00:00,71.60,68.00,88.43,110.00,3.00,0.00,29.97,,6.21,,SCT,SCT,,,900.00,4000.00,,,,,,,,,,71.60,SBMT 070000Z 11003KT 9999 SCT009 SCT040 22/20 Q1015,
SBMT,2024-11-07 01:00,69.80,68.00,94.01,100.00,3.00,0.00,29.97,,4.97,,FEW,BKN,,,800.00,8000.00,,,-RA,,,,,,,69.80,SBMT 070100Z 10003KT 8000 -RA FEW008 BKN080 21/20 Q1015,
SBMT,2024-11-07 02:00,69.80,68.00,94.01,100.00,3.00,0.00,29.97,,4.97,,SCT,BKN,,,700.00,7000.00,,,,,,,,,,69.80,SBMT 070200Z 10003KT 8000 SCT007 BKN070 21/20 Q1015,
SBMT,2024-11-07 09:00,69.80,68.00,94.01,70.00,3.00,0.00,29.91,,4.97,,NSC,,,,,,,,,,,,,,,69.80,SBMT 070900Z 07003KT 8000 NSC 21/20 Q1013,
SBMT,2024-11-07 10:00,69.80,68.00,94.01,360.00,2.00,0.00,29.94,,6.21,,BKN,,,,4900.00,,,,,,,,,,,69.80,SBMT 071000Z 36002KT 9999 BKN049 21/20 Q1014,
SBMT,2024-11-07 11:00,71.60,66.20,83.09,340.00,7.00,0.00,29.94,,6.21,,FEW,,,,1700.00,,,,,,,,,,,71.60,SBMT 071100Z 34007KT 9999 FEW017 22/19 Q1014,
SBMT,2024-11-07 12:00,71.60,68.00,88.43,340.00,8.00,0.00,29.94,,6.21,,SCT,BKN,,,1700.00,3600.00,,,,,,,,,,71.60,SBMT 071200Z 34008KT 9999 SCT017 BKN036 22/20 Q1014,
SBMT,2024-11-07 13:00,71.60,66.20,83.09,340.00,6.00,0.00,29.94,,4.97,,FEW,BKN,,,2000.00,4000.00,,,-RA,,,,,,,71.60,SBMT 071300Z 34006KT 8000 -RA FEW020 BKN040 22/19 Q1014,
SBMT,2024-11-07 13:06,71.60,68.00,88.43,340.00,5.00,0.00,29.94,,1.24,,FEW,BKN,,,2000.00,4000.00,,,+RA,,,,,,,71.60,SBMT 071306Z 34005KT 2000 +RA FEW020 BKN040 22/20 Q1014,
SBMT,2024-11-07 14:00,71.60,68.00,88.43,10.00,6.00,0.00,29.91,,6.21,,SCT,BKN,BKN,,1300.00,1700.00,3300.00,,,,,,,,,71.60,SBMT 071400Z 01006KT 9999 SCT013 BKN017 BKN033 22/20 Q1013,
SBMT,2024-11-07 15:00,71.60,68.00,88.43,360.00,5.00,0.00,29.91,,6.21,,SCT,BKN,BKN,,1300.00,1700.00,3300.00,,-RA,,,,,,,71.60,COR SBMT 071500Z 36005KT 9999 -RA SCT013 BKN017 BKN033 22/20 Q1013,
SBMT,2024-11-07 16:00,71.60,68.00,88.43,350.00,6.00,0.00,29.88,,6.21,,BKN,BKN,,,1700.00,3300.00,,,-RA,,,,,,,71.60,COR SBMT 071600Z 35006KT 9999 -RA BKN017 BKN033 22/20 Q1012,
SBMT,2024-11-07 17:00,71.60,68.00,88.43,330.00,9.00,0.00,29.85,,4.35,,SCT,BKN,,,1500.00,2000.00,,,-DZ,,,,,,,71.60,SBMT 071700Z 33009KT 290V010 7000 -DZ SCT015 BKN020 22/20 Q1011 RERA,
SBMT,2024-11-07 18:00,71.60,68.00,88.43,330.00,6.00,0.00,29.83,,4.97,,SCT,BKN,,,1500.00,1700.00,,,,,,,,,,71.60,SBMT 071800Z 33006KT 280V020 8000 SCT015 BKN017 22/20 Q1010,
SBMT,2024-11-07 19:00,73.40,66.20,78.19,320.00,9.00,0.00,29.80,,5.59,,SCT,BKN,,,1500.00,1700.00,,,,,,,,,,73.40,SBMT 071900Z 32009KT 270V360 9000 SCT015 BKN017 23/19 Q1009,
SBMT,2024-11-07 20:00,73.40,66.20,78.19,,10.00,0.00,29.77,,6.21,21.00,SCT,BKN,,,1700.00,2300.00,,,,,,,,,,73.40,SBMT 072000Z VRB10G21KT 9999 SCT017 BKN023 23/19 Q1008,
SBMT,2024-11-07 21:00,71.60,64.40,78.04,320.00,10.00,0.00,29.80,,6.21,,SCT,BKN,,,1700.00,2300.00,,,,,,,,,,71.60,SBMT 072100Z 32010KT 250V350 9999 SCT017 BKN023 22/18 Q1009,
SBMT,2024-11-07 22:00,71.60,64.40,78.04,320.00,7.00,0.00,29.80,,6.21,,BKN,,,,2300.00,,,,,,,,,,,71.60,SBMT 072200Z 32007KT 280V030 9999 BKN023 22/18 Q1009,
SBMT,2024-11-07 23:00,71.60,64.40,78.04,300.00,6.00,0.00,29.83,,6.21,,BKN,,,,2000.00,,,,,,,,,,,71.60,SBMT 072300Z 30006KT 270V360 9999 BKN020 22/18 Q1010,
SBMT,2024-11-08 00:00,71.60,66.20,83.09,,6.00,0.00,29.83,,6.21,,SCT,,,,2000.00,,,,,,,,,,,71.60,SBMT 080000Z VRB06KT 9999 SCT020 22/19 Q1010,
SBMT,2024-11-08 01:00,71.60,66.20,83.09,350.00,6.00,0.00,29.83,,6.21,,SCT,,,,3000.00,,,,,,,,,,,71.60,SBMT 080100Z 35006KT 320V040 9999 SCT030 22/19 Q1010,
SBMT,2024-11-08 02:00,71.60,66.20,83.09,320.00,4.00,0.00,29.83,,6.21,,SCT,,,,4000.00,,,,,,,,,,,71.60,SBMT 080200Z 32004KT 250V010 9999 SCT040 22/19 Q1010,
SBMT,2024-11-08 09:00,68.00,66.20,93.97,340.00,4.00,0.00,29.80,,2.49,,BKN,OVC,,,1000.00,1500.00,,,-RA,,,,,,,68.00,SBMT 080900Z 34004KT 4000 -RA BKN010 OVC015 20/19 Q1009,
SBMT,2024-11-08 10:00,69.80,66.20,88.34,310.00,6.00,0.00,29.83,,5.59,,BKN,OVC,,,1300.00,2000.00,,,-RA,,,,,,,69.80,SBMT 081000Z 31006KT 9000 -RA BKN013 OVC020 21/19 Q1010,
SBMT,2024-11-08 11:00,69.80,68.00,94.01,290.00,4.00,0.00,29.83,,6.21,,BKN,OVC,,,1400.00,1900.00,,,,,,,,,,69.80,SBMT 081100Z 29004KT 9999 BKN014 OVC019 21/20 Q1010,
SBMT,2024-11-08 12:00,73.40,68.00,83.21,300.00,5.00,0.00,29.85,,6.21,,FEW,BKN,BKN,,1400.00,1600.00,2500.00,,,,,,,,,73.40,SBMT 081200Z 30005KT 9999 FEW014 BKN016 BKN025 23/20 Q1011,
SBMT,2024-11-08 13:00,71.60,69.80,94.06,310.00,6.00,0.00,29.85,,6.21,,BKN,BKN,,,1500.00,2500.00,,,-RA,,,,,,,71.60,SBMT 081300Z 31006KT 9999 4000E -RA BKN015 BKN025 22/21 Q1011,
SBMT,2024-11-08 14:00,71.60,68.00,88.43,300.00,6.00,0.00,29.85,,1.55,,FEW,BKN,BKN,,800.00,2200.00,3300.00,,-RA BR,,,,,,,71.60,SBMT 081400Z 30006KT 2500 -RA BR FEW008 BKN022 BKN033 22/20 Q1011 RERA,
SBMT,2024-11-08 15:00,71.60,69.80,94.06,320.00,4.00,0.00,29.85,,6.21,,SCT,BKN,,,1000.00,5000.00,,,,,,,,,,71.60,SBMT 081500Z 32004KT 9999 SCT010 BKN050 22/21 Q1011,
SBMT,2024-11-08 16:00,69.80,68.00,94.01,,2.00,0.00,29.83,,5.59,,FEW,SCT,BKN,,1100.00,2100.00,4300.00,,-RA,,,,,,,69.80,SBMT 081600Z VRB02KT 9000 -RA FEW011 SCT021 BKN043 21/20 Q1010 RERA,
SBMT,2024-11-08 17:00,71.60,68.00,88.43,150.00,5.00,0.00,29.83,,6.21,,BKN,BKN,,,1300.00,1700.00,,,,,,,,,,71.60,SBMT 081700Z 15005KT 9999 BKN013 BKN017 22/20 Q1010,
SBMT,2024-11-08 18:00,66.20,64.40,93.92,170.00,9.00,0.00,29.83,,1.24,,BKN,,,,800.00,,,,+RA BR,,,,,,,66.20,SBMT 081800Z 17009KT 120V220 2000 +RA BR BKN008 19/18 Q1010 RERA,
SBMT,2024-11-08 18:09,66.20,64.40,93.92,150.00,6.00,0.00,29.83,,1.24,,BKN,FEW,,,700.00,3000.00,,,TSRA BR,,,,,,,66.20,SBMT 081809Z 15006KT 2000 TSRA BR BKN007 FEW030CB 19/18 Q1010 RERA,
SBMT,2024-11-08 19:00,64.40,62.60,93.88,160.00,6.00,0.00,29.85,,4.97,,FEW,BKN,,,1100.00,1700.00,,,-RA,,,,,,,64.40,SBMT 081900Z 16006KT 8000 -RA FEW011 BKN017 18/17 Q1011 RERA RETSRA,
SBMT,2024-11-08 20:00,64.40,62.60,93.88,160.00,7.00,0.00,29.85,,2.49,,BKN,BKN,,,1100.00,1900.00,,,RA BR,,,,,,,64.40,SBMT 082000Z 16007KT 4000 RA BR BKN011 BKN019 18/17 Q1011,
SBMT,2024-11-08 21:00,64.40,62.60,93.88,160.00,5.00,0.00,29.88,,6.21,,BKN,,,,1100.00,,,,-RA,,,,,,,64.40,SBMT 082100Z 16005KT 120V200 9999 -RA BKN011 18/17 Q1012 RERA,
SBMT,2024-11-08 22:00,64.40,62.60,93.88,130.00,5.00,0.00,29.88,,6.21,,BKN,,,,1300.00,,,,-RA,,,,,,,64.40,SBMT 082200Z 13005KT 9999 -RA BKN013 18/17 Q1012,
SBMT,2024-11-08 23:00,64.40,62.60,93.88,120.00,5.00,0.00,29.91,,6.21,,SCT,BKN,,,1300.00,3000.00,,,-RA,,,,,,,64.40,SBMT 082300Z 12005KT 9999 -RA SCT013 BKN030 18/17 Q1013,
SBMT,2024-11-09 00:00,64.40,62.60,93.88,130.00,4.00,0.00,29.94,,6.21,,FEW,BKN,,,1100.00,2100.00,,,,,,,,,,64.40,SBMT 090000Z 13004KT 9999 FEW011 BKN021 18/17 Q1014,
SBMT,2024-11-09 01:00,64.40,60.80,88.09,130.00,4.00,0.00,29.94,,6.21,,SCT,BKN,,,1500.00,2300.00,,,,,,,,,,64.40,SBMT 090100Z 13004KT 090V190 9999 SCT015 BKN023 18/16 Q1014,
SBMT,2024-11-09 02:00,64.40,60.80,88.09,140.00,5.00,0.00,29.94,,6.21,,FEW,,,,1500.00,,,,,,,,,,,64.40,SBMT 090200Z 14005KT 9999 FEW015 18/16 Q1014,
SBMT,2024-11-09 09:00,62.60,55.40,77.29,130.00,5.00,0.00,29.94,,4.97,,SCT,BKN,,,1300.00,3000.00,,,,,,,,,,62.60,SBMT 090900Z 13005KT 8000 SCT013 BKN030 17/13 Q1014,
SBMT,2024-11-09 10:00,64.40,55.40,72.56,130.00,6.00,0.00,29.97,,4.97,,BKN,,,,1500.00,,,,,,,,,,,64.40,SBMT 091000Z 13006KT 8000 BKN015 18/13 Q1015,
SBMT,2024-11-09 11:00,64.40,57.20,77.45,130.00,5.00,0.00,29.97,,6.21,,BKN,,,,1500.00,,,,,,,,,,,64.40,SBMT 091100Z 13005KT 9999 BKN015 18/14 Q1015,
SBMT,2024-11-09 12:00,64.40,57.20,77.45,150.00,7.00,0.00,30.00,,4.97,,BKN,,,,1500.00,,,,,,,,,,,64.40,SBMT 091200Z 15007KT 8000 BKN015 18/14 Q1016,
SBMT,2024-11-09 13:00,66.20,59.00,77.60,120.00,6.00,0.00,30.00,,4.97,,BKN,,,,1500.00,,,,,,,,,,,66.20,SBMT 091300Z 12006KT 8000 BKN015 19/15 Q1016,
SBMT,2024-11-09 14:00,68.00,57.20,68.35,110.00,5.00,0.00,30.00,,6.21,,BKN,,,,2000.00,,,,,,,,,,,68.00,SBMT 091400Z 11005KT 9999 BKN020 20/14 Q1016,
SBMT,2024-11-09 15:00,68.00,57.20,68.35,130.00,6.00,0.00,30.00,,6.21,,BKN,,,,2000.00,,,,,,,,,,,68.00,SBMT 091500Z 13006KT 9999 BKN020 20/14 Q1016,
SBMT,2024-11-09 16:00,68.00,59.00,72.92,140.00,8.00,0.00,30.00,,6.21,,BKN,,,,2000.00,,,,,,,,,,,68.00,SBMT 091600Z 14008KT 9999 BKN020 20/15 Q1016,
SBMT,2024-11-09 17:00,68.00,60.80,77.75,170.00,9.00,0.00,30.00,,6.21,,SCT,BKN,,,1500.00,2300.00,,,,,,,,,,68.00,SBMT 091700Z 17009KT 9999 SCT015 BKN023 20/16 Q1016,
SBMT,2024-11-09 18:00,68.00,60.80,77.75,140.00,7.00,0.00,29.97,,6.21,,BKN,,,,2000.00,,,,,,,,,,,68.00,SBMT 091800Z 14007KT 9999 BKN020 20/16 Q1015,
SBMT,2024-11-09 19:00,66.20,60.80,82.74,140.00,10.00,0.00,29.97,,6.21,,BKN,,,,1700.00,,,,,,,,,,,66.20,SBMT 091900Z 14010KT 9999 BKN017 19/16 Q1015,
SBMT,2024-11-09 20:00,66.20,59.00,77.60,140.00,7.00,0.00,29.97,,6.21,,BKN,,,,1900.00,,,,,,,,,,,66.20,SBMT 092000Z 14007KT 9999 BKN019 19/15 Q1015,
SBMT,2024-11-09 21:00,62.60,59.00,88.00,140.00,7.00,0.00,30.00,,6.21,,SCT,BKN,,,1300.00,1500.00,,,,,,,,,,62.60,SBMT 092100Z 14007KT 9999 SCT013 BKN015 17/15 Q1016,
SBMT,2024-11-09 22:00,62.60,57.20,82.50,120.00,8.00,0.00,30.03,,6.21,,BKN,,,,1300.00,,,,,,,,,,,62.60,SBMT 092200Z 12008KT 9999 BKN013 17/14 Q1017,
SBMT,2024-11-09 23:00,60.80,59.00,93.79,130.00,5.00,0.00,30.06,,4.97,,BKN,,,,1100.00,,,,,,,,,,,60.80,SBMT 092300Z 13005KT 8000 BKN011 16/15 Q1018,
SBMT,2024-11-10 00:00,60.80,59.00,93.79,110.00,7.00,0.00,30.06,,6.21,,SCT,,,,1100.00,,,,,,,,,,,60.80,SBMT 100000Z 11007KT 9999 SCT011 16/15 Q1018,
SBMT,2024-11-10 00:06,60.80,59.00,93.79,110.00,8.00,0.00,30.09,,3.73,,BKN,,,,900.00,,,,-DZ,,,,,,,60.80,SBMT 100006Z 11008KT 6000 -DZ BKN009 16/15 Q1019,
SBMT,2024-11-10 01:00,59.00,57.20,93.74,100.00,8.00,0.00,30.09,,6.21,,BKN,,,,900.00,,,,,,,,,,,59.00,SBMT 100100Z 10008KT 9999 BKN009 15/14 Q1019,
SBMT,2024-11-10 02:00,59.00,57.20,93.74,120.00,7.00,0.00,30.06,,6.21,,BKN,BKN,,,900.00,3000.00,,,,,,,,,,59.00,SBMT 100200Z 12007KT 9999 BKN009 BKN030 15/14 Q1018,
SBMT,2024-11-10 09:00,59.00,57.20,93.74,100.00,5.00,0.00,30.03,,6.21,,BKN,BKN,,,1100.00,3000.00,,,,,,,,,,59.00,SBMT 100900Z 10005KT 9999 3000E BKN011 BKN030 15/14 Q1017,
SBMT,2024-11-10 10:00,60.80,57.20,87.92,90.00,6.00,0.00,30.03,,6.21,,BKN,,,,1100.00,,,,,,,,,,,60.80,SBMT 101000Z 09006KT 9999 BKN011 16/14 Q1017,
SBMT,2024-11-10 11:00,66.20,59.00,77.60,100.00,9.00,0.00,30.06,,6.21,,SCT,BKN,,,1500.00,1700.00,,,,,,,,,,66.20,COR SBMT 101100Z 10009KT 9999 SCT015 BKN017 19/15 Q1018,
SBMT,2024-11-10 13:00,69.80,57.20,64.26,120.00,7.00,0.00,30.06,,6.21,,BKN,,,,3900.00,,,,,,,,,,,69.80,SBMT 101300Z 12007KT 9999 BKN039 21/14 Q1018,
SBMT,2024-11-10 14:00,69.80,55.40,60.21,120.00,7.00,0.00,30.03,,6.21,,BKN,,,,3900.00,,,,,,,,,,,69.80,SBMT 101400Z 12007KT 9999 BKN039 21/13 Q1017,
SBMT,2024-11-10 15:00,71.60,57.20,60.44,150.00,6.00,0.00,30.03,,6.21,,BKN,,,,3600.00,,,,,,,,,,,71.60,SBMT 101500Z 15006KT 9999 BKN036 22/14 Q1017,
SBMT,2024-11-10 16:00,73.40,60.80,64.69,170.00,9.00,0.00,30.00,,6.21,,BKN,,,,3300.00,,,,,,,,,,,73.40,SBMT 101600Z 17009KT 9999 BKN033 23/16 Q1016,
SBMT,2024-11-10 17:00,75.20,57.20,53.55,140.00,4.00,0.00,30.00,,6.21,,BKN,,,,3000.00,,,,,,,,,,,75.20,SBMT 101700Z 14004KT 9999 BKN030 24/14 Q1016,
SBMT,2024-11-10 18:00,73.40,57.20,56.88,160.00,8.00,0.00,29.97,,6.21,,SCT,,,,3500.00,,,,,,,,,,,73.40,SBMT 101800Z 16008KT 9999 SCT035 23/14 Q1015,
SBMT,2024-11-10 19:00,71.60,57.20,60.44,150.00,10.00,0.00,29.97,,6.21,,SCT,,,,3000.00,,,,,,,,,,,71.60,SBMT 101900Z 15010KT 9999 SCT030 22/14 Q1015,
SBMT,2024-11-10 20:00,69.80,57.20,64.26,130.00,10.00,0.00,29.97,,6.21,,BKN,,,,2500.00,,,,,,,,,,,69.80,SBMT 102000Z 13010KT 9999 BKN025 21/14 Q1015,
SBMT,2024-11-10 21:00,66.20,55.40,68.15,150.00,8.00,0.00,29.97,,6.21,,SCT,,,,2500.00,,,,,,,,,,,66.20,SBMT 102100Z 15008KT 9999 SCT025 19/13 Q1015,
SBMT,2024-11-10 22:00,64.40,55.40,72.56,140.00,9.00,0.00,30.00,,6.21,,BKN,,,,2500.00,,,,,,,,,,,64.40,SBMT 102200Z 14009KT 9999 BKN025 18/13 Q1016,
SBMT,2024-11-10 23:00,62.60,55.40,77.29,140.00,8.00,0.00,30.00,,6.21,,BKN,,,,1700.00,,,,,,,,,,,62.60,SBMT 102300Z 14008KT 9999 BKN017 17/13 Q1016,
SBMT,2024-11-11 00:00,62.60,53.60,72.38,100.00,8.00,0.00,30.00,,6.21,,BKN,,,,2000.00,,,,,,,,,,,62.60,SBMT 110000Z 10008KT 9999 BKN020 17/12 Q1016,
SBMT,2024-11-11 01:00,62.60,51.80,67.75,90.00,8.00,0.00,30.00,,6.21,,BKN,,,,2000.00,,,,,,,,,,,62.60,SBMT 110100Z 09008KT 9999 BKN020 17/11 Q1016,
SBMT,2024-11-11 02:00,60.80,51.80,72.20,90.00,7.00,0.00,30.00,,6.21,,BKN,,,,2000.00,,,,,,,,,,,60.80,SBMT 110200Z 09007KT 9999 BKN020 16/11 Q1016,
SBMT,2024-11-11 09:00,59.00,55.40,87.83,80.00,3.00,0.00,29.94,,4.97,,NSC,,,,,,,,,,,,,,,59.00,SBMT 110900Z 08003KT 8000 NSC 15/13 Q1014,
SBMT,2024-11-11 10:00,62.60,57.20,82.50,80.00,6.00,0.00,29.97,,5.59,,NSC,,,,,,,,,,,,,,,62.60,SBMT 111000Z 08006KT 9000 NSC 17/14 Q1015,
SBMT,2024-11-11 11:00,68.00,59.00,72.92,110.00,4.00,0.00,29.97,,6.21,,,,,,,,,,,,,,,,,68.00,SBMT 111100Z 11004KT CAVOK 20/15 Q1015,
SBMT,2024-11-11 12:00,73.40,60.80,64.69,0.00,0.00,0.00,29.97,,6.21,,,,,,,,,,,,,,,,,73.40,SBMT 111200Z 00000KT CAVOK 23/16 Q1015,
SBMT,2024-11-11 13:00,77.00,62.60,61.13,310.00,6.00,0.00,29.94,,6.21,,,,,,,,,,,,,,,,,77.00,SBMT 111300Z 31006KT CAVOK 25/17 Q1014,
SBMT,2024-11-11 14:00,80.60,59.00,47.79,300.00,12.00,0.00,29.94,,6.21,,,,,,,,,,,,,,,,,81.11,SBMT 111400Z 30012KT CAVOK 27/15 Q1014,
SBMT,2024-11-11 15:00,82.40,60.80,48.05,310.00,10.00,0.00,29.91,,6.21,,,,,,,,,,,,,,,,,82.90,SBMT 111500Z 31010KT CAVOK 28/16 Q1013,
SBMT,2024-11-11 16:00,84.20,57.20,39.86,320.00,6.00,0.00,29.88,,6.21,,,,,,,,,,,,,,,,,83.47,SBMT 111600Z 32006KT CAVOK 29/14 Q1012,
SBMT,2024-11-11 17:00,84.20,53.60,34.97,320.00,11.00,0.00,29.85,,6.21,,,,,,,,,,,,,,,,,82.76,SBMT 111700Z 32011KT CAVOK 29/12 Q1011,
SBMT,2024-11-11 18:00,84.20,51.80,32.73,270.00,11.00,0.00,29.85,,6.21,,,,,,,,,,,,,,,,,82.48,SBMT 111800Z 27011KT CAVOK 29/11 Q1011,
SBMT,2024-11-11 19:00,84.20,50.00,30.62,280.00,10.00,0.00,29.83,,6.21,,,,,,,,,,,,,,,,,82.24,SBMT 111900Z 28010KT CAVOK 29/10 Q1010,
SBMT,2024-11-11 20:00,82.40,50.00,32.46,270.00,10.00,0.00,29.85,,6.21,,,,,,,,,,,,,,,,,80.99,SBMT 112000Z 27010KT CAVOK 28/10 Q1011,
SBMT,2024-11-11 21:00,82.40,50.00,32.46,280.00,7.00,0.00,29.85,,6.21,,,,,,,,,,,,,,,,,80.99,SBMT 112100Z 28007KT 260V320 CAVOK 28/10 Q1011,
SBMT,2024-11-11 22:00,75.20,55.40,50.17,150.00,5.00,0.00,29.88,,6.21,,,,,,,,,,,,,,,,,75.20,SBMT 112200Z 15005KT CAVOK 24/13 Q1012,
SBMT,2024-11-11 23:00,75.20,53.60,46.98,140.00,4.00,0.00,29.88,,6.21,,,,,,,,,,,,,,,,,75.20,SBMT 112300Z 14004KT CAVOK 24/12 Q1012,
SBMT,2024-11-12 00:00,71.60,55.40,56.63,50.00,1.00,0.00,29.91,,6.21,,,,,,,,,,,,,,,,,71.60,SBMT 120000Z 05001KT CAVOK 22/13 Q1013,
SBMT,2024-11-12 01:00,66.20,57.20,72.74,0.00,0.00,0.00,29.91,,6.21,,,,,,,,,,,,,,,,,66.20,SBMT 120100Z 00000KT CAVOK 19/14 Q1013,
SBMT,2024-11-12 02:00,66.20,57.20,72.74,0.00,0.00,0.00,29.91,,6.21,,,,,,,,,,,,,,,,,66.20,SBMT 120200Z 00000KT CAVOK 19/14 Q1013,
SBMT,2024-11-12 09:00,60.80,57.20,87.92,0.00,0.00,0.00,29.85,,6.21,,,,,,,,,,,,,,,,,60.80,SBMT 120900Z 00000KT CAVOK 16/14 Q1011,
SBMT,2024-11-12 10:00,68.00,59.00,72.92,100.00,3.00,0.00,29.88,,6.21,,,,,,,,,,,,,,,,,68.00,SBMT 121000Z 10003KT 080V150 CAVOK 20/15 Q1012,
SBMT,2024-11-12 11:00,75.20,57.20,53.55,0.00,0.00,0.00,29.88,,6.21,,,,,,,,,,,,,,,,,75.20,SBMT 121100Z 00000KT CAVOK 24/14 Q1012,
SBMT,2024-11-12 12:00,78.80,57.20,47.52,210.00,2.00,0.00,29.88,,6.21,,,,,,,,,,,,,,,,,78.80,SBMT 121200Z 21002KT CAVOK 26/14 Q1012,
SBMT,2024-11-12 13:00,82.40,55.40,39.58,280.00,8.00,0.00,29.88,,6.21,,,,,,,,,,,,,,,,,81.75,SBMT 121300Z 28008KT CAVOK 28/13 Q1012,
SBMT,2024-11-12 14:00,84.20,57.20,39.86,270.00,7.00,0.00,29.85,,6.21,,,,,,,,,,,,,,,,,83.47,SBMT 121400Z 27007KT 200V320 CAVOK 29/14 Q1011,
SBMT,2024-11-12 15:00,86.00,59.00,40.14,260.00,9.00,0.00,29.85,,6.21,,,,,,,,,,,,,,,,,85.47,SBMT 121500Z 26009KT 200V300 CAVOK 30/15 Q1011,
SBMT,2024-11-12 16:00,87.80,60.80,40.41,290.00,6.00,0.00,29.83,,6.21,,,,,,,,,,,,,,,,,87.75,SBMT 121600Z 29006KT 250V340 CAVOK 31/16 Q1010,
SBMT,2024-11-12 17:00,75.20,68.00,78.34,150.00,14.00,0.00,29.85,,6.21,,FEW,SCT,,,1500.00,8000.00,,,,,,,,,,75.20,SBMT 121700Z 15014KT 9999 FEW015 SCT080 24/20 Q1011,
SBMT,2024-11-12 18:00,71.60,66.20,83.09,130.00,11.00,0.00,29.85,,6.21,,BKN,,,,1600.00,,,,,,,,,,,71.60,SBMT 121800Z 13011KT 9999 BKN016 22/19 Q1011,
SBMT,2024-11-12 19:00,68.00,64.40,88.26,150.00,8.00,0.00,29.85,,6.21,,OVC,,,,1000.00,,,,,,,,,,,68.00,SBMT 121900Z 15008KT 9999 OVC010 20/18 Q1011,
SBMT,2024-11-12 20:00,68.00,64.40,88.26,150.00,7.00,0.00,29.85,,5.59,,OVC,,,,1000.00,,,,,,,,,,,68.00,SBMT 122000Z 15007KT 9000 OVC010 20/18 Q1011,
SBMT,2024-11-12 21:00,68.00,62.60,82.86,150.00,8.00,0.00,29.85,,6.21,,OVC,,,,1100.00,,,,,,,,,,,68.00,SBMT 122100Z 15008KT 9999 OVC011 20/17 Q1011,
SBMT,2024-11-12 22:00,66.20,60.80,82.74,130.00,11.00,0.00,29.88,,6.21,,OVC,,,,1200.00,,,,,,,,,,,66.20,SBMT 122200Z 13011KT 9999 OVC012 19/16 Q1012,
SBMT,2024-11-12 23:00,66.20,60.80,82.74,130.00,8.00,0.00,29.94,,6.21,,OVC,,,,1300.00,,,,,,,,,,,66.20,SBMT 122300Z 13008KT 9999 OVC013 19/16 Q1014,
SBMT,2024-11-13 00:00,64.40,60.80,88.09,110.00,8.00,0.00,29.94,,6.21,,OVC,,,,1200.00,,,,,,,,,,,64.40,SBMT 130000Z 11008KT 9999 OVC012 18/16 Q1014,
SBMT,2024-11-13 01:00,62.60,60.80,93.83,140.00,8.00,0.00,29.94,,3.73,,OVC,,,,1000.00,,,,-DZ,,,,,,,62.60,SBMT 130100Z 14008KT 6000 -DZ OVC010 17/16 Q1014,
SBMT,2024-11-13 02:00,64.40,60.80,88.09,150.00,7.00,0.00,29.94,,6.21,,OVC,,,,1200.00,,,,,,,,,,,64.40,SBMT 130200Z 15007KT 9999 OVC012 18/16 Q1014,
SBMT,2024-11-13 09:00,60.80,59.00,93.79,130.00,6.00,0.00,29.91,,6.21,,BKN,,,,900.00,,,,,,,,,,,60.80,SBMT 130900Z 13006KT 9999 BKN009 16/15 Q1013,
SBMT,2024-11-13 10:00,60.80,57.20,87.92,140.00,9.00,0.00,29.94,,6.21,,BKN,,,,1100.00,,,,,,,,,,,60.80,COR SBMT 131000Z 14009KT 9999 BKN011 16/14 Q1014,
SBMT,2024-11-13 11:00,60.80,59.00,93.79,150.00,6.00,0.00,29.97,,6.21,,BKN,,,,900.00,,,,,,,,,,,60.80,SBMT 131100Z 15006KT 9999 BKN009 16/15 Q1015,
SBMT,2024-11-13 12:00,60.80,57.20,87.92,130.00,8.00,0.00,29.97,,6.21,,BKN,,,,1300.00,,,,,,,,,,,60.80,SBMT 131200Z 13008KT 9999 BKN013 16/14 Q1015,
SBMT,2024-11-13 13:00,60.80,57.20,87.92,130.00,7.00,0.00,30.00,,6.21,,BKN,BKN,,,1100.00,1500.00,,,,,,,,,,60.80,SBMT 131300Z 13007KT 9999 BKN011 BKN015 16/14 Q1016,
SBMT,2024-11-13 14:00,62.60,57.20,82.50,190.00,6.00,0.00,30.00,,6.21,,SCT,BKN,,,1300.00,1500.00,,,,,,,,,,62.60,SBMT 131400Z 19006KT 9999 SCT013 BKN015 17/14 Q1016,
SBMT,2024-11-13 15:00,62.60,57.20,82.50,130.00,5.00,0.00,30.00,,6.21,,BKN,,,,1700.00,,,,,,,,,,,62.60,COR SBMT 131500Z 13005KT 9999 BKN017 17/14 Q1016,
SBMT,2024-11-13 16:00,64.40,57.20,77.45,90.00,5.00,0.00,29.97,,6.21,,BKN,,,,1900.00,,,,,,,,,,,64.40,SBMT 131600Z 09005KT 9999 BKN019 18/14 Q1015,
SBMT,2024-11-13 17:00,62.60,57.20,82.50,110.00,5.00,0.00,29.97,,6.21,,OVC,,,,1700.00,,,,,,,,,,,62.60,SBMT 131700Z 11005KT 9999 OVC017 17/14 Q1015,
SBMT,2024-11-13 18:00,62.60,57.20,82.50,150.00,6.00,0.00,29.94,,6.21,,OVC,,,,1600.00,,,,,,,,,,,62.60,SBMT 131800Z 15006KT 9999 OVC016 17/14 Q1014,
SBMT,2024-11-13 19:00,62.60,57.20,82.50,150.00,7.00,0.00,29.94,,6.21,,OVC,,,,1700.00,,,,,,,,,,,62.60,SBMT 131900Z 15007KT 9999 OVC017 17/14 Q1014,
SBMT,2024-11-13 20:00,62.60,55.40,77.29,160.00,8.00,0.00,29.94,,6.21,,OVC,,,,1800.00,,,,,,,,,,,62.60,SBMT 132000Z 16008KT 9999 OVC018 17/13 Q1014,
SBMT,2024-11-13 21:00,60.80,55.40,82.37,140.00,7.00,0.00,29.97,,6.21,,OVC,,,,1600.00,,,,,,,,,,,60.80,SBMT 132100Z 14007KT 9999 OVC016 16/13 Q1015,
SBMT,2024-11-13 22:00,59.00,53.60,82.25,130.00,11.00,0.00,30.00,,2.49,,BKN,OVC,,,1100.00,1300.00,,,BR,,,,,,,59.00,SBMT 132200Z 13011KT 4000 BR BKN011 OVC013 15/12 Q1016,
SBMT,2024-11-13 23:00,60.80,53.60,77.14,110.00,9.00,0.00,30.03,,6.21,,OVC,,,,1600.00,,,,,,,,,,,60.80,SBMT 132300Z 11009KT 9999 OVC016 16/12 Q1017,
SBMT,2024-11-14 00:00,59.00,51.80,76.98,90.00,8.00,0.00,30.06,,6.21,,OVC,,,,1900.00,,,,,,,,,,,59.00,SBMT 140000Z 09008KT 9999 OVC019 15/11 Q1018,
SBMT,2024-11-14 01:00,59.00,51.80,76.98,100.00,6.00,0.00,30.06,,6.21,,OVC,,,,2200.00,,,,,,,,,,,59.00,SBMT 140100Z 10006KT 9999 OVC022 15/11 Q1018,
SBMT,2024-11-14 02:00,59.00,51.80,76.98,90.00,7.00,0.00,30.06,,6.21,,OVC,,,,2600.00,,,,,,,,,,,59.00,SBMT 140200Z 09007KT 9999 OVC026 15/11 Q1018,
SBMT,2024-11-14 09:00,60.80,55.40,82.37,120.00,7.00,0.00,30.03,,6.21,,FEW,BKN,,,1300.00,1500.00,,,,,,,,,,60.80,SBMT 140900Z 12007KT 9999 FEW013 BKN015 16/13 Q1017,
SBMT,2024-11-14 10:00,60.80,57.20,87.92,100.00,8.00,0.00,30.03,,6.21,,SCT,BKN,,,1300.00,1500.00,,,,,,,,,,60.80,SBMT 141000Z 10008KT 9999 SCT013 BKN015 16/14 Q1017,
SBMT,2024-11-14 11:00,62.60,57.20,82.50,110.00,8.00,0.00,30.06,,6.21,,FEW,BKN,,,1300.00,1500.00,,,,,,,,,,62.60,SBMT 141100Z 11008KT 070V140 9999 FEW013 BKN015 17/14 Q1018,
SBMT,2024-11-14 12:00,62.60,57.20,82.50,90.00,8.00,0.00,30.06,,6.21,,SCT,BKN,,,1500.00,1700.00,,,,,,,,,,62.60,SBMT 141200Z 09008KT 9999 SCT015 BKN017 17/14 Q1018,
SBMT,2024-11-14 13:00,64.40,59.00,82.62,100.00,8.00,0.00,30.06,,6.21,,FEW,BKN,,,1700.00,2000.00,,,,,,,,,,64.40,SBMT 141300Z 10008KT 060V140 9999 FEW017 BKN020 18/15 Q1018,
SBMT,2024-11-14 14:00,66.20,59.00,77.60,80.00,10.00,0.00,30.06,,6.21,,FEW,BKN,,,1700.00,2000.00,,,,,,,,,,66.20,SBMT 141400Z 08010KT 9999 FEW017 BKN020 19/15 Q1018,
SBMT,2024-11-14 15:00,68.00,59.00,72.92,110.00,7.00,0.00,30.06,,6.21,,OVC,,,,2500.00,,,,,,,,,,,68.00,SBMT 141500Z 11007KT 9999 OVC025 20/15 Q1018,
SBMT,2024-11-14 16:00,68.00,60.80,77.75,140.00,7.00,0.00,30.03,,6.21,,OVC,,,,2500.00,,,,,,,,,,,68.00,SBMT 141600Z 14007KT 100V180 9999 OVC025 20/16 Q1017,
SBMT,2024-11-14 17:00,66.20,59.00,77.60,160.00,9.00,0.00,30.03,,6.21,,OVC,,,,2500.00,,,,,,,,,,,66.20,SBMT 141700Z 16009KT 130V200 9999 OVC025 19/15 Q1017,
SBMT,2024-11-14 18:00,64.40,57.20,77.45,140.00,8.00,0.00,30.03,,6.21,,SCT,BKN,,,1300.00,1500.00,,,,,,,,,,64.40,SBMT 141800Z 14008KT 100V180 9999 SCT013 BKN015 18/14 Q1017,
SBMT,2024-11-14 19:00,64.40,57.20,77.45,150.00,7.00,0.00,30.00,,4.97,,SCT,BKN,,,1100.00,1300.00,,,,,,,,,,64.40,SBMT 141900Z 15007KT 8000 SCT011 BKN013 18/14 Q1016,
SBMT,2024-11-14 20:00,64.40,57.20,77.45,130.00,8.00,0.00,30.00,,6.21,,FEW,BKN,,,1100.00,1300.00,,,,,,,,,,64.40,SBMT 142000Z 13008KT 090V180 9999 FEW011 BKN013 18/14 Q1016,
SBMT,2024-11-14 21:00,62.60,57.20,82.50,140.00,9.00,0.00,30.03,,4.97,,SCT,BKN,,,800.00,900.00,,,,,,,,,,62.60,SBMT 142100Z 14009KT 110V180 8000 SCT008 BKN009 17/14 Q1017,
SBMT,2024-11-14 22:00,62.60,57.20,82.50,140.00,8.00,0.00,30.06,,6.21,,OVC,,,,900.00,,,,,,,,,,,62.60,SBMT 142200Z 14008KT 110V170 9999 OVC009 17/14 Q1018,
SBMT,2024-11-14 23:00,62.60,57.20,82.50,130.00,9.00,0.00,30.06,,6.21,,OVC,,,,900.00,,,,,,,,,,,62.60,SBMT 142300Z 13009KT 100V170 9999 OVC009 17/14 Q1018,
SBMT,2024-11-15 00:00,62.60,57.20,82.50,120.00,9.00,0.00,30.06,,6.21,,OVC,,,,900.00,,,,,,,,,,,62.60,SBMT 150000Z 12009KT 100V160 9999 OVC009 17/14 Q1018,
SBMT,2024-11-15 01:00,62.60,57.20,82.50,110.00,9.00,0.00,30.09,,6.21,,BKN,OVC,,,900.00,1100.00,,,,,,,,,,62.60,SBMT 150100Z 11009KT 080V140 9999 BKN009 OVC011 17/14 Q1019,
SBMT,2024-11-15 02:00,62.60,57.20,82.50,120.00,8.00,0.00,30.09,,6.21,,OVC,,,,1100.00,,,,,,,,,,,62.60,SBMT 150200Z 12008KT 9999 OVC011 17/14 Q1019,
SBMT,2024-11-15 09:00,62.60,57.20,82.50,100.00,6.00,0.00,30.03,,4.35,,BKN,,,,1000.00,,,,,,,,,,,62.60,SBMT 150900Z 10006KT 7000 BKN010 17/14 Q1017,
SBMT,2024-11-15 10:00,64.40,57.20,77.45,90.00,8.00,0.00,30.06,,4.97,,BKN,,,,1000.00,,,,,,,,,,,64.40,SBMT 151000Z 09008KT 8000 BKN010 18/14 Q1018,
SBMT,2024-11-15 11:00,66.20,59.00,77.60,90.00,7.00,0.00,30.06,,4.97,,BKN,,,,1300.00,,,,,,,,,,,66.20,SBMT 151100Z 09007KT 8000 BKN013 19/15 Q1018,
SBMT,2024-11-15 12:00,66.20,59.00,77.60,90.00,6.00,0.00,30.09,,4.97,,BKN,,,,1500.00,,,,,,,,,,,66.20,SBMT 151200Z 09006KT 8000 BKN015 19/15 Q1019,
SBMT,2024-11-15 13:00,68.00,59.00,72.92,80.00,6.00,0.00,30.09,,6.21,,BKN,,,,1700.00,,,,,,,,,,,68.00,SBMT 151300Z 08006KT 9999 BKN017 20/15 Q1019,
SBMT,2024-11-15 14:00,69.80,60.80,73.09,90.00,7.00,0.00,30.09,,6.21,,BKN,,,,2000.00,,,,,,,,,,,69.80,SBMT 151400Z 09007KT 9999 BKN020 21/16 Q1019,
SBMT,2024-11-15 15:00,75.20,62.60,64.91,90.00,7.00,0.00,30.06,,6.21,,BKN,,,,2500.00,,,,,,,,,,,75.20,SBMT 151500Z 09007KT 9999 BKN025 24/17 Q1018,
SBMT,2024-11-15 16:00,77.00,62.60,61.13,120.00,5.00,0.00,30.03,,6.21,,FEW,,,,3000.00,,,,,,,,,,,77.00,SBMT 151600Z 12005KT 9999 FEW030 25/17 Q1017,
SBMT,2024-11-15 17:00,77.00,64.40,65.12,130.00,6.00,0.00,30.00,,6.21,,BKN,,,,3600.00,,,,,,,,,,,77.00,SBMT 151700Z 13006KT 9999 BKN036 25/18 Q1016,
SBMT,2024-11-15 18:00,73.40,64.40,73.44,150.00,10.00,0.00,30.00,,6.21,,FEW,,,,4000.00,,,,,,,,,,,73.40,SBMT 151800Z 15010KT 9999 FEW040 23/18 Q1016,
SBMT,2024-11-15 19:00,69.80,64.40,82.98,140.00,11.00,0.00,30.00,,5.59,,FEW,SCT,,,1600.00,4200.00,,,,,,,,,,69.80,SBMT 151900Z 14011KT 9000 FEW016 SCT042 21/18 Q1016,
SBMT,2024-11-15 20:00,68.00,64.40,88.26,160.00,7.00,0.00,30.00,,3.73,,OVC,,,,1000.00,,,,,,,,,,,68.00,SBMT 152000Z 16007KT 6000 OVC010 20/18 Q1016,
SBMT,2024-11-15 21:00,66.20,62.60,88.18,150.00,7.00,0.00,30.00,,3.11,,BKN,OVC,,,700.00,900.00,,,-DZ BR,,,,,,,66.20,SBMT 152100Z 15007KT 5000 -DZ BR BKN007 OVC009 19/17 Q1016,
SBMT,2024-11-15 22:00,66.20,62.60,88.18,130.00,8.00,0.00,30.03,,3.73,,OVC,,,,700.00,,,,-DZ,,,,,,,66.20,SBMT 152200Z 13008KT 6000 -DZ OVC007 19/17 Q1017,
SBMT,2024-11-15 23:00,66.20,64.40,93.92,140.00,6.00,0.00,30.06,,6.21,,OVC,,,,900.00,,,,,,,,,,,66.20,SBMT 152300Z 14006KT 9999 OVC009 19/18 Q1018,
SBMT,2024-11-16 00:00,68.00,64.40,88.26,130.00,7.00,0.00,30.06,,6.21,,OVC,,,,1100.00,,,,,,,,,,,68.00,SBMT 160000Z 13007KT 9999 OVC011 20/18 Q1018,
SBMT,2024-11-16 01:00,68.00,62.60,82.86,110.00,6.00,0.00,30.09,,6.21,,OVC,,,,1400.00,,,,,,,,,,,68.00,SBMT 160100Z 11006KT 9999 OVC014 20/17 Q1019,
SBMT,2024-11-16 02:00,68.00,62.60,82.86,80.00,7.00,0.00,30.06,,6.21,,OVC,,,,1400.00,,,,,,,,,,,68.00,SBMT 160200Z 08007KT 9999 OVC014 20/17 Q1018,
SBMT,2024-11-16 09:00,66.20,62.60,88.18,0.00,0.00,0.00,30.00,,6.21,,,,,,,,,,,,,,,,,66.20,SBMT 160900Z 00000KT CAVOK 19/17 Q1016,
SBMT,2024-11-16 10:00,68.00,62.60,82.86,150.00,4.00,0.00,30.03,,4.97,,SCT,BKN,,,1100.00,8000.00,,,-DZ,,,,,,,68.00,SBMT 161000Z 15004KT 090V180 8000 -DZ SCT011 BKN080 20/17 Q1017,
SBMT,2024-11-16 11:00,69.80,62.60,77.90,160.00,3.00,0.00,30.06,,6.21,,SCT,SCT,BKN,,1100.00,1500.00,8000.00,,,,,,,,,69.80,SBMT 161100Z 16003KT 100V220 9999 SCT011 SCT015 BKN080 21/17 Q1018,
SBMT,2024-11-16 12:00,69.80,62.60,77.90,140.00,4.00,0.00,30.06,,6.21,,BKN,BKN,,,1300.00,1500.00,,,,,,,,,,69.80,SBMT 161200Z 14004KT 100V190 9999 BKN013 BKN015 21/17 Q1018,
SBMT,2024-11-16 13:00,68.00,62.60,82.86,170.00,4.00,0.00,30.09,,3.11,,BKN,BKN,,,1100.00,1300.00,,,-DZ,,,,,,,68.00,SBMT 161300Z 17004KT 150V220 5000 -DZ BKN011 BKN013 20/17 Q1019,
SBMT,2024-11-16 14:00,69.80,64.40,82.98,90.00,3.00,0.00,30.06,,6.21,,BKN,BKN,,,1100.00,1300.00,,,,,,,,,,69.80,SBMT 161400Z 09003KT 020V140 9999 BKN011 BKN013 21/18 Q1018,
SBMT,2024-11-16 15:00,71.60,64.40,78.04,330.00,1.00,0.00,30.06,,6.21,,SCT,BKN,OVC,,1500.00,1700.00,8300.00,,,,,,,,,71.60,SBMT 161500Z 33001KT 9999 SCT015 BKN017 OVC083 22/18 Q1018,
SBMT,2024-11-16 16:00,75.20,64.40,69.14,120.00,4.00,0.00,30.03,,6.21,,BKN,,,,2300.00,,,,,,,,,,,75.20,SBMT 161600Z 12004KT 070V160 9999 BKN023 24/18 Q1017,
SBMT,2024-11-16 17:00,75.20,66.20,73.61,140.00,11.00,0.00,30.00,,6.21,,FEW,SCT,,,2500.00,4500.00,,,,,,,,,,75.20,SBMT 161700Z 14011KT 9999 FEW025 SCT045 24/19 Q1016,
SBMT,2024-11-16 18:00,75.20,68.00,78.34,150.00,9.00,0.00,30.00,,6.21,,SCT,,,,1900.00,,,,,,,,,,,75.20,SBMT 161800Z 15009KT 9999 SCT019 24/20 Q1016,
SBMT,2024-11-16 19:00,75.20,66.20,73.61,130.00,8.00,0.00,30.00,,6.21,,BKN,,,,2300.00,,,,,,,,,,,75.20,SBMT 161900Z 13008KT 9999 BKN023 24/19 Q1016,
SBMT,2024-11-16 20:00,73.40,64.40,73.44,100.00,9.00,0.00,30.00,,6.21,,BKN,,,,2300.00,,,,,,,,,,,73.40,SBMT 162000Z 10009KT 9999 BKN023 23/18 Q1016,
SBMT,2024-11-16 21:00,71.60,64.40,78.04,70.00,9.00,0.00,30.00,,6.21,,FEW,BKN,,,1700.00,2200.00,,,,,,,,,,71.60,SBMT 162100Z 07009KT 9999 FEW017 BKN022 22/18 Q1016,
SBMT,2024-11-16 22:00,71.60,64.40,78.04,80.00,7.00,0.00,30.03,,6.21,,BKN,,,,1700.00,,,,,,,,,,,71.60,SBMT 162200Z 08007KT 9999 BKN017 22/18 Q1017,
SBMT,2024-11-16 23:00,69.80,64.40,82.98,60.00,5.00,0.00,30.03,,6.21,,BKN,,,,1900.00,,,,,,,,,,,69.80,SBMT 162300Z 06005KT 9999 BKN019 21/18 Q1017,
SBMT,2024-11-17 00:00,68.00,64.40,88.26,80.00,7.00,0.00,30.06,,6.21,,SCT,,,,1600.00,,,,,,,,,,,68.00,SBMT 170000Z 08007KT 9999 SCT016 20/18 Q1018,
SBMT,2024-11-17 01:00,68.00,62.60,82.86,90.00,6.00,0.00,30.06,,6.21,,BKN,,,,2000.00,,,,,,,,,,,68.00,SBMT 170100Z 09006KT 9999 BKN020 20/17 Q1018,
SBMT,2024-11-17 02:00,68.00,64.40,88.26,100.00,6.00,0.00,30.06,,6.21,,BKN,,,,1600.00,,,,,,,,,,,68.00,SBMT 170200Z 10006KT 9999 BKN016 20/18 Q1018,
SBMT,2024-11-17 09:00,64.40,57.20,77.45,80.00,5.00,0.00,30.03,,6.21,,BKN,BKN,,,1300.00,2000.00,,,,,,,,,,64.40,SBMT 170900Z 08005KT 9999 BKN013 BKN020 18/14 Q1017,
SBMT,2024-11-17 10:00,66.20,59.00,77.60,90.00,5.00,0.00,30.06,,6.21,,SCT,BKN,,,1300.00,2500.00,,,,,,,,,,66.20,SBMT 171000Z 09005KT 9999 SCT013 BKN025 19/15 Q1018,
SBMT,2024-11-17 11:00,68.00,59.00,72.92,50.00,5.00,0.00,30.06,,6.21,,SCT,BKN,,,1300.00,2500.00,,,,,,,,,,68.00,SBMT 171100Z 05005KT 9999 SCT013 BKN025 20/15 Q1018,
SBMT,2024-11-17 12:00,71.60,59.00,64.48,90.00,4.00,0.00,30.06,,6.21,,SCT,,,,4000.00,,,,,,,,,,,71.60,SBMT 171200Z 09004KT 9999 SCT040 22/15 Q1018,
SBMT,2024-11-17 13:00,75.20,59.00,57.12,130.00,4.00,0.00,30.06,,6.21,,BKN,,,,3000.00,,,,,,,,,,,75.20,SBMT 171300Z 13004KT 9999 BKN030 24/15 Q1018,
SBMT,2024-11-17 14:00,75.20,59.00,57.12,260.00,3.00,0.00,30.06,,6.21,,BKN,,,,3500.00,,,,,,,,,,,75.20,SBMT 171400Z 26003KT 9999 BKN035 24/15 Q1018,
SBMT,2024-11-17 15:00,77.00,59.00,53.80,80.00,3.00,0.00,30.03,,6.21,,BKN,,,,4000.00,,,,,,,,,,,77.00,SBMT 171500Z 08003KT 9999 BKN040 25/15 Q1017,
SBMT,2024-11-17 16:00,78.80,60.80,54.05,260.00,5.00,0.00,30.00,,6.21,,BKN,,,,4000.00,,,,,,,,,,,78.80,SBMT 171600Z 26005KT 9999 BKN040 26/16 Q1016,
SBMT,2024-11-17 17:00,82.40,62.60,51.21,,4.00,0.00,30.00,,6.21,,BKN,,,,4000.00,,,,,,,,,,,83.41,SBMT 171700Z VRB04KT 9999 BKN040 28/17 Q1016,
SBMT,2024-11-17 18:00,82.40,59.00,45.07,280.00,5.00,0.00,29.97,,6.21,,,,,,,,,,,,,,,,,82.46,SBMT 171800Z 28005KT 150V310 CAVOK 28/15 Q1015,
SBMT,2024-11-17 19:00,78.80,62.60,57.60,160.00,8.00,0.00,29.94,,6.21,,,,,,,,,,,,,,,,,78.80,SBMT 171900Z 16008KT 130V190 CAVOK 26/17 Q1014,
SBMT,2024-11-17 20:00,75.20,62.60,64.91,140.00,10.00,0.00,29.94,,6.21,,,,,,,,,,,,,,,,,75.20,SBMT 172000Z 14010KT 110V180 CAVOK 24/17 Q1014,
SBMT,2024-11-17 21:00,71.60,60.80,68.75,160.00,7.00,0.00,29.97,,6.21,,SCT,,,,1900.00,,,,,,,,,,,71.60,SBMT 172100Z 16007KT 090V210 9999 SCT019 22/16 Q1015,
SBMT,2024-11-17 22:00,69.80,60.80,73.09,130.00,8.00,0.00,30.00,,6.21,,FEW,BKN,,,1300.00,1500.00,,,,,,,,,,69.80,SBMT 172200Z 13008KT 090V160 9999 FEW013 BKN015 21/16 Q1016,
SBMT,2024-11-17 23:00,69.80,60.80,73.09,140.00,6.00,0.00,30.00,,6.21,,BKN,,,,1700.00,,,,,,,,,,,69.80,SBMT 172300Z 14006KT 100V170 9999 BKN017 21/16 Q1016,
SBMT,2024-11-18 00:00,68.00,60.80,77.75,120.00,6.00,0.00,30.03,,6.21,,BKN,,,,1700.00,,,,,,,,,,,68.00,SBMT 180000Z 12006KT 9999 BKN017 20/16 Q1017,
SBMT,2024-11-18 01:00,68.00,59.00,72.92,100.00,7.00,0.00,30.03,,6.21,,BKN,,,,1900.00,,,,,,,,,,,68.00,SBMT 180100Z 10007KT 070V130 9999 BKN019 20/15 Q1017,
SBMT,2024-11-18 02:00,68.00,59.00,72.92,90.00,5.00,0.00,30.06,,6.21,,,,,,,,,,,,,,,,,68.00,SBMT 180200Z 09005KT CAVOK 20/15 Q1018,
SBMT,2024-11-18 09:00,64.40,62.60,93.88,110.00,5.00,0.00,30.00,,4.35,,SCT,,,,900.00,,,,,,,,,,,64.40,SBMT 180900Z 11005KT 7000 SCT009 18/17 Q1016,
SBMT,2024-11-18 10:00,66.20,62.60,88.18,70.00,5.00,0.00,30.00,,5.59,,SCT,,,,800.00,,,,,,,,,,,66.20,SBMT 181000Z 07005KT 020V110 9000 SCT008 19/17 Q1016,
SBMT,2024-11-18 11:00,69.80,64.40,82.98,70.00,4.00,0.00,30.00,,6.21,,,,,,,,,,,,,,,,,69.80,SBMT 181100Z 07004KT 020V130 CAVOK 21/18 Q1016,
SBMT,2024-11-18 12:00,73.40,62.60,68.94,50.00,2.00,0.00,30.00,,6.21,,,,,,,,,,,,,,,,,73.40,SBMT 181200Z 05002KT CAVOK 23/17 Q1016,
SBMT,2024-11-18 13:00,78.80,64.40,61.36,,2.00,0.00,30.00,,6.21,,,,,,,,,,,,,,,,,78.80,SBMT 181300Z VRB02KT CAVOK 26/18 Q1016,
SBMT,2024-11-18 14:00,82.40,60.80,48.05,,5.00,0.00,29.97,,6.21,,SCT,,,,4000.00,,,,,,,,,,,82.90,SBMT 181400Z VRB05KT 9999 SCT040 28/16 Q1015,
SBMT,2024-11-18 15:00,84.20,62.60,48.32,270.00,8.00,0.00,29.94,,6.21,,SCT,,,,4000.00,,,,,,,,,,,85.03,SBMT 181500Z 27008KT 240V300 9999 SCT040 29/17 Q1014,
SBMT,2024-11-18 16:00,84.20,60.80,45.34,290.00,6.00,0.00,29.94,,6.21,,SCT,,,,4000.00,,,,,,,,,,,84.43,SBMT 181600Z 29006KT 230V020 9999 SCT040 29/16 Q1014,
SBMT,2024-11-18 17:00,84.20,59.00,42.52,250.00,5.00,0.00,29.91,,6.21,,,,,,,,,,,,,,,,,83.92,SBMT 181700Z 25005KT 190V310 CAVOK 29/15 Q1013,
SBMT,2024-11-18 18:00,86.00,57.20,37.62,310.00,6.00,0.00,29.88,,6.21,,,,,,,,,,,,,,,,,84.97,SBMT 181800Z 31006KT CAVOK 30/14 Q1012,
SBMT,2024-11-18 19:00,86.00,59.00,40.14,300.00,7.00,0.00,29.88,,6.21,,,,,,,,,,,,,,,,,85.47,SBMT 181900Z 30007KT CAVOK 30/15 Q1012,
SBMT,2024-11-18 20:00,78.80,64.40,61.36,150.00,9.00,0.00,29.88,,6.21,,,,,,,,,,,,,,,,,78.80,SBMT 182000Z 15009KT CAVOK 26/18 Q1012,
SBMT,2024-11-18 21:00,77.00,64.40,65.12,150.00,8.00,0.00,29.88,,6.21,,,,,,,,,,,,,,,,,77.00,SBMT 182100Z 15008KT CAVOK 25/18 Q1012,
SBMT,2024-11-18 22:00,73.40,64.40,73.44,130.00,7.00,0.00,29.91,,6.21,,,,,,,,,,,,,,,,,73.40,SBMT 182200Z 13007KT CAVOK 23/18 Q1013,
SBMT,2024-11-18 23:00,71.60,60.80,68.75,150.00,4.00,0.00,29.94,,6.21,,,,,,,,,,,,,,,,,71.60,SBMT 182300Z 15004KT CAVOK 22/16 Q1014,
SBMT,2024-11-19 00:00,69.80,60.80,73.09,80.00,4.00,0.00,29.97,,6.21,,,,,,,,,,,,,,,,,69.80,SBMT 190000Z 08004KT CAVOK 21/16 Q1015,
SBMT,2024-11-19 01:00,69.80,59.00,68.55,120.00,3.00,0.00,29.97,,6.21,,,,,,,,,,,,,,,,,69.80,SBMT 190100Z 12003KT CAVOK 21/15 Q1015,
SBMT,2024-11-19 02:00,68.00,59.00,72.92,100.00,3.00,0.00,29.97,,6.21,,,,,,,,,,,,,,,,,68.00,SBMT 190200Z 10003KT CAVOK 20/15 Q1015,
SBMT,2024-11-19 09:00,66.20,55.40,68.15,110.00,5.00,0.00,29.97,,6.21,,,,,,,,,,,,,,,,,66.20,SBMT 190900Z 11005KT CAVOK 19/13 Q1015,
SBMT,2024-11-19 10:00,68.00,57.20,68.35,160.00,5.00,0.00,30.00,,6.21,,,,,,,,,,,,,,,,,68.00,SBMT 191000Z 16005KT CAVOK 20/14 Q1016,
SBMT,2024-11-19 11:00,68.00,59.00,72.92,140.00,8.00,0.00,30.00,,6.21,,,,,,,,,,,,,,,,,68.00,SBMT 191100Z 14008KT CAVOK 20/15 Q1016,
SBMT,2024-11-19 12:00,71.60,59.00,64.48,150.00,4.00,0.00,30.03,,6.21,,,,,,,,,,,,,,,,,71.60,SBMT 191200Z 15004KT CAVOK 22/15 Q1017,
SBMT,2024-11-19 13:00,75.20,60.80,60.90,110.00,4.00,0.00,30.03,,6.21,,,,,,,,,,,,,,,,,75.20,SBMT 191300Z 11004KT CAVOK 24/16 Q1017,
SBMT,2024-11-19 14:00,78.80,57.20,47.52,160.00,4.00,0.00,30.00,,6.21,,,,,,,,,,,,,,,,,78.80,COR SBMT 191400Z 16004KT CAVOK 26/14 Q1016,
SBMT,2024-11-19 15:00,82.40,59.00,45.07,140.00,3.00,0.00,30.00,,6.21,,,,,,,,,,,,,,,,,82.46,SBMT 191500Z 14003KT CAVOK 28/15 Q1016,
SBMT,2024-11-19 16:00,84.20,57.20,39.86,150.00,5.00,0.00,29.97,,6.21,,,,,,,,,,,,,,,,,83.47,SBMT 191600Z 15005KT CAVOK 29/14 Q1015,
SBMT,2024-11-19 17:00,82.40,62.60,51.21,140.00,9.00,0.00,29.94,,6.21,,,,,,,,,,,,,,,,,83.41,SBMT 191700Z 14009KT CAVOK 28/17 Q1014,
SBMT,2024-11-19 18:00,80.60,64.40,57.84,150.00,13.00,0.00,29.94,,6.21,,,,,,,,,,,,,,,,,82.27,SBMT 191800Z 15013KT CAVOK 27/18 Q1014 WS R12,
SBMT,2024-11-19 19:00,75.20,62.60,64.91,140.00,12.00,0.00,29.94,,6.21,,FEW,,,,2500.00,,,,,,,,,,,75.20,SBMT 191900Z 14012KT 9999 FEW025 24/17 Q1014,
SBMT,2024-11-19 20:00,71.60,60.80,68.75,140.00,10.00,0.00,29.97,,6.21,,FEW,,,,2600.00,,,,,,,,,,,71.60,SBMT 192000Z 14010KT 9999 FEW026 22/16 Q1015,
SBMT,2024-11-19 21:00,69.80,60.80,73.09,130.00,9.00,0.00,29.97,,6.21,,BKN,,,,2500.00,,,,,,,,,,,69.80,SBMT 192100Z 13009KT 9999 BKN025 21/16 Q1015,
SBMT,2024-11-19 22:00,69.80,60.80,73.09,150.00,9.00,0.00,30.00,,6.21,,BKN,,,,2300.00,,,,,,,,,,,69.80,SBMT 192200Z 15009KT 9999 BKN023 21/16 Q1016,
SBMT,2024-11-19 23:00,68.00,59.00,72.92,130.00,9.00,0.00,30.00,,6.21,,BKN,,,,2200.00,,,,,,,,,,,68.00,SBMT 192300Z 13009KT 9999 BKN022 20/15 Q1016,
SBMT,2024-11-20 00:00,68.00,59.00,72.92,120.00,9.00,0.00,30.03,,6.21,,BKN,,,,2200.00,,,,,,,,,,,68.00,SBMT 200000Z 12009KT 9999 BKN022 20/15 Q1017,
SBMT,2024-11-20 01:00,68.00,59.00,72.92,140.00,6.00,0.00,30.03,,6.21,,BKN,,,,2300.00,,,,,,,,,,,68.00,SBMT 200100Z 14006KT 9999 BKN023 20/15 Q1017,
SBMT,2024-11-20 02:00,66.20,59.00,77.60,130.00,8.00,0.00,30.03,,6.21,,FEW,,,,2600.00,,,,,,,,,,,66.20,SBMT 200200Z 13008KT 9999 FEW026 19/15 Q1017,
SBMT,2024-11-20 09:00,64.40,60.80,88.09,90.00,5.00,0.00,29.97,,5.59,,NSC,,,,,,,,,,,,,,,64.40,SBMT 200900Z 09005KT 9000 NSC 18/16 Q1015,
SBMT,2024-11-20 10:00,66.20,60.80,82.74,100.00,6.00,0.00,30.00,,5.59,,SCT,,,,1300.00,,,,,,,,,,,66.20,SBMT 201000Z 10006KT 9000 SCT013 19/16 Q1016,
SBMT,2024-11-20 11:00,69.80,62.60,77.90,90.00,6.00,0.00,30.03,,6.21,,,,,,,,,,,,,,,,,69.80,SBMT 201100Z 09006KT CAVOK 21/17 Q1017,
SBMT,2024-11-20 12:00,73.40,62.60,68.94,140.00,4.00,0.00,30.03,,6.21,,,,,,,,,,,,,,,,,73.40,SBMT 201200Z 14004KT CAVOK 23/17 Q1017,
SBMT,2024-11-20 13:00,78.80,64.40,61.36,,2.00,0.00,30.00,,6.21,,,,,,,,,,,,,,,,,78.80,SBMT 201300Z VRB02KT CAVOK 26/18 Q1016,
SBMT,2024-11-20 14:00,82.40,64.40,54.55,,2.00,0.00,30.00,,6.21,,,,,,,,,,,,,,,,,83.98,SBMT 201400Z VRB02KT CAVOK 28/18 Q1016,
SBMT,2024-11-20 15:00,86.00,64.40,48.58,300.00,10.00,0.00,29.97,,6.21,,,,,,,,,,,,,,,,,87.49,SBMT 201500Z 30010KT CAVOK 30/18 Q1015,
SBMT,2024-11-20 16:00,87.80,64.40,45.88,300.00,7.00,0.00,29.94,,6.21,,,,,,,,,,,,,,,,,89.33,SBMT 201600Z 30007KT CAVOK 31/18 Q1014,
SBMT,2024-11-20 17:00,87.80,64.40,45.88,300.00,8.00,0.00,29.91,,6.21,,BKN,,,,4900.00,,,,,,,,,,,89.33,SBMT 201700Z 30008KT 9999 BKN049 31/18 Q1013,
SBMT,2024-11-20 18:00,87.80,64.40,45.88,270.00,10.00,0.00,29.91,,6.21,,,,,,,,,,,,,,,,,89.33,SBMT 201800Z 27010KT CAVOK 31/18 Q1013,
SBMT,2024-11-20 19:00,82.40,68.00,61.81,170.00,8.00,0.00,29.91,,6.21,,FEW,SCT,,,4900.00,10000.00,,,,,,,,,,85.38,SBMT 201900Z 17008KT 9999 FEW049 SCT100 28/20 Q1013,
SBMT,2024-11-20 20:00,80.60,68.00,65.54,150.00,8.00,0.00,29.91,,6.21,,SCT,,,,4900.00,,,,,,,,,,,83.29,SBMT 202000Z 15008KT 9999 SCT049 27/20 Q1013,
SBMT,2024-11-20 21:00,71.60,66.20,83.09,150.00,8.00,0.00,29.94,,5.59,,SCT,BKN,BKN,,1500.00,5000.00,10000.00,,,,,,,,,71.60,SBMT 202100Z 15008KT 9000 SCT015 BKN050 BKN100 22/19 Q1014,
SBMT,2024-11-20 22:00,69.80,66.20,88.34,150.00,8.00,0.00,29.97,,3.73,,BKN,,,,1100.00,,,,,,,,,,,69.80,SBMT 202200Z 15008KT 6000 BKN011 21/19 Q1015,
SBMT,2024-11-20 23:00,69.80,66.20,88.34,160.00,7.00,0.00,30.00,,3.73,,BKN,,,,900.00,,,,,,,,,,,69.80,SBMT 202300Z 16007KT 6000 BKN009 21/19 Q1016,
SBMT,2024-11-21 00:00,69.80,64.40,82.98,170.00,7.00,0.00,30.03,,5.59,,BKN,,,,1100.00,,,,,,,,,,,69.80,SBMT 210000Z 17007KT 9000 BKN011 21/18 Q1017,
SBMT,2024-11-21 01:00,69.80,64.40,82.98,150.00,6.00,0.00,30.03,,6.21,,SCT,BKN,,,1500.00,1900.00,,,,,,,,,,69.80,SBMT 210100Z 15006KT 9999 SCT015 BKN019 21/18 Q1017,
SBMT,2024-11-21 02:00,69.80,64.40,82.98,160.00,5.00,0.00,30.06,,6.21,,BKN,,,,1700.00,,,,,,,,,,,69.80,SBMT 210200Z 16005KT 9999 BKN017 21/18 Q1018,
SBMT,2024-11-21 09:00,68.00,62.60,82.86,110.00,5.00,0.00,30.06,,6.21,,OVC,,,,1700.00,,,,,,,,,,,68.00,SBMT 210900Z 11005KT 9999 OVC017 20/17 Q1018,
SBMT,2024-11-21 10:00,68.00,62.60,82.86,100.00,6.00,0.00,30.06,,6.21,,OVC,,,,1600.00,,,,,,,,,,,68.00,SBMT 211000Z 10006KT 9999 OVC016 20/17 Q1018,
SBMT,2024-11-21 11:00,68.00,64.40,88.26,130.00,6.00,0.00,30.09,,6.21,,SCT,OVC,,,1300.00,1500.00,,,,,,,,,,68.00,SBMT 211100Z 13006KT 9999 SCT013 OVC015 20/18 Q1019,
SBMT,2024-11-21 12:00,69.80,64.40,82.98,120.00,6.00,0.00,30.09,,6.21,,BKN,,,,1300.00,,,,,,,,,,,69.80,SBMT 211200Z 12006KT 9999 BKN013 21/18 Q1019,
SBMT,2024-11-21 13:00,71.60,64.40,78.04,160.00,8.00,0.00,30.09,,6.21,,OVC,,,,1900.00,,,,,,,,,,,71.60,SBMT 211300Z 16008KT 9999 OVC019 22/18 Q1019,
SBMT,2024-11-21 14:00,71.60,62.60,73.27,170.00,8.00,0.00,30.09,,6.21,,BKN,BKN,,,2300.00,3000.00,,,,,,,,,,71.60,SBMT 211400Z 17008KT 9999 BKN023 BKN030 22/17 Q1019,
SBMT,2024-11-21 15:00,73.40,66.20,78.19,170.00,10.00,0.00,30.09,,6.21,,SCT,BKN,,,1700.00,2500.00,,,,,,,,,,73.40,SBMT 211500Z 17010KT 9999 SCT017 BKN025 23/19 Q1019,
SBMT,2024-11-21 16:00,75.20,64.40,69.14,130.00,10.00,0.00,30.06,,6.21,,BKN,,,,2300.00,,,,,,,,,,,75.20,SBMT 211600Z 13010KT 9999 BKN023 24/18 Q1018,
SBMT,2024-11-21 17:00,71.60,62.60,73.27,160.00,10.00,0.00,30.03,,6.21,,BKN,,,,2600.00,,,,,,,,,,,71.60,SBMT 211700Z 16010KT 110V190 9999 BKN026 22/17 Q1017,
SBMT,2024-11-21 18:00,71.60,62.60,73.27,140.00,9.00,0.00,30.03,,6.21,,BKN,,,,1900.00,,,,,,,,,,,71.60,SBMT 211800Z 14009KT 100V170 9999 BKN019 22/17 Q1017,
SBMT,2024-11-21 19:00,71.60,62.60,73.27,140.00,10.00,0.00,30.00,,6.21,,BKN,,,,1900.00,,,,,,,,,,,71.60,SBMT 211900Z 14010KT 100V190 9999 BKN019 22/17 Q1016,
SBMT,2024-11-21 20:00,71.60,60.80,68.75,160.00,11.00,0.00,30.00,,6.21,,BKN,,,,2000.00,,,,,,,,,,,71.60,SBMT 212000Z 16011KT 100V190 9999 BKN020 22/16 Q1016,
SBMT,2024-11-21 21:00,69.80,62.60,77.90,140.00,10.00,0.00,30.03,,2.49,,BKN,BKN,,,1500.00,2000.00,,,-DZ,,,,,,,69.80,SBMT 212100Z 14010KT 100V180 4000 -DZ BKN015 BKN020 21/17 Q1017,
SBMT,2024-11-21 22:00,69.80,60.80,73.09,130.00,12.00,0.00,30.03,,6.21,,FEW,BKN,,,1300.00,1500.00,,,,,,,,,,69.80,SBMT 212200Z 13012KT 9999 FEW013 BKN015 21/16 Q1017,
SBMT,2024-11-21 23:00,68.00,60.80,77.75,130.00,10.00,0.00,30.06,,6.21,,FEW,BKN,,,1300.00,1500.00,,,,,,,,,,68.00,SBMT 212300Z 13010KT 090V160 9999 FEW013 BKN015 20/16 Q1018,
SBMT,2024-11-22 00:00,68.00,60.80,77.75,110.00,12.00,0.00,30.06,,6.21,,BKN,,,,1500.00,,,,,,,,,,,68.00,SBMT 220000Z 11012KT 080V150 9999 BKN015 20/16 Q1018,
SBMT,2024-11-22 01:00,68.00,60.80,77.75,130.00,11.00,0.00,30.09,,6.21,,BKN,,,,1500.00,,,,,,,,,,,68.00,SBMT 220100Z 13011KT 100V170 9999 BKN015 20/16 Q1019,
SBMT,2024-11-22 02:00,68.00,60.80,77.75,130.00,9.00,0.00,30.09,,6.21,,BKN,,,,1500.00,,,,,,,,,,,68.00,SBMT 220200Z 13009KT 100V170 9999 BKN015 20/16 Q1019,
SBMT,2024-11-22 09:00,66.20,59.00,77.60,120.00,7.00,0.00,30.06,,4.35,,BKN,,,,1300.00,,,,,,,,,,,66.20,SBMT 220900Z 12007KT 7000 BKN013 19/15 Q1018,
SBMT,2024-11-22 10:00,66.20,59.00,77.60,100.00,9.00,0.00,30.06,,6.21,,BKN,,,,1500.00,,,,,,,,,,,66.20,SBMT 221000Z 10009KT 9999 BKN015 19/15 Q1018,
SBMT,2024-11-22 11:00,68.00,60.80,77.75,120.00,11.00,0.00,30.09,,4.97,,BKN,,,,1200.00,,,,,,,,,,,68.00,COR SBMT 221100Z 12011KT 8000 BKN012 20/16 Q1019,
SBMT,2024-11-22 12:00,68.00,59.00,72.92,120.00,9.00,0.00,30.09,,6.21,,BKN,,,,1500.00,,,,,,,,,,,68.00,SBMT 221200Z 12009KT 9999 BKN015 20/15 Q1019,
SBMT,2024-11-22 13:00,68.00,59.00,72.92,120.00,10.00,0.00,30.09,,6.21,,BKN,,,,2000.00,,,,,,,,,,,68.00,SBMT 221300Z 12010KT 9999 BKN020 20/15 Q1019,
SBMT,2024-11-22 14:00,69.80,59.00,68.55,110.00,9.00,0.00,30.09,,6.21,,BKN,,,,2000.00,,,,,,,,,,,69.80,SBMT 221400Z 11009KT 9999 BKN020 21/15 Q1019,
SBMT,2024-11-22 15:00,69.80,59.00,68.55,130.00,9.00,0.00,30.09,,6.21,,BKN,,,,2000.00,,,,,,,,,,,69.80,SBMT 221500Z 13009KT 9999 BKN020 21/15 Q1019,
SBMT,2024-11-22 16:00,69.80,59.00,68.55,160.00,9.00,0.00,30.06,,6.21,,BKN,,,,2000.00,,,,,,,,,,,69.80,SBMT 221600Z 16009KT 9999 BKN020 21/15 Q1018,
SBMT,2024-11-22 17:00,69.80,62.60,77.90,130.00,10.00,0.00,30.06,,6.21,,SCT,BKN,,,1900.00,3300.00,,,,,,,,,,69.80,SBMT 221700Z 13010KT 9999 SCT019 BKN033 21/17 Q1018,
SBMT,2024-11-22 18:00,69.80,62.60,77.90,120.00,10.00,0.00,30.03,,6.21,,SCT,BKN,,,1900.00,2300.00,,,,,,,,,,69.80,SBMT 221800Z 12010KT 9999 SCT019 BKN023 21/17 Q1017,
SBMT,2024-11-22 19:00,71.60,62.60,73.27,120.00,9.00,0.00,30.00,,6.21,,SCT,,,,2300.00,,,,,,,,,,,71.60,SBMT 221900Z 12009KT 9999 SCT023 22/17 Q1016,
SBMT,2024-11-22 20:00,69.80,60.80,73.09,130.00,10.00,0.00,30.00,,6.21,,BKN,,,,2300.00,,,,,,,,,,,69.80,SBMT 222000Z 13010KT 100V170 9999 BKN023 21/16 Q1016,
SBMT,2024-11-22 21:00,69.80,60.80,73.09,130.00,10.00,0.00,30.00,,6.21,,BKN,,,,2300.00,,,,,,,,,,,69.80,SBMT 222100Z 13010KT 9999 BKN023 21/16 Q1016,
SBMT,2024-11-22 22:00,68.00,60.80,77.75,130.00,8.00,0.00,30.03,,6.21,,BKN,,,,2300.00,,,,,,,,,,,68.00,SBMT 222200Z 13008KT 9999 BKN023 20/16 Q1017,
SBMT,2024-11-22 23:00,66.20,60.80,82.74,150.00,7.00,0.00,30.03,,6.21,,BKN,,,,2100.00,,,,,,,,,,,66.20,SBMT 222300Z 15007KT 9999 BKN021 19/16 Q1017,
SBMT,2024-11-23 00:00,66.20,60.80,82.74,110.00,10.00,0.00,30.06,,6.21,,OVC,,,,1900.00,,,,,,,,,,,66.20,SBMT 230000Z 11010KT 9999 OVC019 19/16 Q1018,
SBMT,2024-11-23 01:00,66.20,60.80,82.74,100.00,8.00,0.00,30.06,,6.21,,BKN,,,,1700.00,,,,,,,,,,,66.20,SBMT 230100Z 10008KT 9999 BKN017 19/16 Q1018,
SBMT,2024-11-23 02:00,66.20,60.80,82.74,130.00,6.00,0.00,30.06,,6.21,,BKN,,,,2300.00,,,,,,,,,,,66.20,SBMT 230200Z 13006KT 9999 BKN023 19/16 Q1018,
SBMT,2024-11-23 09:00,64.40,60.80,88.09,80.00,4.00,0.00,30.03,,6.21,,FEW,,,,1500.00,,,,,,,,,,,64.40,SBMT 230900Z 08004KT 9999 FEW015 18/16 Q1017,
SBMT,2024-11-23 10:00,66.20,60.80,82.74,140.00,7.00,0.00,30.03,,6.21,,BKN,,,,1500.00,,,,,,,,,,,66.20,SBMT 231000Z 14007KT 9999 BKN015 19/16 Q1017,
SBMT,2024-11-23 11:00,68.00,60.80,77.75,130.00,8.00,0.00,30.06,,6.21,,BKN,,,,2000.00,,,,,,,,,,,68.00,SBMT 231100Z 13008KT 9999 BKN020 20/16 Q1018,
SBMT,2024-11-23 12:00,68.00,62.60,82.86,130.00,8.00,0.00,0.53,,6.21,,BKN,,,,2000.00,,,,,,,,,,,68.00,SBMT 231200Z 13008KT 9999 BKN020 20/17 Q0018,
SBMT,2024-11-23 13:00,71.60,62.60,73.27,130.00,8.00,0.00,30.06,,6.21,,FEW,BKN,,,1100.00,2000.00,,,,,,,,,,71.60,SBMT 231300Z 13008KT 9999 FEW011 BKN020 22/17 Q1018,
SBMT,2024-11-23 14:00,71.60,62.60,73.27,140.00,8.00,0.00,30.06,,6.21,,BKN,,,,2000.00,,,,,,,,,,,71.60,SBMT 231400Z 14008KT 100V180 9999 BKN020 22/17 Q1018,
SBMT,2024-11-23 15:00,73.40,62.60,68.94,140.00,12.00,0.00,30.06,,6.21,,BKN,,,,2500.00,,,,,,,,,,,73.40,SBMT 231500Z 14012KT 9999 BKN025 23/17 Q1018,
SBMT,2024-11-23 16:00,73.40,62.60,68.94,150.00,10.00,0.00,30.03,,6.21,,BKN,,,,2500.00,,,,,,,,,,,73.40,SBMT 231600Z 15010KT 090V180 9999 BKN025 23/17 Q1017,
SBMT,2024-11-23 17:00,73.40,60.80,64.69,160.00,13.00,0.00,30.03,,6.21,,BKN,,,,2500.00,,,,,,,,,,,73.40,SBMT 231700Z 16013KT 9999 BKN025 23/16 Q1017,
SBMT,2024-11-23 18:00,71.60,60.80,68.75,160.00,12.00,0.00,30.03,,6.21,,BKN,,,,2300.00,,,,,,,,,,,71.60,SBMT 231800Z 16012KT 110V190 9999 BKN023 22/16 Q1017,
SBMT,2024-11-23 19:00,71.60,60.80,68.75,150.00,11.00,0.00,30.03,,6.21,,SCT,,,,2100.00,,,,,,,,,,,71.60,SBMT 231900Z 15011KT 9999 SCT021 22/16 Q1017,
SBMT,2024-11-23 20:00,68.00,59.00,72.92,150.00,11.00,0.00,30.03,,6.21,,SCT,,,,2100.00,,,,,,,,,,,68.00,SBMT 232000Z 15011KT 9999 SCT021 20/15 Q1017,
SBMT,2024-11-23 21:00,66.20,59.00,77.60,130.00,10.00,0.00,30.06,,6.21,,BKN,,,,1900.00,,,,,,,,,,,66.20,SBMT 232100Z 13010KT 9999 BKN019 19/15 Q1018,
SBMT,2024-11-23 22:00,64.40,59.00,82.62,150.00,10.00,0.00,30.06,,6.21,,FEW,BKN,,,1100.00,1500.00,,,,,,,,,,64.40,SBMT 232200Z 15010KT 9999 FEW011 BKN015 18/15 Q1018,
SBMT,2024-11-23 23:00,64.40,57.20,77.45,130.00,10.00,0.00,30.09,,6.21,,BKN,,,,1500.00,,,,,,,,,,,64.40,SBMT 232300Z 13010KT 9999 BKN015 18/14 Q1019,
SBMT,2024-11-24 00:00,62.60,57.20,82.50,130.00,11.00,0.00,30.12,,6.21,,BKN,,,,1500.00,,,,,,,,,,,62.60,SBMT 240000Z 13011KT 9999 BKN015 17/14 Q1020,
SBMT,2024-11-24 01:00,62.60,53.60,72.38,100.00,8.00,0.00,30.12,,6.21,,SCT,,,,1500.00,,,,,,,,,,,62.60,SBMT 240100Z 10008KT 9999 SCT015 17/12 Q1020,
SBMT,2024-11-24 02:00,62.60,53.60,72.38,100.00,11.00,0.00,30.12,,6.21,,,,,,,,,,,,,,,,,62.60,SBMT 240200Z 10011KT CAVOK 17/12 Q1020,
SBMT,2024-11-24 09:00,60.80,55.40,82.37,100.00,7.00,0.00,30.09,,6.21,,FEW,BKN,,,1300.00,2000.00,,,,,,,,,,60.80,SBMT 240900Z 10007KT 9999 FEW013 BKN020 16/13 Q1019,
SBMT,2024-11-24 10:00,62.60,55.40,77.29,110.00,10.00,0.00,30.12,,6.21,,FEW,BKN,,,1300.00,2000.00,,,,,,,,,,62.60,SBMT 241000Z 11010KT 9999 FEW013 BKN020 17/13 Q1020,
SBMT,2024-11-24 11:00,64.40,57.20,77.45,130.00,8.00,0.00,30.12,,6.21,,BKN,,,,2000.00,,,,,,,,,,,64.40,SBMT 241100Z 13008KT 9999 BKN020 18/14 Q1020,
SBMT,2024-11-24 12:00,64.40,57.20,77.45,120.00,9.00,0.00,30.12,,6.21,,BKN,,,,2500.00,,,,,,,,,,,64.40,SBMT 241200Z 12009KT 9999 BKN025 18/14 Q1020,
SBMT,2024-11-24 13:00,66.20,57.20,72.74,100.00,9.00,0.00,30.15,,6.21,,BKN,,,,2500.00,,,,,,,,,,,66.20,SBMT 241300Z 10009KT 9999 BKN025 19/14 Q1021,
SBMT,2024-11-24 14:00,68.00,55.40,64.04,120.00,7.00,0.00,30.15,,6.21,,BKN,,,,2500.00,,,,,,,,,,,68.00,SBMT 241400Z 12007KT 9999 BKN025 20/13 Q1021,
SBMT,2024-11-24 15:00,69.80,55.40,60.21,80.00,7.00,0.00,30.12,,6.21,,BKN,,,,3000.00,,,,,,,,,,,69.80,SBMT 241500Z 08007KT 9999 BKN030 21/13 Q1020,
SBMT,2024-11-24 16:00,71.60,57.20,60.44,180.00,7.00,0.00,30.12,,6.21,,BKN,,,,3000.00,,,,,,,,,,,71.60,SBMT 241600Z 18007KT 9999 BKN030 22/14 Q1020,
SBMT,2024-11-24 17:00,71.60,57.20,60.44,150.00,8.00,0.00,30.09,,6.21,,BKN,,,,3500.00,,,,,,,,,,,71.60,SBMT 241700Z 15008KT 110V190 9999 BKN035 22/14 Q1019,
SBMT,2024-11-24 18:00,71.60,57.20,60.44,160.00,12.00,0.00,30.09,,6.21,,BKN,,,,3500.00,,,,,,,,,,,71.60,SBMT 241800Z 16012KT 110V200 9999 BKN035 22/14 Q1019,
SBMT,2024-11-24 19:00,69.80,57.20,64.26,140.00,10.00,0.00,30.09,,6.21,,SCT,,,,3500.00,,,,,,,,,,,69.80,SBMT 241900Z 14010KT 110V190 9999 SCT035 21/14 Q1019,
SBMT,2024-11-24 20:00,68.00,55.40,64.04,160.00,10.00,0.00,30.09,,6.21,,SCT,,,,3500.00,,,,,,,,,,,68.00,SBMT 242000Z 16010KT 120V190 9999 SCT035 20/13 Q1019,
SBMT,2024-11-24 21:00,66.20,55.40,68.15,150.00,10.00,0.00,30.12,,6.21,21.00,SCT,,,,3500.00,,,,,,,,,,,66.20,SBMT 242100Z 15010G21KT 110V180 9999 SCT035 19/13 Q1020,
SBMT,2024-11-24 22:00,64.40,55.40,72.56,140.00,9.00,0.00,30.12,,6.21,,SCT,BKN,,,2000.00,2500.00,,,,,,,,,,64.40,SBMT 242200Z 14009KT 110V180 9999 SCT020 BKN025 18/13 Q1020,
SBMT,2024-11-24 23:00,64.40,55.40,72.56,110.00,11.00,0.00,30.15,,6.21,,BKN,,,,2000.00,,,,,,,,,,,64.40,SBMT 242300Z 11011KT 070V140 9999 BKN020 18/13 Q1021,
SBMT,2024-11-25 00:00,64.40,55.40,72.56,110.00,10.00,0.00,30.15,,6.21,,BKN,,,,2500.00,,,,,,,,,,,64.40,SBMT 250000Z 11010KT 070V140 9999 BKN025 18/13 Q1021,
SBMT,2024-11-25 01:00,62.60,55.40,77.29,110.00,10.00,0.00,30.15,,6.21,,BKN,,,,2500.00,,,,,,,,,,,62.60,SBMT 250100Z 11010KT 9999 BKN025 17/13 Q1021,
SBMT,2024-11-25 02:00,60.80,53.60,77.14,110.00,9.00,0.00,30.15,,6.21,,FEW,,,,3000.00,,,,,,,,,,,60.80,SBMT 250200Z 11009KT 080V140 9999 FEW030 16/12 Q1021,
SBMT,2024-11-25 09:00,60.80,55.40,82.37,60.00,7.00,0.00,30.09,,6.21,,BKN,,,,1500.00,,,,,,,,,,,60.80,SBMT 250900Z 06007KT 9999 BKN015 16/13 Q1019,
SBMT,2024-11-25 10:00,62.60,55.40,77.29,80.00,12.00,0.00,30.12,,6.21,,SCT,,,,4900.00,,,,,,,,,,,62.60,SBMT 251000Z 08012KT 9999 SCT049 17/13 Q1020,
SBMT,2024-11-25 11:00,66.20,57.20,72.74,80.00,7.00,0.00,30.12,,6.21,,BKN,,,,4900.00,,,,,,,,,,,66.20,COR SBMT 251100Z 08007KT 9999 BKN049 19/14 Q1020,
SBMT,2024-11-25 12:00,69.80,57.20,64.26,80.00,7.00,0.00,30.15,,6.21,,BKN,,,,4900.00,,,,,,,,,,,69.80,SBMT 251200Z 08007KT 9999 BKN049 21/14 Q1021,
SBMT,2024-11-25 13:00,73.40,59.00,60.67,80.00,6.00,0.00,30.12,,6.21,,,,,,,,,,,,,,,,,73.40,SBMT 251300Z 08006KT CAVOK 23/15 Q1020,
SBMT,2024-11-25 14:00,77.00,57.20,50.43,170.00,3.00,0.00,30.12,,6.21,,,,,,,,,,,,,,,,,77.00,SBMT 251400Z 17003KT CAVOK 25/14 Q1020,
SBMT,2024-11-25 15:00,78.80,57.20,47.52,250.00,4.00,0.00,30.09,,6.21,,,,,,,,,,,,,,,,,78.80,SBMT 251500Z 25004KT CAVOK 26/14 Q1019,
SBMT,2024-11-25 16:00,78.80,59.00,50.69,350.00,3.00,0.00,30.06,,6.21,,BKN,,,,4900.00,,,,,,,,,,,78.80,SBMT 251600Z 35003KT 9999 BKN049 26/15 Q1018,
SBMT,2024-11-25 17:00,84.20,55.40,37.35,230.00,4.00,0.00,30.06,,6.21,,BKN,,,,4500.00,,,,,,,,,,,83.09,SBMT 251700Z 23004KT 9999 BKN045 29/13 Q1018,
SBMT,2024-11-25 18:00,78.80,60.80,54.05,170.00,11.00,0.00,30.03,,6.21,,SCT,,,,4500.00,,,,,,,,,,,78.80,SBMT 251800Z 17011KT 120V200 9999 SCT045 26/16 Q1017,
SBMT,2024-11-25 19:00,77.00,60.80,57.36,190.00,11.00,0.00,30.03,,6.21,,,,,,,,,,,,,,,,,77.00,SBMT 251900Z 19011KT 150V220 CAVOK 25/16 Q1017,
SBMT,2024-11-25 20:00,75.20,60.80,60.90,150.00,8.00,0.00,30.03,,6.21,,,,,,,,,,,,,,,,,75.20,SBMT 252000Z 15008KT CAVOK 24/16 Q1017,
SBMT,2024-11-25 21:00,75.20,60.80,60.90,170.00,6.00,0.00,30.03,,6.21,,,,,,,,,,,,,,,,,75.20,SBMT 252100Z 17006KT CAVOK 24/16 Q1017,
SBMT,2024-11-25 22:00,71.60,60.80,68.75,130.00,5.00,0.00,30.03,,6.21,,,,,,,,,,,,,,,,,71.60,SBMT 252200Z 13005KT CAVOK 22/16 Q1017,
SBMT,2024-11-25 23:00,71.60,60.80,68.75,140.00,5.00,0.00,30.06,,6.21,,,,,,,,,,,,,,,,,71.60,SBMT 252300Z 14005KT CAVOK 22/16 Q1018,
SBMT,2024-11-26 00:00,69.80,60.80,73.09,120.00,5.00,0.00,30.06,,6.21,,,,,,,,,,,,,,,,,69.80,SBMT 260000Z 12005KT CAVOK 21/16 Q1018,
SBMT,2024-11-26 01:00,68.00,59.00,72.92,100.00,2.00,0.00,30.09,,6.21,,,,,,,,,,,,,,,,,68.00,SBMT 260100Z 10002KT CAVOK 20/15 Q1019,
SBMT,2024-11-26 02:00,68.00,59.00,72.92,80.00,7.00,0.00,30.06,,6.21,,,,,,,,,,,,,,,,,68.00,SBMT 260200Z 08007KT CAVOK 20/15 Q1018,
SBMT,2024-11-26 09:00,64.40,57.20,77.45,70.00,4.00,0.00,30.03,,6.21,,,,,,,,,,,,,,,,,64.40,SBMT 260900Z 07004KT CAVOK 18/14 Q1017,
SBMT,2024-11-26 10:00,68.00,59.00,72.92,100.00,3.00,0.00,30.06,,6.21,,,,,,,,,,,,,,,,,68.00,SBMT 261000Z 10003KT CAVOK 20/15 Q1018,
SBMT,2024-11-26 11:00,71.60,57.20,60.44,0.00,0.00,0.00,30.06,,6.21,,,,,,,,,,,,,,,,,71.60,SBMT 261100Z 00000KT CAVOK 22/14 Q1018,
SBMT,2024-11-26 12:00,77.00,57.20,50.43,40.00,4.00,0.00,30.06,,6.21,,,,,,,,,,,,,,,,,77.00,SBMT 261200Z 04004KT CAVOK 25/14 Q1018,
SBMT,2024-11-26 13:00,80.60,55.40,41.97,330.00,8.00,0.00,30.06,,6.21,,,,,,,,,,,,,,,,,80.53,SBMT 261300Z 33008KT CAVOK 27/13 Q1018,
SBMT,2024-11-26 14:00,82.40,57.20,42.25,320.00,8.00,0.00,30.03,,6.21,,,,,,,,,,,,,,,,,82.08,SBMT 261400Z 32008KT CAVOK 28/14 Q1017,
SBMT,2024-11-26 15:00,82.40,59.00,45.07,310.00,10.00,0.00,30.03,,6.21,20.00,FEW,,,,4000.00,,,,,,,,,,,82.46,SBMT 261500Z 31010G20KT 9999 FEW040 28/15 Q1017,
SBMT,2024-11-26 16:00,84.20,57.20,39.86,310.00,9.00,0.00,30.00,,6.21,,SCT,,,,4000.00,,,,,,,,,,,83.47,SBMT 261600Z 31009KT 9999 SCT040 29/14 Q1016,
SBMT,2024-11-26 17:00,86.00,59.00,40.14,290.00,9.00,0.00,29.97,,6.21,,,,,,,,,,,,,,,,,85.47,SBMT 261700Z 29009KT CAVOK 30/15 Q1015,
SBMT,2024-11-26 18:00,84.20,57.20,39.86,280.00,10.00,0.00,29.94,,6.21,,,,,,,,,,,,,,,,,83.47,SBMT 261800Z 28010KT CAVOK 29/14 Q1014,
SBMT,2024-11-26 19:00,87.80,55.40,33.29,280.00,8.00,0.00,29.94,,6.21,,,,,,,,,,,,,,,,,86.11,SBMT 261900Z 28008KT CAVOK 31/13 Q1014,
SBMT,2024-11-26 20:00,84.20,57.20,39.86,300.00,7.00,0.00,29.94,,6.21,,,,,,,,,,,,,,,,,83.47,SBMT 262000Z 30007KT CAVOK 29/14 Q1014,
SBMT,2024-11-26 21:00,84.20,55.40,37.35,290.00,6.00,0.00,29.94,,6.21,,,,,,,,,,,,,,,,,83.09,SBMT 262100Z 29006KT CAVOK 29/13 Q1014,
SBMT,2024-11-26 22:00,82.40,55.40,39.58,310.00,3.00,0.00,29.94,,6.21,,,,,,,,,,,,,,,,,81.75,SBMT 262200Z 31003KT CAVOK 28/13 Q1014,
SBMT,2024-11-26 23:00,80.60,57.20,44.80,350.00,3.00,0.00,29.94,,6.21,,,,,,,,,,,,,,,,,80.81,SBMT 262300Z 35003KT CAVOK 27/14 Q1014,
SBMT,2024-11-27 00:00,75.20,59.00,57.12,180.00,1.00,0.00,29.97,,6.21,,,,,,,,,,,,,,,,,75.20,SBMT 270000Z 18001KT CAVOK 24/15 Q1015,
SBMT,2024-11-27 01:00,73.40,59.00,60.67,90.00,1.00,0.00,29.97,,6.21,,,,,,,,,,,,,,,,,73.40,SBMT 270100Z 09001KT CAVOK 23/15 Q1015,
SBMT,2024-11-27 02:00,73.40,60.80,64.69,100.00,2.00,0.00,29.97,,6.21,,,,,,,,,,,,,,,,,73.40,SBMT 270200Z 10002KT CAVOK 23/16 Q1015,
SBMT,2024-11-27 09:00,68.00,59.00,72.92,100.00,2.00,0.00,29.94,,6.21,,,,,,,,,,,,,,,,,68.00,SBMT 270900Z 10002KT CAVOK 20/15 Q1014,
SBMT,2024-11-27 10:00,75.20,60.80,60.90,70.00,2.00,0.00,29.97,,6.21,,,,,,,,,,,,,,,,,75.20,SBMT 271000Z 07002KT CAVOK 24/16 Q1015,
SBMT,2024-11-27 11:00,80.60,59.00,47.79,170.00,2.00,0.00,29.97,,6.21,,,,,,,,,,,,,,,,,81.11,SBMT 271100Z 17002KT CAVOK 27/15 Q1015,
SBMT,2024-11-27 12:00,82.40,57.20,42.25,280.00,2.00,0.00,30.00,,6.21,,,,,,,,,,,,,,,,,82.08,SBMT 271200Z 28002KT CAVOK 28/14 Q1016,
SBMT,2024-11-27 13:00,84.20,57.20,39.86,250.00,3.00,0.00,30.00,,6.21,,,,,,,,,,,,,,,,,83.47,SBMT 271300Z 25003KT CAVOK 29/14 Q1016,
SBMT,2024-11-27 14:00,86.00,60.80,42.80,270.00,8.00,0.00,29.97,,6.21,,,,,,,,,,,,,,,,,86.05,SBMT 271400Z 27008KT CAVOK 30/16 Q1015,
SBMT,2024-11-27 15:00,87.80,55.40,33.29,250.00,2.00,0.00,29.94,,6.21,,,,,,,,,,,,,,,,,86.11,SBMT 271500Z 25002KT CAVOK 31/13 Q1014,
SBMT,2024-11-27 16:00,87.80,55.40,33.29,250.00,5.00,0.00,29.91,,6.21,,,,,,,,,,,,,,,,,86.11,SBMT 271600Z 25005KT CAVOK 31/13 Q1013,
SBMT,2024-11-27 17:00,87.80,57.20,35.53,,2.00,0.00,29.91,,6.21,,SCT,,,,4000.00,,,,,,,,,,,86.58,SBMT 271700Z VRB02KT 9999 SCT040 31/14 Q1013,
SBMT,2024-11-27 18:00,89.60,57.20,33.56,280.00,9.00,0.00,29.88,,6.21,,SCT,,,,4000.00,,,,,,,,,,,88.28,SBMT 271800Z 28009KT 9999 SCT040 32/14 Q1012,
SBMT,2024-11-27 19:00,89.60,59.00,35.81,300.00,6.00,0.00,29.85,,6.21,,SCT,,,,4000.00,,,,,,,,,,,88.86,SBMT 271900Z 30006KT 260V340 9999 SCT040 32/15 Q1011,
SBMT,2024-11-27 20:00,89.60,59.00,35.81,290.00,11.00,0.00,29.85,,6.21,,,,,,,,,,,,,,,,,88.86,SBMT 272000Z 29011KT 250V330 CAVOK 32/15 Q1011,
SBMT,2024-11-27 21:00,87.80,57.20,35.53,320.00,7.00,0.00,29.85,,6.21,,,,,,,,,,,,,,,,,86.58,SBMT 272100Z 32007KT 260V040 CAVOK 31/14 Q1011,
SBMT,2024-11-27 22:00,86.00,57.20,37.62,320.00,4.00,0.00,29.85,,6.21,,,,,,,,,,,,,,,,,84.97,SBMT 272200Z 32004KT 280V020 CAVOK 30/14 Q1011,
SBMT,2024-11-27 23:00,84.20,59.00,42.52,340.00,4.00,0.00,29.88,,6.21,,,,,,,,,,,,,,,,,83.92,SBMT 272300Z 34004KT CAVOK 29/15 Q1012,
SBMT,2024-11-28 00:00,82.40,59.00,45.07,360.00,3.00,0.00,29.91,,6.21,,,,,,,,,,,,,,,,,82.46,SBMT 280000Z 36003KT CAVOK 28/15 Q1013,
SBMT,2024-11-28 01:00,75.20,60.80,60.90,0.00,0.00,0.00,29.91,,6.21,,,,,,,,,,,,,,,,,75.20,SBMT 280100Z 00000KT CAVOK 24/16 Q1013,
SBMT,2024-11-28 02:00,75.20,60.80,60.90,0.00,0.00,0.00,29.91,,6.21,,,,,,,,,,,,,,,,,75.20,SBMT 280200Z 00000KT CAVOK 24/16 Q1013,
SBMT,2024-11-28 09:00,73.40,60.80,64.69,0.00,0.00,0.00,29.88,,6.21,,,,,,,,,,,,,,,,,73.40,SBMT 280900Z 00000KT CAVOK 23/16 Q1012,
SBMT,2024-11-28 10:00,80.60,60.80,50.95,320.00,5.00,0.00,29.91,,6.21,,,,,,,,,,,,,,,,,81.46,SBMT 281000Z 32005KT CAVOK 27/16 Q1013,
SBMT,2024-11-28 11:00,80.60,57.20,44.80,340.00,6.00,0.00,29.91,,6.21,,,,,,,,,,,,,,,,,80.81,SBMT 281100Z 34006KT CAVOK 27/14 Q1013,
SBMT,2024-11-28 12:00,84.20,62.60,48.32,320.00,9.00,0.00,29.91,,6.21,,,,,,,,,,,,,,,,,85.03,SBMT 281200Z 32009KT CAVOK 29/17 Q1013,
SBMT,2024-11-28 13:00,86.00,64.40,48.58,320.00,10.00,0.00,29.91,,6.21,,SCT,,,,4000.00,,,,,,,,,,,87.49,SBMT 281300Z 32010KT 9999 SCT040 30/18 Q1013,
SBMT,2024-11-28 14:00,86.00,62.60,45.61,300.00,10.00,0.00,29.91,,6.21,,SCT,,,,4000.00,,,,,,,,,,,86.72,SBMT 281400Z 30010KT 9999 SCT040 30/17 Q1013,
SBMT,2024-11-28 15:00,86.00,62.60,45.61,300.00,11.00,0.00,29.88,,6.21,,BKN,,,,4000.00,,,,,,,,,,,86.72,SBMT 281500Z 30011KT 9999 BKN040 30/17 Q1012,
SBMT,2024-11-28 16:00,91.40,62.60,38.45,330.00,10.00,0.00,29.85,,6.21,,BKN,,,,4000.00,,,,,,,,,,,92.23,SBMT 281600Z 33010KT 9999 BKN040 33/17 Q1011,
SBMT,2024-11-28 17:00,87.80,62.60,43.07,270.00,9.00,0.00,29.85,,6.21,,BKN,,,,4600.00,,,,,,,,,,,88.48,SBMT 281700Z 27009KT 230V310 9999 BKN046 31/17 Q1011,
SBMT,2024-11-28 18:00,87.80,60.80,40.41,310.00,6.00,0.00,29.83,,6.21,,FEW,BKN,,,4000.00,4600.00,,,,,,,,,,87.75,SBMT 281800Z 31006KT 240V040 9999 FEW040TCU BKN046 31/16 Q1010,
SBMT,2024-11-28 19:00,86.00,60.80,42.80,,2.00,0.00,29.83,,6.21,,SCT,SCT,,,4000.00,4600.00,,,,,,,,,,86.05,SBMT 281900Z VRB02KT 9999 SCT040TCU SCT046 30/16 Q1010,
SBMT,2024-11-28 20:00,77.00,64.40,65.12,220.00,13.00,0.00,29.91,,6.21,,FEW,BKN,OVC,,1300.00,4000.00,8000.00,,,,,,,,,77.00,SBMT 282000Z 22013KT 190V260 9999 FEW013 BKN040TCU OVC080 25/18 Q1013,
SBMT,2024-11-28 21:00,71.60,64.40,78.04,,3.00,0.00,29.91,,6.21,,FEW,FEW,OVC,,1300.00,4000.00,8000.00,,TS,,,,,,,71.60,SBMT 282100Z VRB03KT 9999 TS FEW013 FEW040CB OVC080 22/18 Q1013,
SBMT,2024-11-28 22:00,71.60,66.20,83.09,,1.00,0.00,29.91,,6.21,,SCT,BKN,,,1500.00,8000.00,,,,,,,,,,71.60,SBMT 282200Z VRB01KT 9999 SCT015 BKN080 22/19 Q1013 RETS,
SBMT,2024-11-28 23:00,69.80,66.20,88.34,250.00,6.00,0.00,29.97,,6.21,,SCT,BKN,,,1500.00,8000.00,,,-RA,,,,,,,69.80,SBMT 282300Z 25006KT 210V280 9999 -RA SCT015 BKN080 21/19 Q1015,
SBMT,2024-11-29 00:00,71.60,66.20,83.09,350.00,6.00,0.00,30.03,,6.21,,SCT,BKN,,,1500.00,8000.00,,,,,,,,,,71.60,SBMT 290000Z 35006KT 310V040 9999 SCT015 BKN080 22/19 Q1017,
SBMT,2024-11-29 00:04,71.60,64.40,78.04,350.00,5.00,0.00,30.00,,1.86,,BKN,BKN,,,1300.00,8000.00,,,RA,,,,,,,71.60,SBMT 290004Z 35005KT 290V040 3000 RA BKN013 BKN080 22/18 Q1016,
SBMT,2024-11-29 01:00,69.80,64.40,82.98,70.00,3.00,0.00,30.00,,6.21,,FEW,BKN,,,1500.00,8000.00,,,,,,,,,,69.80,SBMT 290100Z 07003KT 020V100 9999 FEW015 BKN080 21/18 Q1016,
SBMT,2024-11-29 02:00,69.80,64.40,82.98,50.00,6.00,0.00,29.97,,6.21,,FEW,BKN,,,1500.00,8000.00,,,,,,,,,,69.80,SBMT 290200Z 05006KT 010V080 9999 FEW015 BKN080 21/18 Q1015,
SBMT,2024-11-29 09:00,69.80,66.20,88.34,0.00,0.00,0.00,29.94,,6.21,,,,,,,,,,,,,,,,,69.80,SBMT 290900Z 00000KT CAVOK 21/19 Q1014,
SBMT,2024-11-29 10:00,71.60,66.20,83.09,10.00,3.00,0.00,29.94,,6.21,,,,,,,,,,,,,,,,,71.60,SBMT 291000Z 01003KT CAVOK 22/19 Q1014,
SBMT,2024-11-29 11:00,73.40,66.20,78.19,320.00,6.00,0.00,29.97,,6.21,,,,,,,,,,,,,,,,,73.40,SBMT 291100Z 32006KT CAVOK 23/19 Q1015,
SBMT,2024-11-29 12:00,73.40,66.20,78.19,300.00,7.00,0.00,30.00,,6.21,,SCT,,,,2300.00,,,,,,,,,,,73.40,SBMT 291200Z 30007KT 9999 SCT023 23/19 Q1016,
SBMT,2024-11-29 13:00,75.20,66.20,73.61,350.00,7.00,0.00,30.00,,6.21,,BKN,,,,2100.00,,,,,,,,,,,75.20,SBMT 291300Z 35007KT 9999 BKN021 24/19 Q1016,
SBMT,2024-11-29 14:00,75.20,68.00,78.34,310.00,7.00,0.00,29.97,,6.21,,BKN,,,,2000.00,,,,,,,,,,,75.20,SBMT 291400Z 31007KT 9999 BKN020 24/20 Q1015,
SBMT,2024-11-29 15:00,77.00,66.20,69.33,310.00,7.00,0.00,29.97,,6.21,,BKN,,,,2000.00,,,,,,,,,,,77.00,SBMT 291500Z 31007KT 9999 BKN020 25/19 Q1015,
SBMT,2024-11-29 16:00,78.80,66.20,65.33,320.00,9.00,0.00,29.97,,6.21,,BKN,,,,3600.00,,,,,,,,,,,78.80,SBMT 291600Z 32009KT 9999 BKN036 26/19 Q1015,
SBMT,2024-11-29 17:00,77.00,64.40,65.12,310.00,8.00,0.00,29.94,,6.21,,BKN,,,,4000.00,,,,,,,,,,,77.00,SBMT 291700Z 31008KT 260V350 9999 BKN040 25/18 Q1014,
SBMT,2024-11-29 18:00,80.60,64.40,57.84,310.00,7.00,0.00,29.91,,6.21,,SCT,,,,3000.00,,,,,,,,,,,82.27,SBMT 291800Z 31007KT 280V340 9999 SCT030 27/18 Q1013,
SBMT,2024-11-29 19:00,80.60,64.40,57.84,300.00,9.00,0.00,29.88,,6.21,,SCT,,,,3300.00,,,,,,,,,,,82.27,SBMT 291900Z 30009KT 250V340 9999 SCT033 27/18 Q1012,
SBMT,2024-11-29 20:00,78.80,64.40,61.36,320.00,7.00,0.00,29.88,,6.21,,SCT,,,,3600.00,,,,,,,,,,,78.80,SBMT 292000Z 32007KT 270V350 9999 SCT036 26/18 Q1012,
SBMT,2024-11-29 21:00,78.80,64.40,61.36,310.00,5.00,0.00,29.91,,6.21,,SCT,,,,3600.00,,,,,,,,,,,78.80,SBMT 292100Z 31005KT 260V360 9999 SCT036 26/18 Q1013,
SBMT,2024-11-29 22:00,77.00,64.40,65.12,330.00,4.00,0.00,29.91,,6.21,,FEW,,,,3000.00,,,,,,,,,,,77.00,SBMT 292200Z 33004KT 290V050 9999 FEW030 25/18 Q1013,
SBMT,2024-11-29 23:00,75.20,64.40,69.14,,2.00,0.00,29.94,,6.21,,,,,,,,,,,,,,,,,75.20,SBMT 292300Z VRB02KT CAVOK 24/18 Q1014,
SBMT,2024-11-30 00:00,75.20,64.40,69.14,330.00,4.00,0.00,29.94,,6.21,,,,,,,,,,,,,,,,,75.20,SBMT 300000Z 33004KT 290V360 CAVOK 24/18 Q1014,
SBMT,2024-11-30 01:00,75.20,66.20,73.61,320.00,3.00,0.00,29.97,,6.21,,,,,,,,,,,,,,,,,75.20,SBMT 300100Z 32003KT 280V340 CAVOK 24/19 Q1015,
SBMT,2024-11-30 02:00,75.20,66.20,73.61,330.00,4.00,0.00,29.97,,6.21,,,,,,,,,,,,,,,,,75.20,SBMT 300200Z 33004KT 300V010 CAVOK 24/19 Q1015,
SBMT,2024-11-30 09:00,73.40,68.00,83.21,,2.00,0.00,29.94,,6.21,,FEW,,,,4000.00,,,,,,,,,,,73.40,SBMT 300900Z VRB02KT 9999 FEW040 23/20 Q1014,
SBMT,2024-11-30 10:00,73.40,69.80,88.51,270.00,1.00,0.00,29.97,,6.21,,FEW,,,,4000.00,,,,,,,,,,,73.40,SBMT 301000Z 27001KT 9999 FEW040 23/21 Q1015,
SBMT,2024-11-30 11:00,75.20,68.00,78.34,130.00,3.00,0.00,30.00,,6.21,,BKN,,,,2000.00,,,,,,,,,,,75.20,SBMT 301100Z 13003KT 9999 BKN020 24/20 Q1016,
SBMT,2024-11-30 12:00,77.00,68.00,73.78,230.00,2.00,0.00,30.00,,6.21,,BKN,,,,2000.00,,,,,,,,,,,77.00,SBMT 301200Z 23002KT 9999 BKN020 25/20 Q1016,
SBMT,2024-11-30 13:00,77.00,68.00,73.78,230.00,4.00,0.00,30.00,,6.21,,BKN,,,,2500.00,,,,,,,,,,,77.00,SBMT 301300Z 23004KT 9999 BKN025 25/20 Q1016,
SBMT,2024-11-30 14:00,84.20,69.80,62.03,70.00,2.00,0.00,30.00,,6.21,,BKN,,,,3000.00,,,,,,,,,,,88.43,SBMT 301400Z 07002KT 9999 BKN030 29/21 Q1016,
SBMT,2024-11-30 15:00,82.40,66.20,58.08,50.00,3.00,0.00,29.97,,6.21,,BKN,,,,3000.00,,,,,,,,,,,84.63,SBMT 301500Z 05003KT 9999 BKN030 28/19 Q1015,
SBMT,2024-11-30 16:00,82.40,66.20,58.08,230.00,6.00,0.00,29.97,,6.21,,BKN,,,,3000.00,,,,,,,,,,,84.63,SBMT 301600Z 23006KT 9999 BKN030 28/19 Q1015,
SBMT,2024-11-30 17:00,78.80,69.80,73.95,170.00,10.00,0.00,29.97,,6.21,,SCT,BKN,,,2600.00,3900.00,,,,,,,,,,78.80,COR SBMT 301700Z 17010KT 9999 SCT026 BKN039 26/21 Q1015,
SBMT,2024-11-30 18:00,77.00,68.00,73.78,150.00,8.00,0.00,29.94,,6.21,,SCT,BKN,,,2300.00,3000.00,,,,,,,,,,77.00,SBMT 301800Z 15008KT 9999 SCT023 BKN030 25/20 Q1014,
SBMT,2024-11-30 19:00,75.20,68.00,78.34,150.00,8.00,0.00,29.94,,6.21,,BKN,,,,2100.00,,,,,,,,,,,75.20,SBMT 301900Z 15008KT 9999 BKN021 24/20 Q1014,
SBMT,2024-11-30 20:00,73.40,68.00,83.21,50.00,8.00,0.00,29.94,,6.21,,SCT,BKN,,,1700.00,2300.00,,,,,,,,,,73.40,COR SBMT 302000Z 05008KT 9999 SCT017 BKN023 23/20 Q1014,
SBMT,2024-11-30 21:00,71.60,68.00,88.43,140.00,7.00,0.00,29.97,,6.21,,SCT,BKN,,,1300.00,1500.00,,,,,,,,,,71.60,SBMT 302100Z 14007KT 9999 SCT013 BKN015 22/20 Q1015,
SBMT,2024-11-30 22:00,69.80,66.20,88.34,150.00,10.00,0.00,30.00,,1.86,,SCT,BKN,,,900.00,1100.00,,,BR,,,,,,,69.80,SBMT 302200Z 15010KT 3000 BR SCT009 BKN011 21/19 Q1016,
SBMT,2024-11-30 23:00,69.80,66.20,88.34,140.00,6.00,0.00,30.00,,3.73,,BKN,,,,1100.00,,,,,,,,,,,69.80,SBMT 302300Z 14006KT 6000 BKN011 21/19 Q1016,
SBMT,2024-12-01 00:00,69.80,66.20,88.34,120.00,8.00,0.00,30.00,,3.73,,SCT,BKN,,,900.00,1100.00,,,,,,,,,,69.80,SBMT 010000Z 12008KT 6000 SCT009 BKN011 21/19 Q1016,
SBMT,2024-12-01 01:00,69.80,66.20,88.34,120.00,6.00,0.00,30.03,,3.73,,BKN,,,,1300.00,,,,,,,,,,,69.80,SBMT 010100Z 12006KT 6000 BKN013 21/19 Q1017,
SBMT,2024-12-01 09:00,68.00,64.40,88.26,100.00,7.00,0.00,30.00,,6.21,,FEW,,,,1300.00,,,,,,,,,,,68.00,SBMT 010900Z 10007KT 9999 FEW013 20/18 Q1016,
SBMT,2024-12-01 10:00,71.60,64.40,78.04,100.00,7.00,0.00,30.00,,6.21,,FEW,,,,3000.00,,,,,,,,,,,71.60,SBMT 011000Z 10007KT 9999 FEW030 22/18 Q1016,
SBMT,2024-12-01 11:00,75.20,66.20,73.61,90.00,7.00,0.00,30.00,,6.21,,SCT,,,,2500.00,,,,,,,,,,,75.20,COR SBMT 011100Z 09007KT 9999 SCT025 24/19 Q1016,
SBMT,2024-12-01 12:00,75.20,64.40,69.14,100.00,7.00,0.00,30.00,,6.21,,BKN,,,,2600.00,,,,,,,,,,,75.20,SBMT 011200Z 10007KT 9999 BKN026 24/18 Q1016,
SBMT,2024-12-01 13:00,77.00,66.20,69.33,100.00,9.00,0.00,30.00,,6.21,,BKN,,,,2900.00,,,,,,,,,,,77.00,SBMT 011300Z 10009KT 9999 BKN029 25/19 Q1016,
SBMT,2024-12-01 14:00,80.60,66.20,61.58,120.00,6.00,0.00,30.00,,6.21,,FEW,,,,3300.00,,,,,,,,,,,82.75,SBMT 011400Z 12006KT 9999 FEW033 27/19 Q1016,
SBMT,2024-12-01 15:00,84.20,66.20,54.80,,4.00,0.00,29.97,,6.21,,FEW,,,,4300.00,,,,,,,,,,,86.50,SBMT 011500Z VRB04KT 9999 FEW043 29/19 Q1015,
SBMT,2024-12-01 16:00,86.00,66.20,51.72,90.00,4.00,0.00,29.94,,6.21,,FEW,,,,4500.00,,,,,,,,,,,88.39,SBMT 011600Z 09004KT 9999 FEW045 30/19 Q1014,
SBMT,2024-12-01 17:00,87.80,64.40,45.88,240.00,4.00,0.00,29.91,,6.21,,,,,,,,,,,,,,,,,89.33,SBMT 011700Z 24004KT 150V290 CAVOK 31/18 Q1013,
SBMT,2024-12-01 18:00,80.60,66.20,61.58,150.00,10.00,0.00,29.88,,6.21,,,,,,,,,,,,,,,,,82.75,SBMT 011800Z 15010KT 090V220 CAVOK 27/19 Q1012,
SBMT,2024-12-01 19:00,78.80,66.20,65.33,150.00,9.00,0.00,29.88,,6.21,,,,,,,,,,,,,,,,,78.80,SBMT 011900Z 15009KT 110V200 CAVOK 26/19 Q1012,
SBMT,2024-12-01 20:00,75.20,66.20,73.61,160.00,9.00,0.00,29.88,,6.21,,SCT,,,,1700.00,,,,,,,,,,,75.20,SBMT 012000Z 16009KT 9999 SCT017 24/19 Q1012,
SBMT,2024-12-01 21:00,73.40,64.40,73.44,110.00,8.00,0.00,29.88,,6.21,,BKN,OVC,,,1500.00,1700.00,,,,,,,,,,73.40,SBMT 012100Z 11008KT 080V140 9999 BKN015 OVC017 23/18 Q1012,
SBMT,2024-12-01 22:00,71.60,64.40,78.04,120.00,7.00,0.00,29.91,,4.97,,FEW,BKN,,,1100.00,1300.00,,,,,,,,,,71.60,SBMT 012200Z 12007KT 080V160 8000 FEW011 BKN013 22/18 Q1013,
SBMT,2024-12-01 23:00,71.60,64.40,78.04,130.00,5.00,0.00,29.88,,4.97,,OVC,,,,1300.00,,,,,,,,,,,71.60,SBMT 012300Z 13005KT 100V180 8000 OVC013 22/18 Q1012,
SBMT,2024-12-02 00:00,71.60,64.40,78.04,50.00,5.00,0.00,29.85,,4.97,,BKN,OVC,,,1300.00,1500.00,,,,,,,,,,71.60,SBMT 020000Z 05005KT 350V110 8000 BKN013 OVC015 22/18 Q1011,
SBMT,2024-12-02 00:04,71.60,64.40,78.04,80.00,6.00,0.00,29.85,,6.21,,BKN,,,,1500.00,,,,,,,,,,,71.60,SBMT 020004Z 08006KT 040V100 9999 BKN015 22/18 Q1011,
SBMT,2024-12-02 01:00,71.60,64.40,78.04,70.00,7.00,0.00,29.83,,6.21,,FEW,,,,1500.00,,,,,,,,,,,71.60,SBMT 020100Z 07007KT 040V100 9999 FEW015 22/18 Q1010,
SBMT,2024-12-02 02:00,71.60,64.40,78.04,70.00,5.00,0.00,29.83,,6.21,,,,,,,,,,,,,,,,,71.60,SBMT 020200Z 07005KT 040V110 CAVOK 22/18 Q1010,
SBMT,2024-12-02 09:00,73.40,68.00,83.21,290.00,3.00,0.00,29.88,,6.21,,,,,,,,,,,,,,,,,73.40,SBMT 020900Z 29003KT CAVOK 23/20 Q1012,
SBMT,2024-12-02 10:00,78.80,69.80,73.95,320.00,9.00,0.00,29.88,,6.21,,,,,,,,,,,,,,,,,78.80,SBMT 021000Z 32009KT CAVOK 26/21 Q1012,
SBMT,2024-12-02 11:00,80.60,69.80,69.71,320.00,11.00,0.00,29.88,,6.21,,,,,,,,,,,,,,,,,83.90,SBMT 021100Z 32011KT CAVOK 27/21 Q1012,
SBMT,2024-12-02 12:00,82.40,69.80,65.74,300.00,10.00,0.00,29.88,,6.21,,BKN,,,,3000.00,,,,,,,,,,,86.22,SBMT 021200Z 30010KT 9999 BKN030 28/21 Q1012,
SBMT,2024-12-02 13:00,84.20,69.80,62.03,310.00,9.00,0.00,29.88,,6.21,,BKN,,,,3000.00,,,,,,,,,,,88.43,SBMT 021300Z 31009KT 9999 BKN030 29/21 Q1012,
SBMT,2024-12-02 14:00,84.20,69.80,62.03,290.00,10.00,0.00,29.88,,6.21,,BKN,,,,3600.00,,,,,,,,,,,88.43,SBMT 021400Z 29010KT 9999 BKN036 29/21 Q1012,
SBMT,2024-12-02 15:00,84.20,68.00,58.32,310.00,8.00,0.00,29.85,,6.21,,BKN,,,,4000.00,,,,,,,,,,,87.40,SBMT 021500Z 31008KT 9999 BKN040 29/20 Q1011,
SBMT,2024-12-02 16:00,82.40,69.80,65.74,300.00,7.00,0.00,29.83,,6.21,,BKN,FEW,,,3600.00,4000.00,,,TS,,,,,,,86.22,SBMT 021600Z 30007KT 9999 TS BKN036 FEW040CB 28/21 Q1010,
SBMT,2024-12-02 17:00,73.40,68.00,83.21,320.00,9.00,0.00,29.85,,5.59,,FEW,FEW,BKN,,3300.00,4000.00,5000.00,,-TSRA,,,,,,,73.40,SBMT 021700Z 32009KT 9000 -TSRA FEW033 FEW040CB BKN050 23/20 Q1011,
SBMT,2024-12-02 18:00,77.00,69.80,78.48,270.00,9.00,0.00,29.83,,6.21,,FEW,SCT,,,3300.00,10000.00,,,,,,,,,,77.00,SBMT 021800Z 27009KT 9999 FEW033 SCT100 25/21 Q1010 RETS,
SBMT,2024-12-02 19:00,73.40,69.80,88.51,290.00,9.00,0.00,29.83,,6.21,,FEW,,,,1900.00,,,,,,,,,,,73.40,SBMT 021900Z 29009KT 9999 FEW019 23/21 Q1010,
SBMT,2024-12-02 20:00,75.20,68.00,78.34,260.00,6.00,0.00,29.83,,6.21,,FEW,SCT,,,1900.00,6600.00,,,,,,,,,,75.20,SBMT 022000Z 26006KT 9999 FEW019 SCT066 24/20 Q1010,
SBMT,2024-12-02 21:00,75.20,69.80,83.32,250.00,3.00,0.00,29.85,,6.21,,FEW,BKN,,,1500.00,10000.00,,,,,,,,,,75.20,SBMT 022100Z 25003KT 9999 FEW015 BKN100 24/21 Q1011,
SBMT,2024-12-02 22:00,73.40,69.80,88.51,330.00,2.00,0.00,29.88,,6.21,,SCT,,,,1700.00,,,,,,,,,,,73.40,SBMT 022200Z 33002KT 9999 SCT017 23/21 Q1012,
SBMT,2024-12-02 23:00,75.20,68.00,78.34,360.00,5.00,0.00,29.88,,6.21,,,,,,,,,,,,,,,,,75.20,SBMT 022300Z 36005KT CAVOK 24/20 Q1012,
SBMT,2024-12-03 00:00,73.40,69.80,88.51,340.00,6.00,0.00,29.91,,2.49,,BKN,,,,1500.00,,,,-RA BR,,,,,,,73.40,SBMT 030000Z 34006KT 4000 -RA BR BKN015 23/21 Q1013,
SBMT,2024-12-03 01:00,71.60,66.20,83.09,340.00,5.00,0.00,29.91,,6.21,,FEW,,,,1500.00,,,,,,,,,,,71.60,SBMT 030100Z 34005KT 9999 FEW015 22/19 Q1013,
SBMT,2024-12-03 02:00,69.80,68.00,94.01,40.00,3.00,0.00,29.91,,6.21,,FEW,,,,1900.00,,,,,,,,,,,69.80,SBMT 030200Z 04003KT 9999 FEW019 21/20 Q1013,
SBMT,2024-12-03 09:00,71.60,66.20,83.09,10.00,3.00,0.00,29.88,,4.35,,BKN,SCT,,,1500.00,2500.00,,,-RA,,,,,,,71.60,SBMT 030900Z 01003KT 7000 -RA BKN015 SCT025 22/19 Q1012,
SBMT,2024-12-03 10:00,71.60,66.20,83.09,360.00,4.00,0.00,29.88,,4.35,,BKN,SCT,,,1500.00,2500.00,,,-RA,,,,,,,71.60,SBMT 031000Z 36004KT 7000 -RA BKN015 SCT025 22/19 Q1012,
SBMT,2024-12-03 11:00,73.40,66.20,78.19,320.00,2.00,0.00,29.88,,4.97,,BKN,SCT,,,1700.00,3000.00,,,,,,,,,,73.40,SBMT 031100Z 32002KT 8000 BKN017 SCT030 23/19 Q1012,
SBMT,2024-12-03 12:00,71.60,66.20,83.09,330.00,3.00,0.00,29.91,,2.49,,BKN,BKN,,,1200.00,2500.00,,,-RA,,,,,,,71.60,SBMT 031200Z 33003KT 4000 -RA BKN012 BKN025 22/19 Q1013,
SBMT,2024-12-03 13:00,69.80,66.20,88.34,210.00,2.00,0.00,29.91,,1.86,,BKN,BKN,,,1200.00,2500.00,,,-RA,,,,,,,69.80,SBMT 031300Z 21002KT 3000 -RA BKN012 BKN025 21/19 Q1013,
SBMT,2024-12-03 14:00,71.60,68.00,88.43,30.00,5.00,0.00,29.88,,2.49,,BKN,BKN,,,900.00,2500.00,,,-RA,,,,,,,71.60,SBMT 031400Z 03005KT 4000 -RA BKN009 BKN025 22/20 Q1012,
SBMT,2024-12-03 15:00,73.40,68.00,83.21,290.00,3.00,0.00,29.88,,1.86,,BKN,BKN,,,1200.00,2000.00,,,-RA,,,,,,,73.40,SBMT 031500Z 29003KT 3000 -RA BKN012 BKN020 23/20 Q1012,
SBMT,2024-12-03 16:00,73.40,68.00,83.21,300.00,7.00,0.00,29.88,,2.49,,BKN,BKN,,,1200.00,2000.00,,,-RA,,,,,,,73.40,SBMT 031600Z 30007KT 4000 -RA BKN012 BKN020 23/20 Q1012,
SBMT,2024-12-03 17:00,73.40,69.80,88.51,300.00,4.00,0.00,29.85,,6.21,,SCT,BKN,BKN,,900.00,1500.00,3600.00,,,,,,,,,73.40,SBMT 031700Z 30004KT 9999 SCT009 BKN015 BKN036 23/21 Q1011,
SBMT,2024-12-03 18:00,71.60,69.80,94.06,180.00,5.00,0.00,29.85,,6.21,,SCT,BKN,BKN,,1100.00,1300.00,2000.00,,,,,,,,,71.60,SBMT 031800Z 18005KT 9999 SCT011 BKN013 BKN020 22/21 Q1011,
SBMT,2024-12-03 19:00,71.60,68.00,88.43,210.00,6.00,0.00,29.85,,6.21,,BKN,,,,1700.00,,,,,,,,,,,71.60,SBMT 031900Z 21006KT 9999 BKN017 22/20 Q1011,
SBMT,2024-12-03 20:00,71.60,66.20,83.09,190.00,7.00,0.00,29.88,,6.21,,BKN,,,,1700.00,,,,,,,,,,,71.60,SBMT 032000Z 19007KT 9999 BKN017 22/19 Q1012,
SBMT,2024-12-03 21:00,71.60,66.20,83.09,180.00,7.00,0.00,29.88,,6.21,,BKN,BKN,,,1700.00,2300.00,,,,,,,,,,71.60,SBMT 032100Z 18007KT 9999 BKN017 BKN023 22/19 Q1012,
SBMT,2024-12-03 22:00,71.60,66.20,83.09,170.00,7.00,0.00,29.88,,4.97,,SCT,BKN,,,1300.00,1500.00,,,,,,,,,,71.60,SBMT 032200Z 17007KT 8000 SCT013 BKN015 22/19 Q1012,
SBMT,2024-12-03 23:00,69.80,66.20,88.34,170.00,7.00,0.00,29.94,,6.21,,BKN,BKN,,,900.00,1300.00,,,,,,,,,,69.80,SBMT 032300Z 17007KT 9999 BKN009 BKN013 21/19 Q1014,
SBMT,2024-12-04 00:00,69.80,64.40,82.98,150.00,6.00,0.00,29.94,,6.21,,BKN,,,,1300.00,,,,,,,,,,,69.80,SBMT 040000Z 15006KT 9999 BKN013 21/18 Q1014,
SBMT,2024-12-04 01:00,68.00,64.40,88.26,150.00,9.00,0.00,29.97,,6.21,,BKN,,,,1300.00,,,,,,,,,,,68.00,SBMT 040100Z 15009KT 9999 BKN013 20/18 Q1015,
SBMT,2024-12-04 02:00,68.00,64.40,88.26,150.00,9.00,0.00,30.00,,6.21,,BKN,,,,1300.00,,,,,,,,,,,68.00,SBMT 040200Z 15009KT 9999 BKN013 20/18 Q1016,
SBMT,2024-12-04 09:00,64.40,60.80,88.09,130.00,7.00,0.00,30.00,,4.97,,BKN,BKN,,,800.00,1300.00,,,,,,,,,,64.40,SBMT 040900Z 13007KT 8000 BKN008 BKN013 18/16 Q1016,
SBMT,2024-12-04 10:00,64.40,60.80,88.09,120.00,9.00,0.00,30.03,,6.21,,BKN,BKN,,,1100.00,1300.00,,,,,,,,,,64.40,SBMT 041000Z 12009KT 9999 BKN011 BKN013 18/16 Q1017,
SBMT,2024-12-04 11:00,64.40,60.80,88.09,130.00,10.00,0.00,30.06,,6.21,,FEW,BKN,BKN,,800.00,1100.00,1300.00,,,,,,,,,64.40,SBMT 041100Z 13010KT 9999 FEW008 BKN011 BKN013 18/16 Q1018,
SBMT,2024-12-04 12:00,66.20,60.80,82.74,130.00,9.00,0.00,30.06,,6.21,,SCT,BKN,,,1300.00,1500.00,,,,,,,,,,66.20,SBMT 041200Z 13009KT 9999 SCT013 BKN015 19/16 Q1018,
SBMT,2024-12-04 13:00,66.20,59.00,77.60,120.00,9.00,0.00,30.06,,6.21,,BKN,BKN,,,1500.00,2000.00,,,,,,,,,,66.20,SBMT 041300Z 12009KT 9999 BKN015 BKN020 19/15 Q1018,
SBMT,2024-12-04 14:00,64.40,60.80,88.09,150.00,9.00,0.00,30.06,,6.21,,FEW,BKN,BKN,,1300.00,1500.00,2000.00,,,,,,,,,64.40,SBMT 041400Z 15009KT 9999 FEW013 BKN015 BKN020 18/16 Q1018,
SBMT,2024-12-04 15:00,66.20,59.00,77.60,130.00,10.00,0.00,30.03,,6.21,,FEW,BKN,BKN,,1300.00,1500.00,2000.00,,,,,,,,,66.20,SBMT 041500Z 13010KT 9999 FEW013 BKN015 BKN020 19/15 Q1017,
SBMT,2024-12-04 16:00,66.20,60.80,82.74,120.00,9.00,0.00,30.03,,6.21,,BKN,,,,2000.00,,,,,,,,,,,66.20,SBMT 041600Z 12009KT 9999 BKN020 19/16 Q1017,
SBMT,2024-12-04 17:00,68.00,60.80,77.75,130.00,10.00,0.00,30.00,,6.21,,BKN,,,,2000.00,,,,,,,,,,,68.00,SBMT 041700Z 13010KT 100V190 9999 BKN020 20/16 Q1016,
SBMT,2024-12-04 18:00,66.20,59.00,77.60,130.00,10.00,0.00,30.00,,6.21,,BKN,,,,1700.00,,,,,,,,,,,66.20,SBMT 041800Z 13010KT 9999 BKN017 19/15 Q1016,
SBMT,2024-12-04 19:00,66.20,59.00,77.60,130.00,9.00,0.00,30.00,,6.21,,FEW,BKN,,,1300.00,1500.00,,,,,,,,,,66.20,SBMT 041900Z 13009KT 100V160 9999 FEW013 BKN015 19/15 Q1016,
SBMT,2024-12-04 20:00,64.40,59.00,82.62,120.00,9.00,0.00,30.00,,6.21,,FEW,BKN,,,1300.00,1500.00,,,,,,,,,,64.40,SBMT 042000Z 12009KT 090V160 9999 FEW013 BKN015 18/15 Q1016,
SBMT,2024-12-04 21:00,64.40,59.00,82.62,110.00,12.00,0.00,30.00,,6.21,,BKN,,,,1700.00,,,,,,,,,,,64.40,SBMT 042100Z 11012KT 090V150 9999 BKN017 18/15 Q1016,
SBMT,2024-12-04 22:00,64.40,59.00,82.62,120.00,12.00,0.00,30.00,,6.21,,BKN,,,,1500.00,,,,,,,,,,,64.40,SBMT 042200Z 12012KT 080V140 9999 BKN015 18/15 Q1016,
SBMT,2024-12-04 23:00,64.40,59.00,82.62,120.00,10.00,0.00,30.00,,6.21,,BKN,,,,1500.00,,,,,,,,,,,64.40,SBMT 042300Z 12010KT 080V150 9999 BKN015 18/15 Q1016,
SBMT,2024-12-05 00:00,64.40,59.00,82.62,100.00,11.00,0.00,30.03,,6.21,,BKN,,,,1500.00,,,,,,,,,,,64.40,SBMT 050000Z 10011KT 9999 BKN015 18/15 Q1017,
SBMT,2024-12-05 01:00,64.40,59.00,82.62,120.00,9.00,0.00,30.03,,6.21,,BKN,,,,1300.00,,,,,,,,,,,64.40,SBMT 050100Z 12009KT 080V140 9999 BKN013 18/15 Q1017,
SBMT,2024-12-05 02:00,62.60,60.80,93.83,120.00,10.00,0.00,30.03,,6.21,,BKN,,,,1300.00,,,,,,,,,,,62.60,SBMT 050200Z 12010KT 9999 BKN013 17/16 Q1017,
SBMT,2024-12-05 09:00,64.40,62.60,93.88,90.00,5.00,0.00,29.97,,2.49,,BKN,,,,700.00,,,,BR,,,,,,,64.40,SBMT 050900Z 09005KT 070V130 4000 BR BKN007 18/17 Q1015,
SBMT,2024-12-05 10:00,64.40,62.60,93.88,110.00,7.00,0.00,30.00,,2.49,,BKN,,,,800.00,,,,BR,,,,,,,64.40,SBMT 051000Z 11007KT 080V150 4000 BR BKN008 18/17 Q1016,
SBMT,2024-12-05 11:00,66.20,64.40,93.92,80.00,7.00,0.00,30.00,,3.11,,BKN,,,,900.00,,,,BR,,,,,,,66.20,SBMT 051100Z 08007KT 050V110 5000 BR BKN009 19/18 Q1016,
SBMT,2024-12-05 12:00,68.00,64.40,88.26,70.00,7.00,0.00,30.00,,4.35,,BKN,,,,1100.00,,,,,,,,,,,68.00,SBMT 051200Z 07007KT 030V100 7000 BKN011 20/18 Q1016,
SBMT,2024-12-05 13:00,71.60,66.20,83.09,60.00,5.00,0.00,30.00,,4.97,,BKN,,,,1300.00,,,,,,,,,,,71.60,SBMT 051300Z 06005KT 330V120 8000 BKN013 22/19 Q1016,
SBMT,2024-12-05 14:00,75.20,66.20,73.61,,4.00,0.00,30.00,,6.21,,SCT,SCT,,,2300.00,3500.00,,,,,,,,,,75.20,SBMT 051400Z VRB04KT 9999 SCT023 SCT035 24/19 Q1016,
SBMT,2024-12-05 15:00,77.00,66.20,69.33,30.00,3.00,0.00,30.00,,6.21,,SCT,SCT,,,2300.00,3500.00,,,,,,,,,,77.00,SBMT 051500Z 03003KT 320V080 9999 SCT023 SCT035 25/19 Q1016,
SBMT,2024-12-05 16:00,77.00,68.00,73.78,70.00,4.00,0.00,29.97,,6.21,,BKN,SCT,,,3000.00,4000.00,,,,,,,,,,77.00,SBMT 051600Z 07004KT 030V100 9999 BKN030 SCT040 25/20 Q1015,
SBMT,2024-12-05 17:00,82.40,68.00,61.81,290.00,12.00,0.00,29.94,,6.21,,SCT,BKN,,,3000.00,4000.00,,,,,,,,,,85.38,SBMT 051700Z 29012KT 9999 SCT030 BKN040 28/20 Q1014,
SBMT,2024-12-05 18:00,80.60,69.80,69.71,0.00,0.00,0.00,29.91,,6.21,,SCT,BKN,BKN,,3000.00,4000.00,8000.00,,,,,,,,,83.90,SBMT 051800Z 00000KT 9999 SCT030 BKN040 BKN080 27/21 Q1013,
SBMT,2024-12-05 19:00,77.00,68.00,73.78,180.00,10.00,0.00,29.91,,6.21,,SCT,BKN,FEW,,2500.00,3000.00,4000.00,,,,,,,,,77.00,SBMT 051900Z 18010KT 9999 SCT025 BKN030 FEW040TCU 25/20 Q1013,
SBMT,2024-12-05 20:00,73.40,68.00,83.21,140.00,6.00,0.00,29.91,,1.86,,BKN,BKN,FEW,,1100.00,2500.00,3000.00,,RA BR,,,,,,,73.40,SBMT 052000Z 14006KT 3000 RA BR BKN011 BKN025 FEW030TCU 23/20 Q1013,
SBMT,2024-12-05 20:02,69.80,68.00,94.01,30.00,5.00,0.00,29.94,,1.24,,BKN,BKN,FEW,,1100.00,2500.00,3000.00,,TSRA BR,,,,,,,69.80,SBMT 052002Z 03005KT 2000 TSRA BR BKN011 BKN025 FEW030CB 21/20 Q1014,
SBMT,2024-12-05 21:00,68.00,68.00,100.00,150.00,5.00,0.00,29.94,,1.86,,BKN,BKN,FEW,,1100.00,2500.00,3000.00,,TSRA,,,,,,,68.00,SBMT 052100Z 15005KT 100V200 3000 TSRA BKN011 BKN025 FEW030CB 20/20 Q1014 RERA,
SBMT,2024-12-05 22:00,69.80,68.00,94.01,160.00,3.00,0.00,29.97,,3.11,,BKN,BKN,BKN,,600.00,1100.00,2000.00,,-RA BR,,,,,,,69.80,SBMT 052200Z 16003KT 5000 -RA BR BKN006 BKN011 BKN020 21/20 Q1015 RETSRA,
SBMT,2024-12-05 23:00,69.80,68.00,94.01,130.00,2.00,0.00,29.97,,3.11,,BKN,BKN,OVC,,600.00,1100.00,2000.00,,-RA BR,,,,,,,69.80,SBMT 052300Z 13002KT 5000 -RA BR BKN006 BKN011 OVC020 21/20 Q1015,
SBMT,2024-12-06 00:00,69.80,68.00,94.01,280.00,1.00,0.00,30.00,,3.11,,BKN,BKN,OVC,,600.00,1100.00,2000.00,,-DZ BR,,,,,,,69.80,SBMT 060000Z 28001KT 5000 -DZ BR BKN006 BKN011 OVC020 21/20 Q1016,
SBMT,2024-12-06 01:00,69.80,68.00,94.01,150.00,2.00,0.00,30.00,,3.73,,FEW,SCT,OVC,,600.00,1100.00,2000.00,,-DZ,,,,,,,69.80,SBMT 060100Z 15002KT 6000 -DZ FEW006 SCT011 OVC020 21/20 Q1016,
SBMT,2024-12-06 02:00,69.80,68.00,94.01,90.00,3.00,0.00,30.00,,3.73,,FEW,SCT,OVC,,600.00,1100.00,2000.00,,-DZ,,,,,,,69.80,SBMT 060200Z 09003KT 6000 -DZ FEW006 SCT011 OVC020 21/20 Q1016,
SBMT,2024-12-06 09:00,69.80,68.00,94.01,90.00,4.00,0.00,30.00,,2.49,,BKN,,,,600.00,,,,BR,,,,,,,69.80,SBMT 060900Z 09004KT 4000 BR BKN006 21/20 Q1016,
SBMT,2024-12-06 10:00,71.60,68.00,88.43,90.00,4.00,0.00,30.00,,3.11,,BKN,,,,700.00,,,,BR,,,,,,,71.60,SBMT 061000Z 09004KT 5000 BR BKN007 22/20 Q1016,
SBMT,2024-12-06 11:00,75.20,69.80,83.32,80.00,4.00,0.00,30.00,,3.73,,FEW,,,,900.00,,,,,,,,,,,75.20,SBMT 061100Z 08004KT 6000 FEW009 24/21 Q1016,
SBMT,2024-12-06 12:00,78.80,69.80,73.95,50.00,2.00,0.00,30.00,,6.21,,FEW,,,,3000.00,,,,,,,,,,,78.80,SBMT 061200Z 05002KT 9999 FEW030 26/21 Q1016,
SBMT,2024-12-06 13:00,82.40,69.80,65.74,360.00,6.00,0.00,30.00,,6.21,,SCT,,,,3000.00,,,,,,,,,,,86.22,SBMT 061300Z 36006KT 9999 SCT030 28/21 Q1016,
SBMT,2024-12-06 14:00,84.20,69.80,62.03,320.00,6.00,0.00,29.97,,6.21,,BKN,,,,4000.00,,,,,,,,,,,88.43,SBMT 061400Z 32006KT 9999 BKN040 29/21 Q1015,
SBMT,2024-12-06 15:00,86.00,68.00,55.04,320.00,9.00,0.00,29.94,,6.21,,BKN,,,,4900.00,,,,,,,,,,,89.41,SBMT 061500Z 32009KT 9999 BKN049 30/20 Q1014,
SBMT,2024-12-06 16:00,89.60,66.20,46.14,320.00,10.00,0.00,29.91,,6.21,,SCT,,,,4900.00,,,,,,,,,,,92.27,SBMT 061600Z 32010KT 9999 SCT049 32/19 Q1013,
SBMT,2024-12-06 17:00,87.80,62.60,43.07,330.00,10.00,0.00,29.91,,6.21,,,,,,,,,,,,,,,,,88.48,SBMT 061700Z 33010KT 250V050 CAVOK 31/17 Q1013,
SBMT,2024-12-06 18:00,87.80,62.60,43.07,310.00,9.00,0.00,29.88,,6.21,,,,,,,,,,,,,,,,,88.48,SBMT 061800Z 31009KT 250V350 CAVOK 31/17 Q1012,
SBMT,2024-12-06 19:00,87.80,62.60,43.07,300.00,9.00,0.00,29.88,,6.21,,,,,,,,,,,,,,,,,88.48,SBMT 061900Z 30009KT 270V350 CAVOK 31/17 Q1012,
SBMT,2024-12-06 20:00,86.00,64.40,48.58,310.00,6.00,0.00,29.88,,6.21,,,,,,,,,,,,,,,,,87.49,SBMT 062000Z 31006KT 260V360 CAVOK 30/18 Q1012,
SBMT,2024-12-06 21:00,82.40,66.20,58.08,290.00,7.00,0.00,29.88,,6.21,,,,,,,,,,,,,,,,,84.63,SBMT 062100Z 29007KT CAVOK 28/19 Q1012,
SBMT,2024-12-06 22:00,80.60,66.20,61.58,280.00,4.00,0.00,29.91,,6.21,,,,,,,,,,,,,,,,,82.75,SBMT 062200Z 28004KT 260V340 CAVOK 27/19 Q1013,
SBMT,2024-12-06 23:00,75.20,66.20,73.61,260.00,5.00,0.00,29.94,,6.21,,,,,,,,,,,,,,,,,75.20,SBMT 062300Z 26005KT CAVOK 24/19 Q1014,
SBMT,2024-12-07 00:00,77.00,66.20,69.33,270.00,3.00,0.00,29.94,,6.21,,,,,,,,,,,,,,,,,77.00,SBMT 070000Z 27003KT 250V310 CAVOK 25/19 Q1014,
SBMT,2024-12-07 01:00,75.20,66.20,73.61,310.00,2.00,0.00,29.97,,6.21,,,,,,,,,,,,,,,,,75.20,SBMT 070100Z 31002KT CAVOK 24/19 Q1015,
SBMT,2024-12-07 02:00,75.20,66.20,73.61,300.00,3.00,0.00,29.94,,6.21,,,,,,,,,,,,,,,,,75.20,SBMT 070200Z 30003KT CAVOK 24/19 Q1014,
SBMT,2024-12-07 09:00,71.60,66.20,83.09,190.00,2.00,0.00,29.94,,6.21,,,,,,,,,,,,,,,,,71.60,SBMT 070900Z 19002KT CAVOK 22/19 Q1014,
SBMT,2024-12-07 10:00,77.00,66.20,69.33,330.00,4.00,0.00,29.94,,6.21,,,,,,,,,,,,,,,,,77.00,SBMT 071000Z 33004KT CAVOK 25/19 Q1014,
SBMT,2024-12-07 11:00,80.60,64.40,57.84,350.00,6.00,0.00,29.97,,6.21,,,,,,,,,,,,,,,,,82.27,SBMT 071100Z 35006KT CAVOK 27/18 Q1015,
SBMT,2024-12-07 12:00,82.40,64.40,54.55,330.00,8.00,0.00,29.94,,6.21,,,,,,,,,,,,,,,,,83.98,SBMT 071200Z 33008KT CAVOK 28/18 Q1014,
SBMT,2024-12-07 13:00,84.20,64.40,51.47,300.00,12.00,0.00,29.94,,6.21,25.00,SCT,,,,4000.00,,,,,,,,,,,85.71,SBMT 071300Z 30012G25KT 9999 SCT040 29/18 Q1014,
SBMT,2024-12-07 14:00,86.00,64.40,48.58,310.00,13.00,0.00,29.91,,6.21,24.00,SCT,,,,4000.00,,,,,,,,,,,87.49,SBMT 071400Z 31013G24KT 9999 SCT040 30/18 Q1013,
SBMT,2024-12-07 15:00,87.80,60.80,40.41,320.00,12.00,0.00,29.91,,6.21,23.00,SCT,,,,4500.00,,,,,,,,,,,87.75,SBMT 071500Z 32012G23KT 9999 SCT045 31/16 Q1013,
SBMT,2024-12-07 16:00,87.80,59.00,37.90,330.00,10.00,0.00,29.91,,6.21,,SCT,,,,4500.00,,,,,,,,,,,87.12,SBMT 071600Z 33010KT 9999 SCT045 31/15 Q1013,
SBMT,2024-12-07 17:00,89.60,60.80,38.18,300.00,12.00,0.00,29.88,,6.21,,,,,,,,,,,,,,,,,89.54,SBMT 071700Z 30012KT CAVOK 32/16 Q1012,
SBMT,2024-12-07 18:00,87.80,60.80,40.41,290.00,12.00,0.00,29.88,,6.21,,,,,,,,,,,,,,,,,87.75,SBMT 071800Z 29012KT CAVOK 31/16 Q1012,
SBMT,2024-12-07 19:00,87.80,60.80,40.41,300.00,9.00,0.00,29.88,,6.21,,,,,,,,,,,,,,,,,87.75,SBMT 071900Z 30009KT CAVOK 31/16 Q1012,
SBMT,2024-12-07 20:00,86.00,60.80,42.80,270.00,8.00,0.00,29.91,,6.21,,,,,,,,,,,,,,,,,86.05,SBMT 072000Z 27008KT CAVOK 30/16 Q1013,
SBMT,2024-12-07 21:00,73.40,69.80,88.51,140.00,9.00,0.00,29.94,,6.21,,SCT,SCT,,,1100.00,6500.00,,,,,,,,,,73.40,SBMT 072100Z 14009KT 9999 SCT011 SCT065 23/21 Q1014,
SBMT,2024-12-07 22:00,71.60,68.00,88.43,150.00,8.00,0.00,29.97,,6.21,,BKN,,,,1300.00,,,,,,,,,,,71.60,SBMT 072200Z 15008KT 9999 BKN013 22/20 Q1015,
SBMT,2024-12-07 23:00,71.60,68.00,88.43,140.00,6.00,0.00,30.00,,6.21,,BKN,,,,1300.00,,,,,,,,,,,71.60,SBMT 072300Z 14006KT 100V190 9999 BKN013 22/20 Q1016,
SBMT,2024-12-08 00:00,71.60,66.20,83.09,160.00,7.00,0.00,30.00,,6.21,,BKN,,,,1300.00,,,,,,,,,,,71.60,SBMT 080000Z 16007KT 9999 BKN013 22/19 Q1016,
SBMT,2024-12-08 01:00,71.60,66.20,83.09,110.00,8.00,0.00,30.03,,6.21,,SCT,BKN,,,1500.00,2300.00,,,,,,,,,,71.60,SBMT 080100Z 11008KT 9999 SCT015 BKN023 22/19 Q1017,
SBMT,2024-12-08 02:00,71.60,66.20,83.09,130.00,7.00,0.00,30.03,,6.21,,FEW,SCT,,,1500.00,2100.00,,,,,,,,,,71.60,SBMT 080200Z 13007KT 9999 FEW015 SCT021 22/19 Q1017,
SBMT,2024-12-08 09:00,71.60,66.20,83.09,120.00,3.00,0.00,29.97,,6.21,,BKN,,,,1500.00,,,,,,,,,,,71.60,COR SBMT 080900Z 12003KT 9999 BKN015 22/19 Q1015,
SBMT,2024-12-08 10:00,71.60,66.20,83.09,0.00,0.00,0.00,30.00,,6.21,,BKN,,,,1700.00,,,,,,,,,,,71.60,SBMT 081000Z 00000KT 9999 BKN017 22/19 Q1016,
SBMT,2024-12-08 11:00,73.40,66.20,78.19,0.00,0.00,0.00,30.00,,6.21,,FEW,,,,1700.00,,,,,,,,,,,73.40,SBMT 081100Z 00000KT 9999 FEW017 23/19 Q1016,
SBMT,2024-12-08 12:00,75.20,66.20,73.61,210.00,2.00,0.00,30.03,,6.21,,,,,,,,,,,,,,,,,75.20,SBMT 081200Z 21002KT CAVOK 24/19 Q1017,
SBMT,2024-12-08 13:00,77.00,68.00,73.78,270.00,3.00,0.00,30.03,,6.21,,,,,,,,,,,,,,,,,77.00,SBMT 081300Z 27003KT CAVOK 25/20 Q1017,
SBMT,2024-12-08 14:00,77.00,66.20,69.33,250.00,4.00,0.00,30.03,,6.21,,FEW,SCT,,,4000.00,10000.00,,,,,,,,,,77.00,SBMT 081400Z 25004KT 9999 FEW040 SCT100 25/19 Q1017,
SBMT,2024-12-08 15:00,77.00,68.00,73.78,250.00,6.00,0.00,30.00,,6.21,,,,,,,,,,,,,,,,,77.00,SBMT 081500Z 25006KT CAVOK 25/20 Q1016,
SBMT,2024-12-08 16:00,77.00,68.00,73.78,270.00,3.00,0.00,30.00,,6.21,,,,,,,,,,,,,,,,,77.00,SBMT 081600Z 27003KT CAVOK 25/20 Q1016,
SBMT,2024-12-08 17:00,77.00,64.40,65.12,240.00,6.00,0.00,30.00,,6.21,,SCT,BKN,,,4500.00,8000.00,,,,,,,,,,77.00,SBMT 081700Z 24006KT 9999 SCT045 BKN080 25/18 Q1016,
SBMT,2024-12-08 18:00,77.00,66.20,69.33,200.00,6.00,0.00,29.97,,6.21,,SCT,BKN,,,4500.00,8000.00,,,,,,,,,,77.00,SBMT 081800Z 20006KT 9999 SCT045 BKN080 25/19 Q1015,
SBMT,2024-12-08 19:00,75.20,64.40,69.14,240.00,10.00,0.00,30.00,,6.21,,SCT,BKN,,,3000.00,8000.00,,,,,,,,,,75.20,SBMT 081900Z 24010KT 9999 SCT030 BKN080 24/18 Q1016,
SBMT,2024-12-08 20:00,75.20,64.40,69.14,260.00,7.00,0.00,29.97,,6.21,,SCT,BKN,,,2500.00,8000.00,,,,,,,,,,75.20,SBMT 082000Z 26007KT 9999 SCT025 BKN080 24/18 Q1015,
SBMT,2024-12-08 21:00,75.20,62.60,64.91,290.00,5.00,0.00,29.97,,6.21,,SCT,BKN,,,2500.00,8000.00,,,,,,,,,,75.20,SBMT 082100Z 29005KT 9999 SCT025 BKN080 24/17 Q1015,
SBMT,2024-12-08 22:00,71.60,62.60,73.27,250.00,3.00,0.00,30.00,,6.21,,FEW,BKN,,,2500.00,8000.00,,,,,,,,,,71.60,SBMT 082200Z 25003KT 9999 FEW025 BKN080 22/17 Q1016,
SBMT,2024-12-08 23:00,71.60,62.60,73.27,0.00,0.00,0.00,30.00,,6.21,,FEW,BKN,,,2500.00,8000.00,,,,,,,,,,71.60,SBMT 082300Z 00000KT 9999 FEW025 BKN080 22/17 Q1016,
SBMT,2024-12-09 00:00,71.60,64.40,78.04,160.00,5.00,0.00,30.03,,6.21,,,,,,,,,,,,,,,,,71.60,SBMT 090000Z 16005KT CAVOK 22/18 Q1017,
SBMT,2024-12-09 01:00,71.60,64.40,78.04,130.00,5.00,0.00,30.03,,6.21,,BKN,,,,1500.00,,,,,,,,,,,71.60,SBMT 090100Z 13005KT 9999 BKN015 22/18 Q1017,
SBMT,2024-12-09 02:00,71.60,64.40,78.04,120.00,5.00,0.00,30.03,,6.21,,BKN,,,,1500.00,,,,,,,,,,,71.60,SBMT 090200Z 12005KT 9999 BKN015 22/18 Q1017,
SBMT,2024-12-09 09:00,69.80,68.00,94.01,80.00,12.00,0.00,29.97,,6.21,,,,,,,,,,,,,,,,,69.80,SBMT 090900Z 08012KT CAVOK 21/20 Q1015,
SBMT,2024-12-09 10:00,71.60,68.00,88.43,80.00,5.00,0.00,30.00,,6.21,,,,,,,,,,,,,,,,,71.60,SBMT 091000Z 08005KT CAVOK 22/20 Q1016,
SBMT,2024-12-09 11:00,73.40,68.00,83.21,90.00,4.00,0.00,30.00,,6.21,,,,,,,,,,,,,,,,,73.40,SBMT 091100Z 09004KT CAVOK 23/20 Q1016,
SBMT,2024-12-09 12:00,77.00,68.00,73.78,150.00,2.00,0.00,30.00,,6.21,,,,,,,,,,,,,,,,,77.00,SBMT 091200Z 15002KT CAVOK 25/20 Q1016,
SBMT,2024-12-09 13:00,78.80,68.00,69.52,230.00,3.00,0.00,30.00,,6.21,,FEW,SCT,,,3000.00,10000.00,,,,,,,,,,78.80,SBMT 091300Z 23003KT 9999 FEW030 SCT100 26/20 Q1016,
SBMT,2024-12-09 13:08,78.80,66.20,65.33,240.00,7.00,0.00,30.00,,6.21,,FEW,SCT,BKN,,2100.00,3000.00,10000.00,,,,,,,,,78.80,SBMT 091308Z 24007KT 9999 FEW021 SCT030 BKN100 26/19 Q1016,
SBMT,2024-12-09 14:00,78.80,68.00,69.52,240.00,6.00,0.00,30.00,,6.21,,SCT,,,,3000.00,,,,,,,,,,,78.80,SBMT 091400Z 24006KT 190V290 9999 SCT030 26/20 Q1016,
SBMT,2024-12-09 15:00,78.80,66.20,65.33,270.00,9.00,0.00,30.00,,6.21,,SCT,,,,3300.00,,,,,,,,,,,78.80,SBMT 091500Z 27009KT 9999 SCT033 26/19 Q1016,
SBMT,2024-12-09 16:00,77.00,66.20,69.33,260.00,10.00,0.00,30.00,,6.21,,SCT,,,,3300.00,,,,,,,,,,,77.00,SBMT 091600Z 26010KT 9999 SCT033 25/19 Q1016,
SBMT,2024-12-09 17:00,75.20,62.60,64.91,270.00,9.00,0.00,29.97,,6.21,,BKN,,,,2500.00,,,,,,,,,,,75.20,SBMT 091700Z 27009KT 9999 BKN025 24/17 Q1015,
SBMT,2024-12-09 18:00,75.20,64.40,69.14,260.00,4.00,0.00,29.94,,6.21,,SCT,BKN,,,3000.00,8000.00,,,,,,,,,,75.20,SBMT 091800Z 26004KT 9999 SCT030 BKN080 24/18 Q1014,
SBMT,2024-12-09 19:00,75.20,60.80,60.90,270.00,4.00,0.00,29.94,,6.21,,SCT,BKN,,,3000.00,8000.00,,,,,,,,,,75.20,SBMT 091900Z 27004KT 9999 SCT030 BKN080 24/16 Q1014,
SBMT,2024-12-09 20:00,75.20,62.60,64.91,250.00,7.00,0.00,29.94,,6.21,,SCT,BKN,,,3000.00,8000.00,,,,,,,,,,75.20,SBMT 092000Z 25007KT 9999 SCT030 BKN080 24/17 Q1014,
SBMT,2024-12-09 21:00,73.40,64.40,73.44,120.00,2.00,0.00,29.94,,6.21,,SCT,BKN,,,3000.00,8000.00,,,,,,,,,,73.40,SBMT 092100Z 12002KT 9999 SCT030 BKN080 23/18 Q1014,
SBMT,2024-12-09 22:00,73.40,64.40,73.44,100.00,4.00,0.00,29.94,,6.21,,SCT,BKN,,,2500.00,8000.00,,,,,,,,,,73.40,SBMT 092200Z 10004KT 9999 SCT025 BKN080 23/18 Q1014,
SBMT,2024-12-09 23:00,73.40,64.40,73.44,100.00,7.00,0.00,29.97,,6.21,,SCT,BKN,,,2000.00,8000.00,,,,,,,,,,73.40,SBMT 092300Z 10007KT 9999 SCT020 BKN080 23/18 Q1015,
SBMT,2024-12-10 00:00,73.40,64.40,73.44,90.00,6.00,0.00,29.97,,4.97,,BKN,SCT,,,1700.00,4000.00,,,,,,,,,,73.40,SBMT 100000Z 09006KT 8000 BKN017 SCT040 23/18 Q1015,
SBMT,2024-12-10 01:00,71.60,64.40,78.04,100.00,5.00,0.00,29.97,,6.21,,FEW,BKN,,,1500.00,8000.00,,,,,,,,,,71.60,SBMT 100100Z 10005KT 9999 FEW015 BKN080 22/18 Q1015,
SBMT,2024-12-10 02:00,71.60,64.40,78.04,100.00,5.00,0.00,29.94,,6.21,,FEW,BKN,,,1500.00,8000.00,,,,,,,,,,71.60,SBMT 100200Z 10005KT 9999 FEW015 BKN080 22/18 Q1014,
SBMT,2024-12-10 09:00,68.00,66.20,93.97,350.00,2.00,0.00,29.94,,4.35,,BKN,,,,1200.00,,,,-RA,,,,,,,68.00,SBMT 100900Z 35002KT 7000 -RA BKN012 20/19 Q1014,
SBMT,2024-12-10 10:00,69.80,68.00,94.01,230.00,3.00,0.00,29.91,,6.21,,,,,,,,,,,,,,,,,69.80,SBMT 101000Z 23003KT CAVOK 21/20 Q1013,
SBMT,2024-12-10 11:00,71.60,68.00,88.43,320.00,3.00,0.00,29.94,,6.21,,,,,,,,,,,,,,,,,71.60,SBMT 101100Z 32003KT CAVOK 22/20 Q1014,
SBMT,2024-12-10 12:00,71.60,68.00,88.43,280.00,5.00,0.00,29.94,,6.21,,SCT,,,,3000.00,,,,,,,,,,,71.60,SBMT 101200Z 28005KT 9999 SCT030 22/20 Q1014,
SBMT,2024-12-10 13:00,75.20,68.00,78.34,330.00,9.00,0.00,29.91,,6.21,,BKN,,,,2300.00,,,,,,,,,,,75.20,SBMT 101300Z 33009KT 9999 BKN023 24/20 Q1013,
SBMT,2024-12-10 14:00,77.00,68.00,73.78,310.00,9.00,0.00,29.91,,6.21,,BKN,,,,2300.00,,,,,,,,,,,77.00,SBMT 101400Z 31009KT 9999 BKN023 25/20 Q1013,
SBMT,2024-12-10 15:00,78.80,68.00,69.52,310.00,12.00,0.00,29.88,,6.21,,BKN,,,,3000.00,,,,,,,,,,,78.80,SBMT 101500Z 31012KT 9999 BKN030 26/20 Q1012,
SBMT,2024-12-10 16:00,80.60,69.80,69.71,290.00,10.00,0.00,29.85,,6.21,,BKN,,,,3000.00,,,,,,,,,,,83.90,SBMT 101600Z 29010KT 9999 BKN030 27/21 Q1011,
SBMT,2024-12-10 17:00,78.80,69.80,73.95,300.00,7.00,0.00,29.83,,6.21,,BKN,FEW,,,3000.00,4000.00,,,,,,,,,,78.80,SBMT 101700Z 30007KT 9999 BKN030 FEW040TCU 26/21 Q1010,
SBMT,2024-12-10 18:00,77.00,69.80,78.48,280.00,8.00,0.00,29.83,,4.97,,BKN,FEW,,,3000.00,4000.00,,,,,,,,,,77.00,SBMT 101800Z 28008KT 8000 BKN030 FEW040TCU 25/21 Q1010,
SBMT,2024-12-10 19:00,69.80,66.20,88.34,210.00,9.00,0.00,29.85,,6.21,,BKN,FEW,,,2000.00,4000.00,,,,,,,,,,69.80,SBMT 101900Z 21009KT 9999 BKN020 FEW040TCU 21/19 Q1011 RETS,
SBMT,2024-12-10 20:00,69.80,64.40,82.98,230.00,9.00,0.00,29.88,,6.21,,OVC,,,,1700.00,,,,,,,,,,,69.80,SBMT 102000Z 23009KT 9999 OVC017 21/18 Q1012,
SBMT,2024-12-10 21:00,68.00,62.60,82.86,200.00,11.00,0.00,29.91,,6.21,21.00,OVC,,,,1700.00,,,,,,,,,,,68.00,SBMT 102100Z 20011G21KT 9999 OVC017 20/17 Q1013,
SBMT,2024-12-10 22:00,64.40,60.80,88.09,150.00,9.00,0.00,29.94,,6.21,,OVC,,,,1500.00,,,,,,,,,,,64.40,SBMT 102200Z 15009KT 9999 OVC015 18/16 Q1014,
SBMT,2024-12-10 23:00,64.40,59.00,82.62,140.00,10.00,0.00,29.97,,6.21,,BKN,OVC,,,1100.00,1500.00,,,,,,,,,,64.40,SBMT 102300Z 14010KT 9999 BKN011 OVC015 18/15 Q1015,
SBMT,2024-12-11 00:00,62.60,59.00,88.00,130.00,10.00,0.00,29.97,,6.21,,FEW,SCT,BKN,,1100.00,2000.00,4000.00,,,,,,,,,62.60,SBMT 110000Z 13010KT 100V170 9999 FEW011 SCT020 BKN040 17/15 Q1015,
SBMT,2024-12-11 01:00,62.60,60.80,93.83,130.00,7.00,0.00,30.00,,6.21,,SCT,SCT,BKN,,1100.00,2000.00,4000.00,,,,,,,,,62.60,SBMT 110100Z 13007KT 9999 SCT011 SCT020 BKN040 17/16 Q1016,
SBMT,2024-12-11 02:00,64.40,60.80,88.09,100.00,8.00,0.00,29.97,,6.21,,SCT,SCT,BKN,,1100.00,2000.00,4000.00,,,,,,,,,64.40,SBMT 110200Z 10008KT 9999 SCT011 SCT020 BKN040 18/16 Q1015,
SBMT,2024-12-11 09:00,64.40,59.00,82.62,130.00,7.00,0.00,29.97,,4.97,,BKN,BKN,,,1200.00,2000.00,,,,,,,,,,64.40,SBMT 110900Z 13007KT 8000 BKN012 BKN020 18/15 Q1015,
SBMT,2024-12-11 10:00,64.40,57.20,77.45,130.00,8.00,0.00,30.00,,4.97,,SCT,SCT,,,1200.00,2000.00,,,,,,,,,,64.40,COR SBMT 111000Z 13008KT 8000 SCT012 SCT020 18/14 Q1016,
SBMT,2024-12-11 11:00,68.00,59.00,72.92,130.00,7.00,0.00,30.00,,6.21,,SCT,,,,1700.00,,,,,,,,,,,68.00,SBMT 111100Z 13007KT 9999 SCT017 20/15 Q1016,
SBMT,2024-12-11 12:00,68.00,59.00,72.92,130.00,9.00,0.00,30.03,,6.21,,BKN,,,,2000.00,,,,,,,,,,,68.00,SBMT 111200Z 13009KT 9999 BKN020 20/15 Q1017,
SBMT,2024-12-11 13:00,69.80,60.80,73.09,100.00,8.00,0.00,30.03,,3.73,,BKN,SCT,,,1500.00,2000.00,,,,,,,,,,69.80,SBMT 111300Z 10008KT 6000 BKN015 SCT020 21/16 Q1017,
SBMT,2024-12-11 14:00,73.40,60.80,64.69,130.00,9.00,0.00,30.00,,6.21,,BKN,SCT,,,2000.00,3000.00,,,,,,,,,,73.40,SBMT 111400Z 13009KT 9999 BKN020 SCT030 23/16 Q1016,
SBMT,2024-12-11 15:00,73.40,59.00,60.67,150.00,8.00,0.00,30.00,,6.21,,BKN,SCT,,,2500.00,4000.00,,,,,,,,,,73.40,SBMT 111500Z 15008KT 9999 BKN025 SCT040 23/15 Q1016,
SBMT,2024-12-11 16:00,73.40,60.80,64.69,130.00,10.00,0.00,30.00,,6.21,,BKN,,,,2500.00,,,,,,,,,,,73.40,SBMT 111600Z 13010KT 9999 BKN025 23/16 Q1016,
SBMT,2024-12-11 17:00,73.40,62.60,68.94,150.00,10.00,0.00,30.00,,6.21,,BKN,,,,3000.00,,,,,,,,,,,73.40,SBMT 111700Z 15010KT 9999 BKN030 23/17 Q1016,
SBMT,2024-12-11 18:00,71.60,59.00,64.48,150.00,11.00,0.00,29.97,,6.21,,SCT,,,,3300.00,,,,,,,,,,,71.60,SBMT 111800Z 15011KT 9999 SCT033 22/15 Q1015,
SBMT,2024-12-11 19:00,71.60,60.80,68.75,160.00,12.00,0.00,30.00,,6.21,,SCT,BKN,,,2500.00,4000.00,,,,,,,,,,71.60,SBMT 111900Z 16012KT 9999 SCT025 BKN040 22/16 Q1016,
SBMT,2024-12-11 20:00,69.80,59.00,68.55,150.00,10.00,0.00,30.00,,6.21,,BKN,,,,2300.00,,,,,,,,,,,69.80,SBMT 112000Z 15010KT 9999 BKN023 21/15 Q1016,
SBMT,2024-12-11 21:00,66.20,59.00,77.60,140.00,11.00,0.00,30.00,,6.21,22.00,SCT,,,,2100.00,,,,,,,,,,,66.20,SBMT 112100Z 14011G22KT 9999 SCT021 19/15 Q1016,
SBMT,2024-12-11 22:00,66.20,57.20,72.74,130.00,9.00,0.00,30.03,,6.21,,SCT,BKN,,,2100.00,3000.00,,,,,,,,,,66.20,SBMT 112200Z 13009KT 100V170 9999 SCT021 BKN030 19/14 Q1017,
SBMT,2024-12-11 23:00,64.40,57.20,77.45,140.00,10.00,0.00,30.06,,6.21,,SCT,BKN,,,3000.00,4900.00,,,,,,,,,,64.40,SBMT 112300Z 14010KT 9999 SCT030 BKN049 18/14 Q1018,
SBMT,2024-12-12 00:00,64.40,59.00,82.62,140.00,8.00,0.00,30.06,,6.21,,BKN,,,,2300.00,,,,,,,,,,,64.40,SBMT 120000Z 14008KT 9999 BKN023 18/15 Q1018,
SBMT,2024-12-12 01:00,64.40,59.00,82.62,130.00,11.00,0.00,30.06,,6.21,,BKN,,,,2000.00,,,,,,,,,,,64.40,SBMT 120100Z 13011KT 9999 BKN020 18/15 Q1018,
SBMT,2024-12-12 02:00,64.40,57.20,77.45,130.00,9.00,0.00,30.06,,6.21,,BKN,,,,2300.00,,,,,,,,,,,64.40,SBMT 120200Z 13009KT 9999 BKN023 18/14 Q1018,
SBMT,2024-12-12 09:00,62.60,57.20,82.50,90.00,5.00,0.00,30.03,,6.21,,,,,,,,,,,,,,,,,62.60,SBMT 120900Z 09005KT CAVOK 17/14 Q1017,
SBMT,2024-12-12 10:00,64.40,57.20,77.45,90.00,8.00,0.00,30.03,,6.21,,,,,,,,,,,,,,,,,64.40,SBMT 121000Z 09008KT 050V120 CAVOK 18/14 Q1017,
SBMT,2024-12-12 11:00,68.00,57.20,68.35,100.00,9.00,0.00,30.06,,6.21,,,,,,,,,,,,,,,,,68.00,SBMT 121100Z 10009KT 070V130 CAVOK 20/14 Q1018,
SBMT,2024-12-12 12:00,71.60,57.20,60.44,110.00,9.00,0.00,30.06,,6.21,,FEW,SCT,,,2300.00,7000.00,,,,,,,,,,71.60,SBMT 121200Z 11009KT 050V140 9999 FEW023 SCT070 22/14 Q1018,
SBMT,2024-12-12 13:00,73.40,57.20,56.88,130.00,11.00,0.00,30.06,,6.21,,FEW,BKN,,,3300.00,7000.00,,,,,,,,,,73.40,SBMT 121300Z 13011KT 9999 FEW033 BKN070 23/14 Q1018,
SBMT,2024-12-12 14:00,75.20,57.20,53.55,90.00,8.00,0.00,30.03,,6.21,,SCT,,,,4000.00,,,,,,,,,,,75.20,SBMT 121400Z 09008KT 060V120 9999 SCT040 24/14 Q1017,
SBMT,2024-12-12 15:00,77.00,57.20,50.43,110.00,7.00,0.00,30.03,,6.21,,,,,,,,,,,,,,,,,77.00,SBMT 121500Z 11007KT 050V180 CAVOK 25/14 Q1017,
SBMT,2024-12-12 16:00,77.00,57.20,50.43,130.00,8.00,0.00,30.00,,6.21,,,,,,,,,,,,,,,,,77.00,SBMT 121600Z 13008KT 090V180 CAVOK 25/14 Q1016,
SBMT,2024-12-12 17:00,77.00,60.80,57.36,150.00,7.00,0.00,30.00,,6.21,,BKN,,,,4000.00,,,,,,,,,,,77.00,SBMT 121700Z 15007KT 9999 BKN040 25/16 Q1016,
SBMT,2024-12-12 18:00,75.20,60.80,60.90,170.00,10.00,0.00,29.97,,6.21,,SCT,,,,3600.00,,,,,,,,,,,75.20,SBMT 121800Z 17010KT 110V210 9999 SCT036 24/16 Q1015,
SBMT,2024-12-12 19:00,75.20,60.80,60.90,160.00,9.00,0.00,29.97,,6.21,,FEW,,,,3600.00,,,,,,,,,,,75.20,SBMT 121900Z 16009KT 9999 FEW036 24/16 Q1015,
SBMT,2024-12-12 20:00,71.60,60.80,68.75,130.00,12.00,0.00,29.97,,6.21,,FEW,,,,3600.00,,,,,,,,,,,71.60,SBMT 122000Z 13012KT 9999 FEW036 22/16 Q1015,
SBMT,2024-12-12 21:00,69.80,60.80,73.09,140.00,9.00,0.00,29.97,,6.21,,SCT,,,,3600.00,,,,,,,,,,,69.80,SBMT 122100Z 14009KT 9999 SCT036 21/16 Q1015,
SBMT,2024-12-12 22:00,68.00,59.00,72.92,130.00,10.00,0.00,29.97,,6.21,,BKN,,,,2000.00,,,,,,,,,,,68.00,SBMT 122200Z 13010KT 9999 BKN020 20/15 Q1015,
SBMT,2024-12-12 23:00,66.20,59.00,77.60,140.00,8.00,0.00,29.97,,6.21,,BKN,,,,2000.00,,,,,,,,,,,66.20,SBMT 122300Z 14008KT 9999 BKN020 19/15 Q1015,
SBMT,2024-12-13 00:00,66.20,59.00,77.60,100.00,9.00,0.00,30.00,,6.21,,BKN,,,,2000.00,,,,,,,,,,,66.20,SBMT 130000Z 10009KT 9999 BKN020 19/15 Q1016,
SBMT,2024-12-13 01:00,64.40,59.00,82.62,100.00,10.00,0.00,30.03,,6.21,,FEW,,,,2000.00,,,,,,,,,,,64.40,SBMT 130100Z 10010KT 9999 FEW020 18/15 Q1017,
SBMT,2024-12-13 02:00,64.40,57.20,77.45,100.00,8.00,0.00,30.00,,6.21,,,,,,,,,,,,,,,,,64.40,SBMT 130200Z 10008KT CAVOK 18/14 Q1016,
SBMT,2024-12-13 09:00,64.40,60.80,88.09,90.00,6.00,0.00,29.97,,4.35,,FEW,BKN,,,1300.00,1500.00,,,,,,,,,,64.40,SBMT 130900Z 09006KT 7000 FEW013 BKN015 18/16 Q1015,
SBMT,2024-12-13 10:00,66.20,60.80,82.74,90.00,5.00,0.00,29.97,,4.97,,FEW,BKN,,,1300.00,1500.00,,,,,,,,,,66.20,SBMT 131000Z 09005KT 350V130 8000 FEW013 BKN015 19/16 Q1015,
SBMT,2024-12-13 11:00,68.00,60.80,77.75,70.00,6.00,0.00,30.00,,6.21,,BKN,,,,1700.00,,,,,,,,,,,68.00,SBMT 131100Z 07006KT 030V100 9999 BKN017 20/16 Q1016,
SBMT,2024-12-13 12:00,71.60,62.60,73.27,80.00,6.00,0.00,30.00,,6.21,,FEW,BKN,,,1700.00,1900.00,,,,,,,,,,71.60,SBMT 131200Z 08006KT 050V120 9999 FEW017 BKN019 22/17 Q1016,
SBMT,2024-12-13 13:00,73.40,64.40,73.44,60.00,6.00,0.00,30.00,,6.21,,BKN,,,,2300.00,,,,,,,,,,,73.40,SBMT 131300Z 06006KT 330V130 9999 BKN023 23/18 Q1016,
SBMT,2024-12-13 14:00,75.20,62.60,64.91,,3.00,0.00,29.97,,6.21,,BKN,,,,2300.00,,,,,,,,,,,75.20,SBMT 131400Z VRB03KT 9999 BKN023 24/17 Q1015,
SBMT,2024-12-13 15:00,77.00,64.40,65.12,80.00,4.00,0.00,29.97,,6.21,,BKN,,,,2500.00,,,,,,,,,,,77.00,SBMT 131500Z 08004KT 040V170 9999 BKN025 25/18 Q1015,
SBMT,2024-12-13 16:00,78.80,64.40,61.36,,4.00,0.00,29.94,,6.21,,BKN,,,,2500.00,,,,,,,,,,,78.80,SBMT 131600Z VRB04KT 9999 BKN025 26/18 Q1014,
SBMT,2024-12-13 17:00,78.80,64.40,61.36,160.00,7.00,0.00,29.91,,6.21,,BKN,,,,3300.00,,,,,,,,,,,78.80,SBMT 131700Z 16007KT 110V190 9999 BKN033 26/18 Q1013,
SBMT,2024-12-13 18:00,77.00,62.60,61.13,150.00,10.00,0.00,29.91,,6.21,,BKN,,,,4000.00,,,,,,,,,,,77.00,SBMT 131800Z 15010KT 120V180 9999 BKN040 25/17 Q1013,
SBMT,2024-12-13 19:00,75.20,64.40,69.14,140.00,9.00,0.00,29.88,,6.21,,FEW,,,,3000.00,,,,,,,,,,,75.20,SBMT 131900Z 14009KT 110V180 9999 FEW030 24/18 Q1012,
SBMT,2024-12-13 20:00,73.40,62.60,68.94,160.00,6.00,0.00,29.88,,6.21,,,,,,,,,,,,,,,,,73.40,SBMT 132000Z 16006KT 120V200 CAVOK 23/17 Q1012,
SBMT,2024-12-13 21:00,71.60,62.60,73.27,160.00,7.00,0.00,29.91,,4.35,,BKN,,,,2100.00,,,,,,,,,,,71.60,SBMT 132100Z 16007KT 130V190 7000 BKN021 22/17 Q1013,
SBMT,2024-12-13 22:00,69.80,60.80,73.09,170.00,7.00,0.00,29.91,,4.35,,BKN,,,,2100.00,,,,,,,,,,,69.80,SBMT 132200Z 17007KT 140V200 7000 BKN021 21/16 Q1013,
SBMT,2024-12-13 23:00,69.80,60.80,73.09,130.00,6.00,0.00,29.91,,3.73,,BKN,,,,1700.00,,,,,,,,,,,69.80,SBMT 132300Z 13006KT 100V170 6000 BKN017 21/16 Q1013,
SBMT,2024-12-14 00:00,69.80,60.80,73.09,140.00,4.00,0.00,29.94,,6.21,,SCT,,,,1700.00,,,,,,,,,,,69.80,SBMT 140000Z 14004KT 120V180 9999 SCT017 21/16 Q1014,
SBMT,2024-12-14 01:00,69.80,60.80,73.09,100.00,6.00,0.00,29.94,,6.21,,SCT,,,,1700.00,,,,,,,,,,,69.80,SBMT 140100Z 10006KT 9999 SCT017 21/16 Q1014,
SBMT,2024-12-14 02:00,68.00,60.80,77.75,90.00,6.00,0.00,29.94,,6.21,,BKN,,,,1500.00,,,,,,,,,,,68.00,SBMT 140200Z 09006KT 9999 BKN015 20/16 Q1014,
SBMT,2024-12-14 09:00,68.00,64.40,88.26,70.00,4.00,0.00,29.83,,6.21,,,,,,,,,,,,,,,,,68.00,SBMT 140900Z 07004KT 040V100 CAVOK 20/18 Q1010,
SBMT,2024-12-14 10:00,71.60,66.20,83.09,,3.00,0.00,29.85,,6.21,,,,,,,,,,,,,,,,,71.60,SBMT 141000Z VRB03KT CAVOK 22/19 Q1011,
SBMT,2024-12-14 11:00,73.40,66.20,78.19,340.00,5.00,0.00,29.85,,6.21,,,,,,,,,,,,,,,,,73.40,SBMT 141100Z 34005KT 270V060 CAVOK 23/19 Q1011,
SBMT,2024-12-14 12:00,77.00,66.20,69.33,330.00,6.00,0.00,29.88,,6.21,,,,,,,,,,,,,,,,,77.00,SBMT 141200Z 33006KT 270V020 CAVOK 25/19 Q1012,
SBMT,2024-12-14 13:00,75.20,64.40,69.14,280.00,13.00,0.00,29.88,,6.21,,BKN,,,,3000.00,,,,,,,,,,,75.20,SBMT 141300Z 28013KT 250V310 9999 BKN030 24/18 Q1012,
SBMT,2024-12-14 14:00,73.40,64.40,73.44,300.00,7.00,0.00,29.85,,6.21,,BKN,,,,3000.00,,,,,,,,,,,73.40,SBMT 141400Z 30007KT 250V340 9999 BKN030 23/18 Q1011,
SBMT,2024-12-14 15:00,71.60,64.40,78.04,320.00,9.00,0.00,29.85,,6.21,,BKN,,,,2000.00,,,,,,,,,,,71.60,SBMT 141500Z 32009KT 270V010 9999 BKN020 22/18 Q1011,
SBMT,2024-12-14 16:00,75.20,66.20,73.61,330.00,7.00,0.00,29.83,,6.21,,BKN,,,,2000.00,,,,,,,,,,,75.20,SBMT 141600Z 33007KT 290V040 9999 BKN020 24/19 Q1010,
SBMT,2024-12-14 17:00,77.00,64.40,65.12,290.00,12.00,0.00,29.83,,6.21,,BKN,,,,2000.00,,,,,,,,,,,77.00,SBMT 141700Z 29012KT 9999 BKN020 25/18 Q1010,
SBMT,2024-12-14 18:00,77.00,64.40,65.12,310.00,9.00,0.00,29.83,,6.21,,BKN,FEW,,,2000.00,2500.00,,,,,,,,,,77.00,SBMT 141800Z 31009KT 9999 BKN020 FEW025TCU 25/18 Q1010,
SBMT,2024-12-14 19:00,69.80,68.00,94.01,180.00,6.00,0.00,29.80,,6.21,,BKN,FEW,,,2000.00,2500.00,,,-RA,,,,,,,69.80,SBMT 141900Z 18006KT 9999 -RA BKN020 FEW025TCU 21/20 Q1009 RERA,
SBMT,2024-12-14 20:00,71.60,66.20,83.09,290.00,6.00,0.00,29.80,,6.21,,BKN,,,,2000.00,,,,,,,,,,,71.60,SBMT 142000Z 29006KT 9999 BKN020 22/19 Q1009,
SBMT,2024-12-14 21:00,71.60,66.20,83.09,300.00,6.00,0.00,29.83,,6.21,,BKN,,,,2000.00,,,,,,,,,,,71.60,SBMT 142100Z 30006KT 9999 BKN020 22/19 Q1010,
SBMT,2024-12-14 22:00,71.60,64.40,78.04,300.00,8.00,0.00,29.80,,6.21,,SCT,,,,2000.00,,,,,,,,,,,71.60,SBMT 142200Z 30008KT 9999 SCT020 22/18 Q1009,
SBMT,2024-12-14 23:00,69.80,64.40,82.98,290.00,4.00,0.00,29.83,,6.21,,SCT,BKN,,,2000.00,8000.00,,,,,,,,,,69.80,SBMT 142300Z 29004KT 9999 SCT020 BKN080 21/18 Q1010,
SBMT,2024-12-15 00:00,69.80,64.40,82.98,350.00,5.00,0.00,29.83,,4.97,,OVC,,,,2000.00,,,,-DZ,,,,,,,69.80,SBMT 150000Z 35005KT 8000 -DZ OVC020 21/18 Q1010,
SBMT,2024-12-15 01:00,69.80,64.40,82.98,320.00,6.00,0.00,29.83,,6.21,,FEW,BKN,,,2000.00,8000.00,,,-DZ,,,,,,,69.80,SBMT 150100Z 32006KT 9999 -DZ FEW020 BKN080 21/18 Q1010,
SBMT,2024-12-15 02:00,68.00,64.40,88.26,320.00,6.00,0.00,29.83,,6.21,,FEW,BKN,,,2000.00,8000.00,,,,,,,,,,68.00,SBMT 150200Z 32006KT 9999 FEW020 BKN080 20/18 Q1010,
SBMT,2024-12-15 09:00,69.80,64.40,82.98,310.00,6.00,0.00,29.80,,6.21,,FEW,BKN,,,2000.00,8000.00,,,,,,,,,,69.80,SBMT 150900Z 31006KT 260V030 9999 FEW020 BKN080 21/18 Q1009,
SBMT,2024-12-15 10:00,69.80,66.20,88.34,310.00,7.00,0.00,29.83,,6.21,,SCT,BKN,,,1300.00,4000.00,,,,,,,,,,69.80,SBMT 151000Z 31007KT 9999 SCT013 BKN040 21/19 Q1010,
SBMT,2024-12-15 11:00,69.80,66.20,88.34,300.00,6.00,0.00,29.83,,6.21,,SCT,BKN,,,1300.00,4000.00,,,,,,,,,,69.80,SBMT 151100Z 30006KT 260V360 9999 SCT013 BKN040 21/19 Q1010,
SBMT,2024-12-15 12:00,71.60,66.20,83.09,320.00,9.00,0.00,29.83,,6.21,,SCT,BKN,,,1500.00,2000.00,,,,,,,,,,71.60,SBMT 151200Z 32009KT 280V360 9999 SCT015 BKN020 22/19 Q1010,
SBMT,2024-12-15 13:00,71.60,68.00,88.43,300.00,9.00,0.00,29.85,,4.35,,SCT,BKN,,,1500.00,2000.00,,,-DZ,,,,,,,71.60,SBMT 151300Z 30009KT 260V350 7000 -DZ SCT015 BKN020 22/20 Q1011,
SBMT,2024-12-15 14:00,75.20,68.00,78.34,310.00,11.00,0.00,29.85,,5.59,,SCT,BKN,,,1700.00,2100.00,,,,,,,,,,75.20,SBMT 151400Z 31011KT 250V360 9000 SCT017 BKN021 24/20 Q1011,
SBMT,2024-12-15 15:00,78.80,66.20,65.33,310.00,10.00,0.00,29.83,,6.21,23.00,BKN,,,,2500.00,,,,,,,,,,,78.80,COR SBMT 151500Z 31010G23KT 270V350 9999 BKN025 26/19 Q1010,
SBMT,2024-12-15 16:00,78.80,66.20,65.33,320.00,8.00,0.00,29.80,,6.21,,BKN,,,,3000.00,,,,,,,,,,,78.80,SBMT 151600Z 32008KT 9999 BKN030 26/19 Q1009,
SBMT,2024-12-15 17:00,82.40,64.40,54.55,310.00,12.00,0.00,29.80,,6.21,,BKN,,,,3000.00,,,,,,,,,,,83.98,SBMT 151700Z 31012KT 9999 BKN030 28/18 Q1009,
SBMT,2024-12-15 18:00,84.20,62.60,48.32,290.00,14.00,0.00,29.77,,6.21,,SCT,,,,3000.00,,,,,,,,,,,85.03,SBMT 151800Z 29014KT 9999 SCT030 29/17 Q1008,
SBMT,2024-12-15 19:00,84.20,60.80,45.34,300.00,12.00,0.00,29.77,,6.21,,SCT,,,,3000.00,,,,,,,,,,,84.43,SBMT 151900Z 30012KT 9999 SCT030 29/16 Q1008,
SBMT,2024-12-15 20:00,82.40,60.80,48.05,280.00,4.00,0.00,29.77,,6.21,,FEW,,,,3000.00,,,,,,,,,,,82.90,SBMT 152000Z 28004KT 9999 FEW030 28/16 Q1008,
SBMT,2024-12-15 21:00,78.80,60.80,54.05,270.00,10.00,0.00,29.77,,6.21,,SCT,,,,3000.00,,,,,,,,,,,78.80,SBMT 152100Z 27010KT 9999 SCT030 26/16 Q1008,
SBMT,2024-12-15 22:00,78.80,62.60,57.60,290.00,6.00,0.00,29.80,,6.21,,SCT,,,,3000.00,,,,,,,,,,,78.80,SBMT 152200Z 29006KT 9999 SCT030 26/17 Q1009,
SBMT,2024-12-15 23:00,77.00,64.40,65.12,330.00,7.00,0.00,29.83,,6.21,,SCT,,,,3000.00,,,,,,,,,,,77.00,SBMT 152300Z 33007KT 9999 SCT030 25/18 Q1010,
SBMT,2024-12-16 00:00,73.40,66.20,78.19,350.00,6.00,0.00,29.85,,6.21,,,,,,,,,,,,,,,,,73.40,SBMT 160000Z 35006KT CAVOK 23/19 Q1011,
SBMT,2024-12-16 01:00,73.40,64.40,73.44,340.00,8.00,0.00,29.85,,6.21,,,,,,,,,,,,,,,,,73.40,SBMT 160100Z 34008KT CAVOK 23/18 Q1011,
SBMT,2024-12-16 02:00,73.40,66.20,78.19,350.00,6.00,0.00,29.88,,6.21,,,,,,,,,,,,,,,,,73.40,SBMT 160200Z 35006KT CAVOK 23/19 Q1012,
SBMT,2024-12-16 09:00,69.80,64.40,82.98,300.00,5.00,0.00,29.88,,6.21,,,,,,,,,,,,,,,,,69.80,SBMT 160900Z 30005KT CAVOK 21/18 Q1012,
SBMT,2024-12-16 10:00,73.40,62.60,68.94,290.00,9.00,0.00,29.91,,6.21,,,,,,,,,,,,,,,,,73.40,SBMT 161000Z 29009KT 260V320 CAVOK 23/17 Q1013,
SBMT,2024-12-16 11:00,75.20,60.80,60.90,300.00,11.00,0.00,29.91,,6.21,,,,,,,,,,,,,,,,,75.20,SBMT 161100Z 30011KT 250V340 CAVOK 24/16 Q1013,
SBMT,2024-12-16 12:00,75.20,59.00,57.12,310.00,10.00,0.00,29.94,,6.21,,,,,,,,,,,,,,,,,75.20,SBMT 161200Z 31010KT 270V360 CAVOK 24/15 Q1014,
SBMT,2024-12-16 13:00,75.20,60.80,60.90,290.00,11.00,0.00,29.94,,6.21,21.00,,,,,,,,,,,,,,,,75.20,SBMT 161300Z 29011G21KT 250V330 CAVOK 24/16 Q1014,
SBMT,2024-12-16 14:00,78.80,60.80,54.05,290.00,12.00,0.00,29.94,,6.21,,,,,,,,,,,,,,,,,78.80,SBMT 161400Z 29012KT 240V330 CAVOK 26/16 Q1014,
SBMT,2024-12-16 15:00,80.60,60.80,50.95,290.00,14.00,0.00,29.94,,6.21,,,,,,,,,,,,,,,,,81.46,SBMT 161500Z 29014KT 260V330 CAVOK 27/16 Q1014,
SBMT,2024-12-16 16:00,80.60,60.80,50.95,270.00,5.00,0.00,29.91,,6.21,,SCT,,,,4000.00,,,,,,,,,,,81.46,SBMT 161600Z 27005KT 240V310 9999 SCT040 27/16 Q1013,
SBMT,2024-12-16 17:00,82.40,60.80,48.05,280.00,16.00,0.00,29.91,,6.21,26.00,SCT,,,,4500.00,,,,,,,,,,,82.90,SBMT 161700Z 28016G26KT 9999 SCT045 28/16 Q1013,
SBMT,2024-12-16 18:00,82.40,55.40,39.58,270.00,18.00,0.00,29.88,,6.21,30.00,SCT,,,,4500.00,,,,,,,,,,,81.75,SBMT 161800Z 27018G30KT 9999 SCT045 28/13 Q1012,
SBMT,2024-12-16 19:00,82.40,55.40,39.58,260.00,14.00,0.00,29.85,,6.21,24.00,SCT,,,,4500.00,,,,,,,,,,,81.75,SBMT 161900Z 26014G24KT 9999 SCT045 28/13 Q1011,
SBMT,2024-12-16 20:00,80.60,55.40,41.97,270.00,11.00,0.00,29.85,,6.21,,FEW,,,,4500.00,,,,,,,,,,,80.53,SBMT 162000Z 27011KT 9999 FEW045 27/13 Q1011,
SBMT,2024-12-16 21:00,80.60,50.00,34.41,260.00,13.00,0.00,29.88,,6.21,,,,,,,,,,,,,,,,,79.88,SBMT 162100Z 26013KT CAVOK 27/10 Q1012,
SBMT,2024-12-16 22:00,78.80,48.20,34.13,280.00,8.00,0.00,29.91,,6.21,,,,,,,,,,,,,,,,,78.80,SBMT 162200Z 28008KT CAVOK 26/09 Q1013,
SBMT,2024-12-16 23:00,75.20,46.40,35.94,280.00,5.00,0.00,29.94,,6.21,,,,,,,,,,,,,,,,,75.20,SBMT 162300Z 28005KT CAVOK 24/08 Q1014,
SBMT,2024-12-17 00:00,71.60,55.40,56.63,120.00,6.00,0.00,29.97,,6.21,,,,,,,,,,,,,,,,,71.60,SBMT 170000Z 12006KT CAVOK 22/13 Q1015,
SBMT,2024-12-17 01:00,69.80,55.40,60.21,110.00,5.00,0.00,30.00,,6.21,,,,,,,,,,,,,,,,,69.80,SBMT 170100Z 11005KT CAVOK 21/13 Q1016,
SBMT,2024-12-17 02:00,69.80,55.40,60.21,110.00,5.00,0.00,30.00,,6.21,,,,,,,,,,,,,,,,,69.80,SBMT 170200Z 11005KT CAVOK 21/13 Q1016,
SBMT,2024-12-17 09:00,64.40,57.20,77.45,100.00,3.00,0.00,30.09,,6.21,,,,,,,,,,,,,,,,,64.40,SBMT 170900Z 10003KT CAVOK 18/14 Q1019,
SBMT,2024-12-17 10:00,68.00,60.80,77.75,140.00,4.00,0.00,30.03,,6.21,,,,,,,,,,,,,,,,,68.00,SBMT 171000Z 14004KT CAVOK 20/16 Q1017,
SBMT,2024-12-17 11:00,69.80,60.80,73.09,120.00,4.00,0.00,30.06,,6.21,,,,,,,,,,,,,,,,,69.80,SBMT 171100Z 12004KT CAVOK 21/16 Q1018,
SBMT,2024-12-17 12:00,71.60,59.00,64.48,120.00,4.00,0.00,30.06,,6.21,,FEW,,,,2500.00,,,,,,,,,,,71.60,SBMT 171200Z 12004KT 9999 FEW025 22/15 Q1018,
SBMT,2024-12-17 13:00,75.20,60.80,60.90,170.00,4.00,0.00,30.06,,6.21,,FEW,,,,3000.00,,,,,,,,,,,75.20,SBMT 171300Z 17004KT 9999 FEW030 24/16 Q1018,
SBMT,2024-12-17 14:00,78.80,57.20,47.52,250.00,3.00,0.00,30.06,,6.21,,SCT,,,,4500.00,,,,,,,,,,,78.80,SBMT 171400Z 25003KT 9999 SCT045 26/14 Q1018,
SBMT,2024-12-17 15:00,78.80,59.00,50.69,,4.00,0.00,30.06,,6.21,,BKN,,,,4900.00,,,,,,,,,,,78.80,SBMT 171500Z VRB04KT 9999 BKN049 26/15 Q1018,
SBMT,2024-12-17 16:00,78.80,60.80,54.05,130.00,7.00,0.00,30.03,,6.21,,FEW,SCT,,,5000.00,6000.00,,,,,,,,,,78.80,SBMT 171600Z 13007KT 9999 FEW050TCU SCT060 26/16 Q1017,
SBMT,2024-12-17 17:00,78.80,62.60,57.60,150.00,11.00,0.00,30.03,,6.21,,FEW,SCT,,,500.00,3600.00,,,,,,,,,,78.80,SBMT 171700Z 15011KT 9999 FEW005TCU SCT036 26/17 Q1017,
SBMT,2024-12-17 18:00,75.20,62.60,64.91,130.00,11.00,0.00,30.00,,6.21,,SCT,SCT,,,3000.00,5000.00,,,,,,,,,,75.20,SBMT 171800Z 13011KT 9999 SCT030 SCT050 24/17 Q1016,
SBMT,2024-12-17 19:00,71.60,62.60,73.27,140.00,11.00,0.00,30.03,,6.21,,BKN,,,,2300.00,,,,,,,,,,,71.60,SBMT 171900Z 14011KT 9999 BKN023 22/17 Q1017,
SBMT,2024-12-17 20:00,69.80,62.60,77.90,120.00,11.00,0.00,30.03,,6.21,,BKN,,,,2300.00,,,,,,,,,,,69.80,SBMT 172000Z 12011KT 9999 BKN023 21/17 Q1017,
SBMT,2024-12-17 21:00,68.00,60.80,77.75,140.00,7.00,0.00,30.03,,6.21,,BKN,,,,2000.00,,,,,,,,,,,68.00,SBMT 172100Z 14007KT 9999 BKN020 20/16 Q1017,
SBMT,2024-12-17 22:00,68.00,60.80,77.75,140.00,8.00,0.00,30.06,,6.21,,BKN,,,,2600.00,,,,,,,,,,,68.00,COR SBMT 172200Z 14008KT 9999 BKN026 20/16 Q1018,
SBMT,2024-12-17 23:00,68.00,59.00,72.92,100.00,9.00,0.00,30.06,,6.21,,BKN,,,,2600.00,,,,,,,,,,,68.00,SBMT 172300Z 10009KT 9999 BKN026 20/15 Q1018,
SBMT,2024-12-18 00:00,66.20,60.80,82.74,100.00,7.00,0.00,30.09,,6.21,,SCT,BKN,,,2300.00,3300.00,,,,,,,,,,66.20,SBMT 180000Z 10007KT 9999 SCT023 BKN033 19/16 Q1019,
SBMT,2024-12-18 01:00,66.20,59.00,77.60,80.00,9.00,0.00,30.12,,6.21,,SCT,BKN,,,2300.00,3300.00,,,,,,,,,,66.20,SBMT 180100Z 08009KT 9999 SCT023 BKN033 19/15 Q1020,
SBMT,2024-12-18 02:00,66.20,59.00,77.60,90.00,8.00,0.00,30.12,,6.21,,BKN,,,,3300.00,,,,,,,,,,,66.20,SBMT 180200Z 09008KT 9999 BKN033 19/15 Q1020,
SBMT,2024-12-18 09:00,62.60,57.20,82.50,80.00,7.00,0.00,30.06,,6.21,,,,,,,,,,,,,,,,,62.60,SBMT 180900Z 08007KT CAVOK 17/14 Q1018,
SBMT,2024-12-18 10:00,64.40,59.00,82.62,80.00,7.00,0.00,30.09,,6.21,,,,,,,,,,,,,,,,,64.40,SBMT 181000Z 08007KT CAVOK 18/15 Q1019,
SBMT,2024-12-18 11:00,68.00,59.00,72.92,80.00,8.00,0.00,30.09,,6.21,,FEW,,,,2000.00,,,,,,,,,,,68.00,SBMT 181100Z 08008KT 9999 FEW020 20/15 Q1019,
SBMT,2024-12-18 12:00,71.60,60.80,68.75,60.00,8.00,0.00,30.12,,6.21,,SCT,,,,2000.00,,,,,,,,,,,71.60,SBMT 181200Z 06008KT 9999 SCT020 22/16 Q1020,
SBMT,2024-12-18 13:00,71.60,60.80,68.75,90.00,8.00,0.00,30.09,,6.21,,SCT,,,,2000.00,,,,,,,,,,,71.60,SBMT 181300Z 09008KT 9999 SCT020 22/16 Q1019,
SBMT,2024-12-18 14:00,75.20,60.80,60.90,60.00,6.00,0.00,30.09,,6.21,,SCT,,,,2000.00,,,,,,,,,,,75.20,SBMT 181400Z 06006KT 9999 SCT020 24/16 Q1019,
SBMT,2024-12-18 15:00,77.00,62.60,61.13,60.00,6.00,0.00,30.06,,6.21,,BKN,,,,3000.00,,,,,,,,,,,77.00,SBMT 181500Z 06006KT 9999 BKN030 25/17 Q1018,
SBMT,2024-12-18 16:00,78.80,59.00,50.69,130.00,3.00,0.00,30.06,,6.21,,BKN,,,,4000.00,,,,,,,,,,,78.80,SBMT 181600Z 13003KT 9999 BKN040 26/15 Q1018,
SBMT,2024-12-18 17:00,78.80,60.80,54.05,130.00,8.00,0.00,30.03,,6.21,,SCT,,,,4000.00,,,,,,,,,,,78.80,SBMT 181700Z 13008KT 9999 SCT040 26/16 Q1017,
SBMT,2024-12-18 18:00,75.20,59.00,57.12,130.00,10.00,0.00,30.03,,6.21,,BKN,,,,3500.00,,,,,,,,,,,75.20,SBMT 181800Z 13010KT 9999 BKN035 24/15 Q1017,
SBMT,2024-12-18 19:00,75.20,59.00,57.12,140.00,11.00,0.00,30.03,,6.21,,SCT,,,,3500.00,,,,,,,,,,,75.20,SBMT 181900Z 14011KT 9999 SCT035 24/15 Q1017,
SBMT,2024-12-18 20:00,73.40,59.00,60.67,160.00,11.00,0.00,30.03,,6.21,,SCT,,,,3000.00,,,,,,,,,,,73.40,SBMT 182000Z 16011KT 9999 SCT030 23/15 Q1017,
SBMT,2024-12-18 21:00,71.60,59.00,64.48,140.00,8.00,0.00,30.06,,6.21,,BKN,,,,2500.00,,,,,,,,,,,71.60,SBMT 182100Z 14008KT 9999 BKN025 22/15 Q1018,
SBMT,2024-12-18 22:00,69.80,59.00,68.55,140.00,8.00,0.00,30.06,,6.21,,BKN,,,,2500.00,,,,,,,,,,,69.80,SBMT 182200Z 14008KT 9999 BKN025 21/15 Q1018,
SBMT,2024-12-18 23:00,69.80,59.00,68.55,120.00,8.00,0.00,30.06,,6.21,,BKN,,,,2500.00,,,,,,,,,,,69.80,SBMT 182300Z 12008KT 9999 BKN025 21/15 Q1018,
SBMT,2024-12-19 00:00,69.80,57.20,64.26,110.00,8.00,0.00,30.09,,6.21,,BKN,,,,2500.00,,,,,,,,,,,69.80,SBMT 190000Z 11008KT 9999 BKN025 21/14 Q1019,
SBMT,2024-12-19 01:00,68.00,59.00,72.92,90.00,7.00,0.00,30.09,,6.21,,BKN,,,,2500.00,,,,,,,,,,,68.00,SBMT 190100Z 09007KT 9999 BKN025 20/15 Q1019,
SBMT,2024-12-19 02:00,66.20,59.00,77.60,80.00,7.00,0.00,30.09,,6.21,,BKN,,,,2000.00,,,,,,,,,,,66.20,SBMT 190200Z 08007KT 9999 BKN020 19/15 Q1019,
SBMT,2024-12-19 09:00,66.20,60.80,82.74,70.00,7.00,0.00,30.03,,6.21,,BKN,,,,1300.00,,,,,,,,,,,66.20,SBMT 190900Z 07007KT 010V110 9999 BKN013 19/16 Q1017,
SBMT,2024-12-19 10:00,68.00,62.60,82.86,90.00,7.00,0.00,30.06,,6.21,,BKN,,,,1300.00,,,,,,,,,,,68.00,SBMT 191000Z 09007KT 9999 BKN013 20/17 Q1018,
SBMT,2024-12-19 11:00,69.80,62.60,77.90,50.00,5.00,0.00,30.06,,6.21,,FEW,,,,1500.00,,,,,,,,,,,69.80,SBMT 191100Z 05005KT 9999 FEW015 21/17 Q1018,
SBMT,2024-12-19 12:00,75.20,62.60,64.91,70.00,4.00,0.00,30.06,,6.21,,,,,,,,,,,,,,,,,75.20,SBMT 191200Z 07004KT 350V120 CAVOK 24/17 Q1018,
SBMT,2024-12-19 13:00,78.80,66.20,65.33,,3.00,0.00,30.06,,6.21,,,,,,,,,,,,,,,,,78.80,SBMT 191300Z VRB03KT CAVOK 26/19 Q1018,
SBMT,2024-12-19 14:00,82.40,59.00,45.07,180.00,12.00,0.00,30.03,,6.21,,,,,,,,,,,,,,,,,82.46,SBMT 191400Z 18012KT CAVOK 28/15 Q1017,
SBMT,2024-12-19 15:00,82.40,62.60,51.21,180.00,3.00,0.00,30.03,,6.21,,SCT,,,,4000.00,,,,,,,,,,,83.41,SBMT 191500Z 18003KT 9999 SCT040 28/17 Q1017,
SBMT,2024-12-19 16:00,84.20,60.80,45.34,320.00,6.00,0.00,30.00,,6.21,,BKN,,,,4000.00,,,,,,,,,,,84.43,SBMT 191600Z 32006KT 230V030 9999 BKN040 29/16 Q1016,
SBMT,2024-12-19 17:00,86.00,57.20,37.62,250.00,9.00,0.00,29.97,,6.21,19.00,,,,,,,,,,,,,,,,84.97,SBMT 191700Z 25009G19KT 180V310 CAVOK 30/14 Q1015,
SBMT,2024-12-19 18:00,87.80,57.20,35.53,260.00,10.00,0.00,29.94,,6.21,20.00,,,,,,,,,,,,,,,,86.58,SBMT 191800Z 26010G20KT 200V300 CAVOK 31/14 Q1014,
SBMT,2024-12-19 19:00,84.20,64.40,51.47,180.00,7.00,0.00,29.94,,6.21,,,,,,,,,,,,,,,,,85.71,SBMT 191900Z 18007KT 130V230 CAVOK 29/18 Q1014,
SBMT,2024-12-19 20:00,80.60,62.60,54.30,140.00,9.00,0.00,29.94,,6.21,,,,,,,,,,,,,,,,,81.84,SBMT 192000Z 14009KT 100V180 CAVOK 27/17 Q1014,
SBMT,2024-12-19 21:00,77.00,62.60,61.13,130.00,6.00,0.00,29.94,,6.21,,,,,,,,,,,,,,,,,77.00,SBMT 192100Z 13006KT 090V160 CAVOK 25/17 Q1014,
SBMT,2024-12-19 22:00,75.20,60.80,60.90,110.00,4.00,0.00,29.97,,6.21,,,,,,,,,,,,,,,,,75.20,SBMT 192200Z 11004KT 070V140 CAVOK 24/16 Q1015,
SBMT,2024-12-19 23:00,75.20,62.60,64.91,130.00,4.00,0.00,29.97,,6.21,,,,,,,,,,,,,,,,,75.20,SBMT 192300Z 13004KT 100V160 CAVOK 24/17 Q1015,
SBMT,2024-12-20 00:00,73.40,62.60,68.94,110.00,4.00,0.00,29.97,,6.21,,,,,,,,,,,,,,,,,73.40,SBMT 200000Z 11004KT 060V140 CAVOK 23/17 Q1015,
SBMT,2024-12-20 01:00,73.40,59.00,60.67,70.00,6.00,0.00,30.00,,6.21,,,,,,,,,,,,,,,,,73.40,SBMT 200100Z 07006KT CAVOK 23/15 Q1016,
SBMT,2024-12-20 02:00,73.40,60.80,64.69,80.00,5.00,0.00,30.00,,6.21,,,,,,,,,,,,,,,,,73.40,SBMT 200200Z 08005KT CAVOK 23/16 Q1016,
SBMT,2024-12-20 09:00,69.80,66.20,88.34,80.00,5.00,0.00,29.91,,4.97,,NSC,,,,,,,,,,,,,,,69.80,SBMT 200900Z 08005KT 8000 NSC 21/19 Q1013,
SBMT,2024-12-20 10:00,71.60,66.20,83.09,70.00,4.00,0.00,29.91,,4.97,,NSC,,,,,,,,,,,,,,,71.60,SBMT 201000Z 07004KT 8000 NSC 22/19 Q1013,
SBMT,2024-12-20 11:00,77.00,66.20,69.33,0.00,0.00,0.00,29.91,,6.21,,,,,,,,,,,,,,,,,77.00,SBMT 201100Z 00000KT CAVOK 25/19 Q1013,
SBMT,2024-12-20 12:00,78.80,66.20,65.33,310.00,9.00,0.00,29.91,,6.21,,,,,,,,,,,,,,,,,78.80,SBMT 201200Z 31009KT CAVOK 26/19 Q1013,
SBMT,2024-12-20 13:00,82.40,68.00,61.81,310.00,7.00,0.00,29.91,,6.21,,,,,,,,,,,,,,,,,85.38,SBMT 201300Z 31007KT CAVOK 28/20 Q1013,
SBMT,2024-12-20 14:00,84.20,66.20,54.80,310.00,12.00,0.00,29.91,,6.21,,,,,,,,,,,,,,,,,86.50,SBMT 201400Z 31012KT CAVOK 29/19 Q1013,
SBMT,2024-12-20 15:00,86.00,66.20,51.72,290.00,13.00,0.00,29.88,,6.21,24.00,,,,,,,,,,,,,,,,88.39,SBMT 201500Z 29013G24KT CAVOK 30/19 Q1012,
SBMT,2024-12-20 16:00,86.00,66.20,51.72,270.00,13.00,0.00,29.85,,6.21,,SCT,BKN,FEW,,4500.00,4900.00,5000.00,,,,,,,,,88.39,SBMT 201600Z 27013KT 9999 SCT045 BKN049 FEW050TCU 30/19 Q1011,
SBMT,2024-12-20 17:00,75.20,66.20,73.61,,2.00,0.00,29.88,,6.21,,SCT,SCT,,,2000.00,4000.00,,,,,,,,,,75.20,SBMT 201700Z VRB02KT 9999 SCT020 SCT040 24/19 Q1012 RETS,
SBMT,2024-12-20 18:00,77.00,64.40,65.12,320.00,7.00,0.00,29.83,,6.21,,BKN,BKN,,,2600.00,7000.00,,,,,,,,,,77.00,SBMT 201800Z 32007KT 290V360 9999 BKN026 BKN070 25/18 Q1010,
SBMT,2024-12-20 19:00,80.60,66.20,61.58,,2.00,0.00,29.83,,6.21,,SCT,BKN,,,3300.00,8300.00,,,,,,,,,,82.75,SBMT 201900Z VRB02KT 9999 SCT033 BKN083 27/19 Q1010,
SBMT,2024-12-20 20:00,68.00,62.60,82.86,280.00,19.00,0.00,29.94,,0.62,36.00,SCT,BKN,FEW,OVC,1100.00,2300.00,4000.00,8300.00,+TSRA,,,,,,,68.00,SBMT 202000Z 28019G36KT 1000 +TSRA SCT011 BKN023 FEW040CB OVC083 20/17 Q1014,
SBMT,2024-12-20 21:00,68.00,64.40,88.26,290.00,4.00,0.00,29.94,,3.11,,FEW,SCT,BKN,,1000.00,2000.00,7000.00,,-RA,,,,,,,68.00,SBMT 202100Z 29004KT 190V320 5000 -RA FEW010 SCT020 BKN070 20/18 Q1014 RETS,
SBMT,2024-12-20 22:00,69.80,64.40,82.98,,2.00,0.00,29.94,,4.97,,NSC,,,,,,,,-RA,,,,,,,69.80,SBMT 202200Z VRB02KT 8000 -RA NSC 21/18 Q1014,
SBMT,2024-12-20 23:00,69.80,64.40,82.98,10.00,4.00,0.00,29.94,,6.21,,FEW,BKN,,,900.00,8300.00,,,-RA,,,,,,,69.80,SBMT 202300Z 01004KT 310V050 9999 -RA FEW009 BKN083 21/18 Q1014,
SBMT,2024-12-21 00:00,69.80,64.40,82.98,,1.00,0.00,29.94,,6.21,,FEW,BKN,,,1100.00,8300.00,,,,,,,,,,69.80,SBMT 210000Z VRB01KT 9999 FEW011 BKN083 21/18 Q1014,
SBMT,2024-12-21 01:00,69.80,62.60,77.90,,4.00,0.00,29.97,,6.21,,,,,,,,,,,,,,,,,69.80,SBMT 210100Z VRB04KT CAVOK 21/17 Q1015,
SBMT,2024-12-21 02:00,68.00,64.40,88.26,0.00,0.00,0.00,29.94,,6.21,,,,,,,,,,,,,,,,,68.00,SBMT 210200Z 00000KT CAVOK 20/18 Q1014,
SBMT,2024-12-21 09:00,69.80,64.40,82.98,290.00,5.00,0.00,29.94,,6.21,,SCT,BKN,,,3000.00,6500.00,,,,,,,,,,69.80,SBMT 210900Z 29005KT 9999 SCT030 BKN065 21/18 Q1014,
SBMT,2024-12-21 10:00,71.60,66.20,83.09,310.00,3.00,0.00,29.97,,6.21,,BKN,,,,4900.00,,,,,,,,,,,71.60,SBMT 211000Z 31003KT 9999 BKN049 22/19 Q1015,
SBMT,2024-12-21 11:00,73.40,66.20,78.19,350.00,4.00,0.00,29.97,,6.21,,SCT,,,,3000.00,,,,,,,,,,,73.40,SBMT 211100Z 35004KT 9999 SCT030 23/19 Q1015,
SBMT,2024-12-21 12:00,77.00,68.00,73.78,350.00,5.00,0.00,30.00,,6.21,,BKN,,,,3000.00,,,,,,,,,,,77.00,SBMT 211200Z 35005KT 9999 BKN030 25/20 Q1016,
SBMT,2024-12-21 13:00,77.00,68.00,73.78,280.00,7.00,0.00,30.00,,6.21,,BKN,,,,3300.00,,,,,,,,,,,77.00,SBMT 211300Z 28007KT 9999 BKN033 25/20 Q1016,
SBMT,2024-12-21 14:00,78.80,68.00,69.52,280.00,5.00,0.00,29.97,,6.21,,BKN,,,,3000.00,,,,,,,,,,,78.80,SBMT 211400Z 28005KT 9999 BKN030 26/20 Q1015,
SBMT,2024-12-21 15:00,82.40,68.00,61.81,140.00,4.00,0.00,29.94,,6.21,,BKN,,,,4000.00,,,,,,,,,,,85.38,SBMT 211500Z 14004KT 9999 BKN040 28/20 Q1014,
SBMT,2024-12-21 16:00,80.60,68.00,65.54,310.00,7.00,0.00,29.91,,6.21,,BKN,,,,4000.00,,,,,,,,,,,83.29,SBMT 211600Z 31007KT 9999 BKN040 27/20 Q1013,
SBMT,2024-12-21 17:00,78.80,66.20,65.33,290.00,7.00,0.00,29.91,,6.21,,SCT,FEW,,,3500.00,4000.00,,,SHRA VCTS,,,,,,,78.80,SBMT 211700Z 29007KT 240V340 9999 4000W SHRA VCTS SCT035 FEW040CB 26/19 Q1013,
SBMT,2024-12-21 18:00,69.80,68.00,94.01,60.00,8.00,0.00,29.91,,1.55,,SCT,BKN,,,900.00,3000.00,,,-RA BR,,,,,,,69.80,SBMT 211800Z 06008KT 2500 -RA BR SCT009 BKN030 21/20 Q1013 RETSRA,
SBMT,2024-12-21 19:00,66.20,66.20,100.00,80.00,8.00,0.00,29.94,,1.55,,SCT,BKN,,,900.00,3500.00,,,RA BR,,,,,,,66.20,SBMT 211900Z 08008KT 2500 RA BR SCT009 BKN035 19/19 Q1014 RETSRA,
SBMT,2024-12-21 20:00,68.00,68.00,100.00,360.00,3.00,0.00,29.94,,6.21,,FEW,BKN,,,4600.00,8000.00,,,-RA,,,,,,,68.00,SBMT 212000Z 36003KT 9999 -RA FEW046 BKN080 20/20 Q1014 RERA,
SBMT,2024-12-21 21:00,69.80,68.00,94.01,0.00,0.00,0.00,29.97,,1.55,,SCT,OVC,,,1700.00,5000.00,,,-RA BR,,,,,,,69.80,SBMT 212100Z 00000KT 2500 -RA BR SCT017 OVC050 21/20 Q1015,
SBMT,2024-12-21 22:00,69.80,68.00,94.01,30.00,4.00,0.00,29.97,,3.11,,BKN,BKN,,,800.00,2300.00,,,-RA,,,,,,,69.80,COR SBMT 212200Z 03004KT 5000 -RA BKN008 BKN023 21/20 Q1015,
SBMT,2024-12-21 23:00,69.80,68.00,94.01,360.00,3.00,0.00,30.00,,3.73,,FEW,SCT,BKN,,1000.00,2400.00,7000.00,,-RA,,,,,,,69.80,SBMT 212300Z 36003KT 6000 -RA FEW010 SCT024 BKN070 21/20 Q1016,
SBMT,2024-12-22 00:00,69.80,68.00,94.01,90.00,3.00,0.00,30.00,,6.21,,FEW,SCT,BKN,,1000.00,2300.00,4000.00,,,,,,,,,69.80,SBMT 220000Z 09003KT 9999 FEW010 SCT023 BKN040 21/20 Q1016,
SBMT,2024-12-22 01:00,69.80,68.00,94.01,60.00,3.00,0.00,30.03,,6.21,,BKN,,,,2000.00,,,,,,,,,,,69.80,SBMT 220100Z 06003KT 9999 BKN020 21/20 Q1017,
SBMT,2024-12-22 02:00,69.80,68.00,94.01,80.00,2.00,0.00,30.03,,6.21,,BKN,,,,2200.00,,,,,,,,,,,69.80,SBMT 220200Z 08002KT 9999 BKN022 21/20 Q1017,
SBMT,2024-12-22 09:00,68.00,68.00,100.00,70.00,1.00,0.00,29.97,,1.86,,SCT,,,,2100.00,,,,BR,,,,,,,68.00,SBMT 220900Z 07001KT 3000 BR SCT021 20/20 Q1015,
SBMT,2024-12-22 10:00,69.80,68.00,94.01,40.00,3.00,0.00,30.00,,1.24,,BKN,BKN,,,900.00,2000.00,,,BR,,,,,,,69.80,SBMT 221000Z 04003KT 2000 BR BKN009 BKN020 21/20 Q1016,
SBMT,2024-12-22 11:00,71.60,68.00,88.43,10.00,4.00,0.00,30.00,,2.49,,SCT,BKN,,,900.00,1100.00,,,BR,,,,,,,71.60,SBMT 221100Z 01004KT 4000 BR SCT009 BKN011 22/20 Q1016,
SBMT,2024-12-22 12:00,75.20,66.20,73.61,60.00,2.00,0.00,30.00,,4.35,,BKN,,,,2300.00,,,,,,,,,,,75.20,SBMT 221200Z 06002KT 7000 BKN023 24/19 Q1016,
SBMT,2024-12-22 13:00,77.00,66.20,69.33,210.00,2.00,0.00,30.00,,6.21,,BKN,,,,2600.00,,,,,,,,,,,77.00,SBMT 221300Z 21002KT 9999 BKN026 25/19 Q1016,
SBMT,2024-12-22 14:00,77.00,66.20,69.33,280.00,4.00,0.00,30.00,,6.21,,BKN,,,,2600.00,,,,,,,,,,,77.00,SBMT 221400Z 28004KT 9999 BKN026 25/19 Q1016,
SBMT,2024-12-22 15:00,78.80,66.20,65.33,290.00,6.00,0.00,30.00,,6.21,,BKN,,,,2600.00,,,,,,,,,,,78.80,SBMT 221500Z 29006KT 9999 BKN026 26/19 Q1016,
SBMT,2024-12-22 16:00,78.80,68.00,69.52,230.00,7.00,0.00,30.00,,6.21,,BKN,FEW,BKN,,3000.00,4000.00,6500.00,,,,,,,,,78.80,SBMT 221600Z 23007KT 9999 BKN030 FEW040TCU BKN065 26/20 Q1016,
SBMT,2024-12-22 17:00,80.60,64.40,57.84,200.00,8.00,0.00,29.97,,6.21,,BKN,FEW,BKN,,3300.00,4000.00,7000.00,,,,,,,,,82.27,SBMT 221700Z 20008KT 9999 BKN033 FEW040TCU BKN070 27/18 Q1015,
SBMT,2024-12-22 18:00,80.60,64.40,57.84,220.00,8.00,0.00,29.94,,6.21,,SCT,BKN,,,3300.00,8300.00,,,,,,,,,,82.27,SBMT 221800Z 22008KT 9999 SCT033 BKN083 27/18 Q1014,
SBMT,2024-12-22 19:00,80.60,64.40,57.84,220.00,8.00,0.00,29.94,,6.21,,SCT,BKN,,,3300.00,8300.00,,,,,,,,,,82.27,SBMT 221900Z 22008KT 180V270 9999 SCT033 BKN083 27/18 Q1014,
SBMT,2024-12-22 20:00,80.60,62.60,54.30,180.00,7.00,0.00,29.91,,6.21,,SCT,BKN,,,3300.00,8300.00,,,,,,,,,,81.84,SBMT 222000Z 18007KT 140V230 9999 SCT033 BKN083 27/17 Q1013,
SBMT,2024-12-22 21:00,75.20,66.20,73.61,120.00,7.00,0.00,29.94,,6.21,,SCT,FEW,BKN,,1500.00,4000.00,7000.00,,,,,,,,,75.20,SBMT 222100Z 12007KT 070V190 9999 SCT015 FEW040TCU BKN070 24/19 Q1014,
SBMT,2024-12-22 22:00,73.40,64.40,73.44,130.00,8.00,0.00,29.97,,6.21,,FEW,OVC,,,1300.00,1500.00,,,,,,,,,,73.40,SBMT 222200Z 13008KT 090V170 9999 FEW013 OVC015 23/18 Q1015,
SBMT,2024-12-22 23:00,71.60,64.40,78.04,110.00,7.00,0.00,30.00,,6.21,,FEW,OVC,,,1300.00,1500.00,,,,,,,,,,71.60,SBMT 222300Z 11007KT 060V150 9999 FEW013 OVC015 22/18 Q1016,
SBMT,2024-12-23 00:00,71.60,64.40,78.04,110.00,5.00,0.00,30.00,,6.21,,BKN,,,,1500.00,,,,,,,,,,,71.60,SBMT 230000Z 11005KT 070V140 9999 BKN015 22/18 Q1016,
SBMT,2024-12-23 01:00,71.60,64.40,78.04,110.00,4.00,0.00,30.03,,6.21,,BKN,,,,1700.00,,,,,,,,,,,71.60,SBMT 230100Z 11004KT 070V140 9999 BKN017 22/18 Q1017,
SBMT,2024-12-23 02:00,71.60,64.40,78.04,100.00,4.00,0.00,30.03,,6.21,,BKN,,,,1700.00,,,,,,,,,,,71.60,SBMT 230200Z 10004KT 070V150 9999 BKN017 22/18 Q1017,
SBMT,2024-12-23 09:00,68.00,66.20,93.97,0.00,0.00,0.00,30.00,,6.21,,BKN,,,,900.00,,,,-DZ,,,,,,,68.00,SBMT 230900Z 00000KT 9999 -DZ BKN009 20/19 Q1016,
SBMT,2024-12-23 10:00,69.80,68.00,94.01,140.00,4.00,0.00,30.03,,6.21,,BKN,BKN,,,1100.00,2300.00,,,,,,,,,,69.80,SBMT 231000Z 14004KT 9999 BKN011 BKN023 21/20 Q1017,
SBMT,2024-12-23 11:00,71.60,66.20,83.09,140.00,6.00,0.00,30.03,,6.21,,BKN,BKN,BKN,,1100.00,2000.00,3300.00,,,,,,,,,71.60,SBMT 231100Z 14006KT 9999 BKN011 BKN020 BKN033 22/19 Q1017,
SBMT,2024-12-23 12:00,69.80,66.20,88.34,140.00,5.00,0.00,30.03,,1.24,,BKN,BKN,,,1300.00,2000.00,,,-RA BR,,,,,,,69.80,SBMT 231200Z 14005KT 2000 -RA BR BKN013 BKN020 21/19 Q1017,
SBMT,2024-12-23 13:00,71.60,68.00,88.43,160.00,4.00,0.00,30.03,,3.73,,BKN,BKN,,,1300.00,2600.00,,,,,,,,,,71.60,SBMT 231300Z 16004KT 6000 BKN013 BKN026 22/20 Q1017,
SBMT,2024-12-23 14:00,75.20,68.00,78.34,100.00,4.00,0.00,30.03,,6.21,,BKN,,,,2100.00,,,,,,,,,,,75.20,SBMT 231400Z 10004KT 9999 BKN021 24/20 Q1017,
SBMT,2024-12-23 15:00,73.40,66.20,78.19,130.00,4.00,0.00,30.03,,6.21,,BKN,BKN,,,2300.00,4000.00,,,,,,,,,,73.40,SBMT 231500Z 13004KT 9999 BKN023 BKN040 23/19 Q1017,
SBMT,2024-12-23 16:00,73.40,66.20,78.19,150.00,6.00,0.00,30.00,,6.21,,BKN,,,,4000.00,,,,,,,,,,,73.40,SBMT 231600Z 15006KT 9999 BKN040 23/19 Q1016,
SBMT,2024-12-23 17:00,69.80,68.00,94.01,160.00,4.00,0.00,30.00,,0.93,,SCT,BKN,,,1300.00,3000.00,,,-RA BR,,,,,,,69.80,SBMT 231700Z 16004KT 1500 -RA BR SCT013 BKN030 21/20 Q1016 RERA,
SBMT,2024-12-23 18:00,71.60,66.20,83.09,130.00,6.00,0.00,30.00,,6.21,,SCT,OVC,,,1600.00,3600.00,,,,,,,,,,71.60,SBMT 231800Z 13006KT 9999 SCT016 OVC036 22/19 Q1016,
SBMT,2024-12-23 19:00,71.60,68.00,88.43,110.00,5.00,0.00,29.97,,6.21,,SCT,BKN,BKN,,1700.00,2500.00,4000.00,,,,,,,,,71.60,SBMT 231900Z 11005KT 9999 SCT017 BKN025 BKN040 22/20 Q1015,
SBMT,2024-12-23 20:00,69.80,66.20,88.34,110.00,10.00,0.00,30.00,,5.59,,BKN,OVC,,,1500.00,2000.00,,,-RA,,,,,,,69.80,SBMT 232000Z 11010KT 9000 -RA BKN015 OVC020 21/19 Q1016,
SBMT,2024-12-23 21:00,69.80,64.40,82.98,100.00,10.00,0.00,30.00,,6.21,,BKN,BKN,,,1500.00,2000.00,,,,,,,,,,69.80,SBMT 232100Z 10010KT 9999 BKN015 BKN020 21/18 Q1016,
SBMT,2024-12-23 22:00,68.00,64.40,88.26,100.00,8.00,0.00,30.00,,6.21,,BKN,OVC,,,1400.00,3600.00,,,,,,,,,,68.00,SBMT 232200Z 10008KT 9999 BKN014 OVC036 20/18 Q1016,
SBMT,2024-12-23 23:00,68.00,64.40,88.26,110.00,7.00,0.00,30.03,,6.21,,BKN,OVC,,,1400.00,2000.00,,,,,,,,,,68.00,SBMT 232300Z 11007KT 9999 BKN014 OVC020 20/18 Q1017,
SBMT,2024-12-24 00:00,66.20,62.60,88.18,90.00,10.00,0.00,30.03,,6.21,,BKN,OVC,,,1400.00,1700.00,,,,,,,,,,66.20,SBMT 240000Z 09010KT 9999 BKN014 OVC017 19/17 Q1017,
SBMT,2024-12-24 01:00,66.20,62.60,88.18,90.00,10.00,0.00,30.06,,6.21,,BKN,BKN,,,1400.00,2200.00,,,,,,,,,,66.20,SBMT 240100Z 09010KT 9999 BKN014 BKN022 19/17 Q1018,
SBMT,2024-12-24 02:00,66.20,62.60,88.18,70.00,9.00,0.00,30.06,,6.21,,OVC,,,,1400.00,,,,,,,,,,,66.20,SBMT 240200Z 07009KT 9999 OVC014 19/17 Q1018,
SBMT,2024-12-24 09:00,64.40,57.20,77.45,60.00,7.00,0.00,30.03,,6.21,,SCT,,,,4300.00,,,,,,,,,,,64.40,SBMT 240900Z 06007KT 9999 SCT043 18/14 Q1017,
SBMT,2024-12-24 10:00,68.00,59.00,72.92,60.00,8.00,0.00,30.06,,6.21,,SCT,,,,4300.00,,,,,,,,,,,68.00,SBMT 241000Z 06008KT 9999 SCT043 20/15 Q1018,
SBMT,2024-12-24 11:00,69.80,57.20,64.26,50.00,9.00,0.00,30.06,,6.21,,,,,,,,,,,,,,,,,69.80,SBMT 241100Z 05009KT 020V080 CAVOK 21/14 Q1018,
SBMT,2024-12-24 12:00,71.60,59.00,64.48,70.00,9.00,0.00,30.06,,6.21,,,,,,,,,,,,,,,,,71.60,SBMT 241200Z 07009KT 020V120 CAVOK 22/15 Q1018,
SBMT,2024-12-24 13:00,73.40,59.00,60.67,60.00,11.00,0.00,30.06,,6.21,,SCT,,,,3300.00,,,,,,,,,,,73.40,SBMT 241300Z 06011KT 020V100 9999 SCT033 23/15 Q1018,
SBMT,2024-12-24 14:00,77.00,60.80,57.36,60.00,9.00,0.00,30.06,,6.21,,BKN,,,,3600.00,,,,,,,,,,,77.00,SBMT 241400Z 06009KT 020V120 9999 BKN036 25/16 Q1018,
SBMT,2024-12-24 15:00,75.20,60.80,60.90,120.00,7.00,0.00,30.03,,6.21,,BKN,,,,3600.00,,,,,,,,,,,75.20,SBMT 241500Z 12007KT 9999 BKN036 24/16 Q1017,
SBMT,2024-12-24 16:00,77.00,64.40,65.12,70.00,9.00,0.00,30.03,,6.21,,BKN,,,,3600.00,,,,,,,,,,,77.00,SBMT 241600Z 07009KT 030V100 9999 BKN036 25/18 Q1017,
SBMT,2024-12-24 17:00,77.00,64.40,65.12,110.00,5.00,0.00,30.00,,6.21,,BKN,,,,3300.00,,,,,,,,,,,77.00,SBMT 241700Z 11005KT 9999 BKN033 25/18 Q1016,
SBMT,2024-12-24 18:00,78.80,64.40,61.36,60.00,8.00,0.00,29.97,,6.21,,BKN,,,,3500.00,,,,,,,,,,,78.80,SBMT 241800Z 06008KT 9999 BKN035 26/18 Q1015,
SBMT,2024-12-24 19:00,77.00,66.20,69.33,120.00,12.00,0.00,29.94,,6.21,,SCT,,,,3000.00,,,,,,,,,,,77.00,SBMT 241900Z 12012KT 9999 SCT030 25/19 Q1014,
SBMT,2024-12-24 20:00,73.40,64.40,73.44,130.00,10.00,0.00,29.94,,6.21,,BKN,,,,1700.00,,,,,,,,,,,73.40,SBMT 242000Z 13010KT 9999 BKN017 23/18 Q1014,
SBMT,2024-12-24 21:00,69.80,64.40,82.98,110.00,10.00,0.00,29.94,,6.21,,OVC,,,,1300.00,,,,,,,,,,,69.80,SBMT 242100Z 11010KT 9999 OVC013 21/18 Q1014,
SBMT,2024-12-24 22:00,69.80,64.40,82.98,120.00,8.00,0.00,29.97,,6.21,,OVC,,,,1400.00,,,,,,,,,,,69.80,SBMT 242200Z 12008KT 9999 OVC014 21/18 Q1015,
SBMT,2024-12-24 23:00,69.80,64.40,82.98,70.00,8.00,0.00,30.00,,6.21,,OVC,,,,1400.00,,,,,,,,,,,69.80,SBMT 242300Z 07008KT 9999 OVC014 21/18 Q1016,
SBMT,2024-12-25 00:00,69.80,64.40,82.98,70.00,8.00,0.00,30.00,,6.21,,OVC,,,,1500.00,,,,,,,,,,,69.80,SBMT 250000Z 07008KT 9999 OVC015 21/18 Q1016,
SBMT,2024-12-25 01:00,69.80,64.40,82.98,70.00,9.00,0.00,30.03,,6.21,,BKN,BKN,,,1500.00,2500.00,,,,,,,,,,69.80,SBMT 250100Z 07009KT 9999 BKN015 BKN025 21/18 Q1017,
SBMT,2024-12-25 02:00,68.00,64.40,88.26,70.00,8.00,0.00,30.03,,6.21,,OVC,,,,1500.00,,,,,,,,,,,68.00,SBMT 250200Z 07008KT 9999 OVC015 20/18 Q1017,
SBMT,2024-12-25 09:00,68.00,64.40,88.26,40.00,8.00,0.00,29.94,,6.21,,SCT,BKN,,,1300.00,1500.00,,,,,,,,,,68.00,COR SBMT 250900Z 04008KT 9999 SCT013 BKN015 20/18 Q1014,
SBMT,2024-12-25 10:00,69.80,64.40,82.98,50.00,7.00,0.00,29.88,,6.21,,,,,,,,,,,,,,,,,69.80,SBMT 251000Z 05007KT CAVOK 21/18 Q1012,
SBMT,2024-12-25 11:00,73.40,64.40,73.44,30.00,4.00,0.00,29.94,,6.21,,,,,,,,,,,,,,,,,73.40,SBMT 251100Z 03004KT CAVOK 23/18 Q1014,
SBMT,2024-12-25 12:00,77.00,66.20,69.33,40.00,4.00,0.00,29.94,,6.21,,,,,,,,,,,,,,,,,77.00,SBMT 251200Z 04004KT CAVOK 25/19 Q1014,
SBMT,2024-12-25 13:00,80.60,64.40,57.84,320.00,5.00,0.00,29.94,,6.21,,,,,,,,,,,,,,,,,82.27,SBMT 251300Z 32005KT CAVOK 27/18 Q1014,
SBMT,2024-12-25 14:00,82.40,66.20,58.08,340.00,5.00,0.00,29.91,,6.21,,SCT,,,,4000.00,,,,,,,,,,,84.63,SBMT 251400Z 34005KT 9999 SCT040 28/19 Q1013,
SBMT,2024-12-25 15:00,84.20,66.20,54.80,310.00,5.00,0.00,29.88,,6.21,,BKN,,,,4900.00,,,,,,,,,,,86.50,SBMT 251500Z 31005KT 9999 BKN049 29/19 Q1012,
SBMT,2024-12-25 16:00,86.00,66.20,51.72,340.00,6.00,0.00,29.85,,6.21,,BKN,,,,4900.00,,,,,,,,,,,88.39,SBMT 251600Z 34006KT 9999 BKN049 30/19 Q1011,
SBMT,2024-12-25 17:00,86.00,62.60,45.61,280.00,10.00,0.00,29.85,,6.21,,,,,,,,,,,,,,,,,86.72,SBMT 251700Z 28010KT 230V330 CAVOK 30/17 Q1011,
SBMT,2024-12-25 18:00,86.00,62.60,45.61,260.00,5.00,0.00,29.83,,6.21,,,,,,,,,,,,,,,,,86.72,SBMT 251800Z 26005KT 200V320 CAVOK 30/17 Q1010,
SBMT,2024-12-25 19:00,78.80,66.20,65.33,120.00,9.00,0.00,29.83,,6.21,,,,,,,,,,,,,,,,,78.80,SBMT 251900Z 12009KT 050V160 CAVOK 26/19 Q1010,
SBMT,2024-12-25 20:00,73.40,68.00,83.21,30.00,10.00,0.00,29.83,,4.97,21.00,BKN,FEW,SCT,,4300.00,4800.00,5000.00,,-TSRA,,,,,,,73.40,SBMT 252000Z 03010G21KT 360V060 8000 -TSRA BKN043 FEW048CB SCT050 23/20 Q1010,
SBMT,2024-12-25 21:00,68.00,66.20,93.97,120.00,6.00,0.00,29.88,,2.17,,BKN,FEW,,,1300.00,4000.00,,,-TSRA,,,,,,,68.00,SBMT 252100Z 12006KT 040V170 3500 -TSRA BKN013 FEW040CB 20/19 Q1012,
SBMT,2024-12-25 22:00,69.80,64.40,82.98,,2.00,0.00,29.88,,4.97,,BKN,,,,2300.00,,,,,,,,,,,69.80,SBMT 252200Z VRB02KT 8000 BKN023 21/18 Q1012 RETS,
SBMT,2024-12-25 23:00,69.80,64.40,82.98,,2.00,0.00,29.91,,6.21,,BKN,,,,3000.00,,,,,,,,,,,69.80,SBMT 252300Z VRB02KT 9999 BKN030 21/18 Q1013,
SBMT,2024-12-26 00:00,71.60,66.20,83.09,50.00,5.00,0.00,29.91,,6.21,,BKN,,,,4300.00,,,,,,,,,,,71.60,SBMT 260000Z 05005KT 9999 BKN043 22/19 Q1013,
SBMT,2024-12-26 01:00,71.60,64.40,78.04,50.00,8.00,0.00,29.91,,6.21,,,,,,,,,,,,,,,,,71.60,SBMT 260100Z 05008KT CAVOK 22/18 Q1013,
SBMT,2024-12-26 02:00,69.80,64.40,82.98,60.00,5.00,0.00,29.94,,6.21,,FEW,BKN,,,1300.00,5000.00,,,,,,,,,,69.80,SBMT 260200Z 06005KT 9999 FEW013 BKN050 21/18 Q1014,
SBMT,2024-12-26 09:00,68.00,66.20,93.97,140.00,2.00,0.00,29.88,,1.55,,FEW,SCT,BKN,,800.00,1500.00,7000.00,,-RA BR,,,,,,,68.00,SBMT 260900Z 14002KT 2500 -RA BR FEW008 SCT015 BKN070 20/19 Q1012,
SBMT,2024-12-26 10:00,68.00,66.20,93.97,0.00,0.00,0.00,29.91,,3.73,,BKN,BKN,,,1000.00,7000.00,,,-RA,,,,,,,68.00,SBMT 261000Z 00000KT 6000 -RA BKN010 BKN070 20/19 Q1013,
SBMT,2024-12-26 11:00,69.80,68.00,94.01,60.00,4.00,0.00,29.91,,4.35,,FEW,OVC,,,900.00,6600.00,,,-RA,,,,,,,69.80,SBMT 261100Z 06004KT 7000 -RA FEW009 OVC066 21/20 Q1013,
SBMT,2024-12-26 12:00,69.80,68.00,94.01,20.00,3.00,0.00,29.91,,5.59,,FEW,OVC,,,1000.00,7000.00,,,-RA,,,,,,,69.80,SBMT 261200Z 02003KT 330V070 9000 -RA FEW010 OVC070 21/20 Q1013,
SBMT,2024-12-26 13:00,71.60,68.00,88.43,20.00,4.00,0.00,29.91,,6.21,,FEW,OVC,,,1100.00,2900.00,,,,,,,,,,71.60,SBMT 261300Z 02004KT 330V070 9999 FEW011 OVC029 22/20 Q1013,
SBMT,2024-12-26 14:00,73.40,68.00,83.21,10.00,4.00,0.00,29.91,,6.21,,BKN,BKN,,,1500.00,1900.00,,,,,,,,,,73.40,SBMT 261400Z 01004KT 350V050 9999 BKN015 BKN019 23/20 Q1013,
SBMT,2024-12-26 15:00,73.40,68.00,83.21,330.00,5.00,0.00,29.91,,3.73,,SCT,OVC,,,1600.00,3300.00,,,-RA,,,,,,,73.40,SBMT 261500Z 33005KT 6000 -RA SCT016 OVC033 23/20 Q1013,
SBMT,2024-12-26 16:00,73.40,69.80,88.51,310.00,4.00,0.00,29.88,,6.21,,FEW,SCT,OVC,,1100.00,2200.00,4500.00,,,,,,,,,73.40,COR SBMT 261600Z 31004KT 240V020 9999 FEW011 SCT022 OVC045 23/21 Q1012,
SBMT,2024-12-26 17:00,75.20,69.80,83.32,350.00,7.00,0.00,29.85,,6.21,,SCT,BKN,,,2000.00,4000.00,,,,,,,,,,75.20,SBMT 261700Z 35007KT 9999 SCT020 BKN040 24/21 Q1011,
SBMT,2024-12-26 18:00,75.20,69.80,83.32,310.00,6.00,0.00,29.85,,6.21,,SCT,BKN,,,2000.00,4000.00,,,,,,,,,,75.20,SBMT 261800Z 31006KT 9999 SCT020 BKN040 24/21 Q1011,
SBMT,2024-12-26 19:00,73.40,69.80,88.51,340.00,3.00,0.00,29.83,,6.21,,FEW,SCT,BKN,,1300.00,2000.00,4000.00,,-DZ,,,,,,,73.40,SBMT 261900Z 34003KT 9999 -DZ FEW013 SCT020 BKN040 23/21 Q1010,
SBMT,2024-12-26 20:00,71.60,69.80,94.06,360.00,5.00,0.00,29.85,,6.21,,FEW,SCT,BKN,,1300.00,2000.00,4000.00,,,,,,,,,71.60,SBMT 262000Z 36005KT 9999 FEW013 SCT020 BKN040 22/21 Q1011,
SBMT,2024-12-26 21:00,71.60,68.00,88.43,300.00,6.00,0.00,29.85,,6.21,,FEW,SCT,BKN,,1500.00,2000.00,4000.00,,,,,,,,,71.60,SBMT 262100Z 30006KT 9999 FEW015 SCT020 BKN040 22/20 Q1011,
SBMT,2024-12-26 22:00,69.80,68.00,94.01,280.00,3.00,0.00,29.85,,6.21,,FEW,SCT,BKN,,1300.00,1500.00,2000.00,,-RA,,,,,,,69.80,SBMT 262200Z 28003KT 9999 -RA FEW013 SCT015 BKN020 21/20 Q1011,
SBMT,2024-12-26 23:00,69.80,68.00,94.01,20.00,3.00,0.00,29.88,,6.21,,FEW,SCT,BKN,,1300.00,1500.00,2000.00,,-RA,,,,,,,69.80,SBMT 262300Z 02003KT 9999 -RA FEW013 SCT015 BKN020 21/20 Q1012,
SBMT,2024-12-27 00:00,71.60,68.00,88.43,330.00,2.00,0.00,29.88,,6.21,,FEW,SCT,BKN,,1300.00,1500.00,2000.00,,-RA,,,,,,,71.60,SBMT 270000Z 33002KT 9999 -RA FEW013 SCT015 BKN020 22/20 Q1012,
SBMT,2024-12-27 01:00,69.80,69.80,100.00,0.00,0.00,0.00,29.91,,6.21,,FEW,SCT,BKN,,900.00,1500.00,2000.00,,-RA,,,,,,,69.80,SBMT 270100Z 00000KT 9999 -RA FEW009 SCT015 BKN020 21/21 Q1013,
SBMT,2024-12-27 02:00,69.80,68.00,94.01,190.00,3.00,0.00,29.91,,1.24,,BKN,BKN,,,600.00,1500.00,,,+RA BR,,,,,,,69.80,SBMT 270200Z 19003KT 2000 +RA BR BKN006 BKN015 21/20 Q1013,
SBMT,2024-12-27 09:00,66.20,66.20,100.00,340.00,1.00,0.00,29.91,,4.35,,FEW,BKN,,,2000.00,3000.00,,,,,,,,,,66.20,SBMT 270900Z 34001KT 7000 FEW020 BKN030 19/19 Q1013,
SBMT,2024-12-27 10:00,69.80,68.00,94.01,,1.00,0.00,29.91,,6.21,,FEW,BKN,,,900.00,2000.00,,,,,,,,,,69.80,COR SBMT 271000Z VRB01KT 9999 FEW009 BKN020 21/20 Q1013,
SBMT,2024-12-27 11:00,71.60,68.00,88.43,,1.00,0.00,29.94,,6.21,,FEW,BKN,,,900.00,2000.00,,,,,,,,,,71.60,SBMT 271100Z VRB01KT 9999 FEW009 BKN020 22/20 Q1014,
SBMT,2024-12-27 12:00,73.40,68.00,83.21,310.00,3.00,0.00,29.94,,6.21,,SCT,BKN,,,1500.00,1700.00,,,,,,,,,,73.40,SBMT 271200Z 31003KT 230V020 9999 SCT015 BKN017 23/20 Q1014,
SBMT,2024-12-27 13:00,75.20,68.00,78.34,270.00,4.00,0.00,29.94,,6.21,,BKN,BKN,,,1300.00,1700.00,,,,,,,,,,75.20,SBMT 271300Z 27004KT 210V330 9999 BKN013 BKN017 24/20 Q1014,
SBMT,2024-12-27 14:00,73.40,68.00,83.21,230.00,7.00,0.00,29.97,,6.21,,BKN,BKN,,,1500.00,2000.00,,,,,,,,,,73.40,SBMT 271400Z 23007KT 9999 BKN015 BKN020 23/20 Q1015,
SBMT,2024-12-27 15:00,75.20,68.00,78.34,220.00,4.00,0.00,29.94,,6.21,,FEW,BKN,,,1700.00,2500.00,,,,,,,,,,75.20,SBMT 271500Z 22004KT 170V290 9999 FEW017 BKN025 24/20 Q1014,
SBMT,2024-12-27 16:00,75.20,69.80,83.32,280.00,3.00,0.00,29.94,,6.21,,BKN,,,,2500.00,,,,,,,,,,,75.20,SBMT 271600Z 28003KT 200V350 9999 BKN025 24/21 Q1014,
SBMT,2024-12-27 17:00,73.40,66.20,78.19,320.00,4.00,0.00,29.94,,6.21,,BKN,,,,2300.00,,,,,,,,,,,73.40,SBMT 271700Z 32004KT 280V010 9999 BKN023 23/19 Q1014,
SBMT,2024-12-27 18:00,77.00,66.20,69.33,290.00,3.00,0.00,29.91,,6.21,,BKN,,,,4000.00,,,,,,,,,,,77.00,SBMT 271800Z 29003KT 210V360 9999 BKN040 25/19 Q1013,
SBMT,2024-12-27 19:00,73.40,66.20,78.19,110.00,8.00,0.00,29.91,,6.21,,FEW,BKN,,,1300.00,1500.00,,,,,,,,,,73.40,SBMT 271900Z 11008KT 080V140 9999 FEW013 BKN015 23/19 Q1013,
SBMT,2024-12-27 20:00,71.60,66.20,83.09,90.00,6.00,0.00,29.91,,6.21,,SCT,BKN,BKN,,1100.00,1500.00,7000.00,,,,,,,,,71.60,SBMT 272000Z 09006KT 040V140 9999 SCT011 BKN015 BKN070 22/19 Q1013 RERA,
SBMT,2024-12-27 21:00,71.60,66.20,83.09,40.00,5.00,0.00,29.91,,6.21,,SCT,BKN,OVC,,1400.00,1500.00,7000.00,,,,,,,,,71.60,SBMT 272100Z 04005KT 360V080 9999 SCT014 BKN015 OVC070 22/19 Q1013,
SBMT,2024-12-27 22:00,71.60,66.20,83.09,20.00,4.00,0.00,29.94,,6.21,,BKN,,,,1700.00,,,,,,,,,,,71.60,SBMT 272200Z 02004KT 350V050 9999 BKN017 22/19 Q1014,
SBMT,2024-12-27 23:00,71.60,66.20,83.09,30.00,5.00,0.00,29.97,,6.21,,BKN,,,,2000.00,,,,,,,,,,,71.60,SBMT 272300Z 03005KT 9999 BKN020 22/19 Q1015,
SBMT,2024-12-28 00:00,71.60,66.20,83.09,10.00,5.00,0.00,30.00,,6.21,,BKN,,,,2300.00,,,,,,,,,,,71.60,SBMT 280000Z 01005KT 9999 BKN023 22/19 Q1016,
SBMT,2024-12-28 01:00,69.80,66.20,88.34,30.00,5.00,0.00,30.00,,6.21,,SCT,,,,2300.00,,,,,,,,,,,69.80,SBMT 280100Z 03005KT 350V050 9999 SCT023 21/19 Q1016,
SBMT,2024-12-28 02:00,69.80,64.40,82.98,30.00,4.00,0.00,30.00,,6.21,,,,,,,,,,,,,,,,,69.80,SBMT 280200Z 03004KT CAVOK 21/18 Q1016,
SBMT,2024-12-28 09:00,69.80,66.20,88.34,30.00,3.00,0.00,29.97,,6.21,,SCT,BKN,,,1300.00,1500.00,,,,,,,,,,69.80,SBMT 280900Z 03003KT 9999 SCT013 BKN015 21/19 Q1015,
SBMT,2024-12-28 10:00,71.60,66.20,83.09,30.00,3.00,0.00,30.00,,6.21,,SCT,BKN,,,1300.00,1500.00,,,,,,,,,,71.60,SBMT 281000Z 03003KT 9999 SCT013 BKN015 22/19 Q1016,
SBMT,2024-12-28 11:00,71.60,66.20,83.09,,2.00,0.00,30.00,,6.21,,SCT,OVC,,,1300.00,1500.00,,,,,,,,,,71.60,SBMT 281100Z VRB02KT 9999 SCT013 OVC015 22/19 Q1016,
SBMT,2024-12-28 12:00,75.20,66.20,73.61,200.00,1.00,0.00,30.00,,6.21,,BKN,,,,1700.00,,,,,,,,,,,75.20,SBMT 281200Z 20001KT 9999 BKN017 24/19 Q1016,
SBMT,2024-12-28 13:00,77.00,64.40,65.12,,3.00,0.00,30.00,,6.21,,BKN,,,,2000.00,,,,,,,,,,,77.00,SBMT 281300Z VRB03KT 9999 BKN020 25/18 Q1016,
SBMT,2024-12-28 14:00,78.80,64.40,61.36,190.00,5.00,0.00,30.00,,6.21,,BKN,,,,3300.00,,,,,,,,,,,78.80,SBMT 281400Z 19005KT 130V260 9999 BKN033 26/18 Q1016,
SBMT,2024-12-28 15:00,82.40,64.40,54.55,150.00,4.00,0.00,30.00,,6.21,,BKN,,,,3600.00,,,,,,,,,,,83.98,SBMT 281500Z 15004KT 9999 BKN036 28/18 Q1016,
SBMT,2024-12-28 16:00,84.20,64.40,51.47,80.00,3.00,0.00,29.97,,6.21,,,,,,,,,,,,,,,,,85.71,SBMT 281600Z 08003KT 020V120 CAVOK 29/18 Q1015,
SBMT,2024-12-28 17:00,82.40,69.80,65.74,60.00,4.00,0.00,29.94,,6.21,,BKN,,,,4000.00,,,,,,,,,,,86.22,SBMT 281700Z 06004KT 9999 BKN040 28/21 Q1014,
SBMT,2024-12-28 18:00,75.20,68.00,78.34,110.00,12.00,0.00,29.94,,6.21,,SCT,SCT,,,1700.00,4000.00,,,,,,,,,,75.20,SBMT 281800Z 11012KT 9999 SCT017 SCT040 24/20 Q1014,
SBMT,2024-12-28 19:00,75.20,68.00,78.34,80.00,8.00,0.00,29.94,,6.21,,BKN,BKN,,,1700.00,4000.00,,,,,,,,,,75.20,SBMT 281900Z 08008KT 9999 BKN017 BKN040 24/20 Q1014,
SBMT,2024-12-28 20:00,75.20,68.00,78.34,60.00,8.00,0.00,29.94,,6.21,,BKN,BKN,,,1700.00,2000.00,,,,,,,,,,75.20,SBMT 282000Z 06008KT 9999 BKN017 BKN020 24/20 Q1014,
SBMT,2024-12-28 21:00,73.40,68.00,83.21,70.00,8.00,0.00,29.94,,6.21,,BKN,BKN,,,1700.00,2000.00,,,,,,,,,,73.40,SBMT 282100Z 07008KT 9999 BKN017 BKN020 23/20 Q1014,
SBMT,2024-12-28 22:00,73.40,66.20,78.19,70.00,9.00,0.00,29.97,,4.35,,BKN,BKN,,,1700.00,2000.00,,,,,,,,,,73.40,SBMT 282200Z 07009KT 7000 BKN017 BKN020 23/19 Q1015,
SBMT,2024-12-28 23:00,71.60,66.20,83.09,70.00,9.00,0.00,29.97,,6.21,,BKN,BKN,,,1700.00,2000.00,,,,,,,,,,71.60,SBMT 282300Z 07009KT 9999 BKN017 BKN020 22/19 Q1015,
SBMT,2024-12-29 00:00,71.60,66.20,83.09,40.00,9.00,0.00,30.00,,6.21,,BKN,BKN,,,2000.00,2500.00,,,,,,,,,,71.60,SBMT 290000Z 04009KT 9999 BKN020 BKN025 22/19 Q1016,
SBMT,2024-12-29 01:00,71.60,66.20,83.09,30.00,5.00,0.00,30.03,,6.21,,BKN,BKN,,,2000.00,2500.00,,,,,,,,,,71.60,SBMT 290100Z 03005KT 9999 BKN020 BKN025 22/19 Q1017,
SBMT,2024-12-29 02:00,71.60,66.20,83.09,30.00,6.00,0.00,30.00,,6.21,,SCT,BKN,,,1500.00,2000.00,,,,,,,,,,71.60,SBMT 290200Z 03006KT 9999 SCT015 BKN020 22/19 Q1016,
SBMT,2024-12-29 09:00,68.00,62.60,82.86,40.00,4.00,0.00,29.97,,6.21,,FEW,BKN,,,1300.00,1500.00,,,,,,,,,,68.00,SBMT 290900Z 04004KT 9999 FEW013 BKN015 20/17 Q1015,
SBMT,2024-12-29 10:00,68.00,62.60,82.86,20.00,4.00,0.00,29.97,,6.21,,SCT,OVC,,,1100.00,1300.00,,,,,,,,,,68.00,SBMT 291000Z 02004KT 330V060 9999 SCT011 OVC013 20/17 Q1015,
SBMT,2024-12-29 11:00,69.80,62.60,77.90,20.00,6.00,0.00,30.00,,6.21,,SCT,BKN,,,1300.00,1500.00,,,,,,,,,,69.80,SBMT 291100Z 02006KT 340V050 9999 SCT013 BKN015 21/17 Q1016,
SBMT,2024-12-29 12:00,73.40,62.60,68.94,20.00,5.00,0.00,30.00,,6.21,,SCT,,,,1500.00,,,,,,,,,,,73.40,SBMT 291200Z 02005KT 330V050 9999 SCT015 23/17 Q1016,
SBMT,2024-12-29 13:00,77.00,64.40,65.12,60.00,5.00,0.00,30.00,,6.21,,FEW,,,,2000.00,,,,,,,,,,,77.00,SBMT 291300Z 06005KT 010V140 9999 FEW020 25/18 Q1016,
SBMT,2024-12-29 14:00,78.80,64.40,61.36,90.00,4.00,0.00,29.97,,6.21,,FEW,,,,4000.00,,,,,,,,,,,78.80,SBMT 291400Z 09004KT 020V140 9999 FEW040 26/18 Q1015,
SBMT,2024-12-29 15:00,82.40,64.40,54.55,,2.00,0.00,29.97,,6.21,,SCT,,,,4000.00,,,,,,,,,,,83.98,SBMT 291500Z VRB02KT 9999 SCT040 28/18 Q1015,
SBMT,2024-12-29 16:00,82.40,66.20,58.08,110.00,10.00,0.00,29.94,,6.21,,,,,,,,,,,,,,,,,84.63,SBMT 291600Z 11010KT 040V150 CAVOK 28/19 Q1014,
SBMT,2024-12-29 17:00,78.80,66.20,65.33,90.00,11.00,0.00,29.91,,6.21,,BKN,,,,3300.00,,,,,,,,,,,78.80,SBMT 291700Z 09011KT 9999 BKN033 26/19 Q1013,
SBMT,2024-12-29 18:00,71.60,66.20,83.09,90.00,9.00,0.00,29.94,,6.21,,BKN,,,,2100.00,,,,,,,,,,,71.60,SBMT 291800Z 09009KT 9999 BKN021 22/19 Q1014,
SBMT,2024-12-29 19:00,73.40,66.20,78.19,60.00,10.00,0.00,29.91,,6.21,,BKN,,,,2300.00,,,,,,,,,,,73.40,SBMT 291900Z 06010KT 9999 BKN023 23/19 Q1013,
SBMT,2024-12-29 20:00,73.40,64.40,73.44,60.00,12.00,0.00,29.94,,6.21,,BKN,,,,3300.00,,,,,,,,,,,73.40,SBMT 292000Z 06012KT 9999 BKN033 23/18 Q1014,
SBMT,2024-12-29 21:00,71.60,64.40,78.04,50.00,11.00,0.00,29.94,,6.21,,BKN,,,,1900.00,,,,,,,,,,,71.60,SBMT 292100Z 05011KT 9999 BKN019 22/18 Q1014,
SBMT,2024-12-29 22:00,69.80,64.40,82.98,50.00,9.00,0.00,29.97,,6.21,,BKN,,,,1900.00,,,,,,,,,,,69.80,SBMT 292200Z 05009KT 9999 BKN019 21/18 Q1015,
SBMT,2024-12-29 23:00,69.80,64.40,82.98,80.00,8.00,0.00,29.97,,6.21,,BKN,,,,1700.00,,,,,,,,,,,69.80,SBMT 292300Z 08008KT 9999 BKN017 21/18 Q1015,
SBMT,2024-12-30 00:00,69.80,64.40,82.98,60.00,5.00,0.00,30.00,,6.21,,BKN,,,,3000.00,,,,,,,,,,,69.80,SBMT 300000Z 06005KT 9999 BKN030 21/18 Q1016,
SBMT,2024-12-30 01:00,68.00,64.40,88.26,40.00,7.00,0.00,30.00,,6.21,,BKN,FEW,BKN,,3300.00,4000.00,4500.00,,TSRA,,,,,,,68.00,SBMT 300100Z 04007KT 9999 TSRA BKN033 FEW040CB BKN045 20/18 Q1016,
SBMT,2024-12-30 02:00,68.00,64.40,88.26,80.00,4.00,0.00,30.03,,6.21,,BKN,BKN,,,1500.00,2600.00,,,,,,,,,,68.00,SBMT 300200Z 08004KT 9999 BKN015 BKN026 20/18 Q1017 RETSRA,
SBMT,2024-12-30 09:00,68.00,64.40,88.26,40.00,4.00,0.00,29.94,,6.21,,BKN,,,,1500.00,,,,,,,,,,,68.00,SBMT 300900Z 04004KT 9999 BKN015 20/18 Q1014,
SBMT,2024-12-30 10:00,69.80,64.40,82.98,60.00,5.00,0.00,29.97,,6.21,,SCT,,,,1100.00,,,,,,,,,,,69.80,SBMT 301000Z 06005KT 9999 SCT011 21/18 Q1015,
SBMT,2024-12-30 11:00,73.40,64.40,73.44,20.00,4.00,0.00,29.97,,6.21,,SCT,,,,2100.00,,,,,,,,,,,73.40,SBMT 301100Z 02004KT 9999 SCT021 23/18 Q1015,
SBMT,2024-12-30 12:00,73.40,64.40,73.44,20.00,6.00,0.00,30.00,,6.21,,BKN,,,,2600.00,,,,,,,,,,,73.40,SBMT 301200Z 02006KT 9999 BKN026 23/18 Q1016,
SBMT,2024-12-30 13:00,75.20,64.40,69.14,330.00,4.00,0.00,29.97,,6.21,,SCT,,,,3300.00,,,,,,,,,,,75.20,SBMT 301300Z 33004KT 9999 SCT033 24/18 Q1015,
SBMT,2024-12-30 14:00,77.00,62.60,61.13,350.00,6.00,0.00,29.97,,6.21,,BKN,,,,3600.00,,,,,,,,,,,77.00,SBMT 301400Z 35006KT 9999 BKN036 25/17 Q1015,
SBMT,2024-12-30 15:00,80.60,64.40,57.84,20.00,5.00,0.00,29.97,,6.21,,SCT,,,,4000.00,,,,,,,,,,,82.27,SBMT 301500Z 02005KT 9999 SCT040 27/18 Q1015,
SBMT,2024-12-30 16:00,84.20,62.60,48.32,350.00,4.00,0.00,29.94,,6.21,,BKN,FEW,,,4900.00,5000.00,,,,,,,,,,85.03,COR SBMT 301600Z 35004KT 9999 BKN049 FEW050TCU 29/17 Q1014,
SBMT,2024-12-30 17:00,77.00,66.20,69.33,70.00,10.00,0.00,29.94,,6.21,,SCT,FEW,,,4600.00,5000.00,,,,,,,,,,77.00,SBMT 301700Z 07010KT 030V110 9999 SCT046 FEW050TCU 25/19 Q1014,
SBMT,2024-12-30 18:00,71.60,66.20,83.09,100.00,8.00,0.00,29.97,,6.21,,SCT,SCT,FEW,,2000.00,3500.00,4000.00,,,,,,,,,71.60,SBMT 301800Z 10008KT 050V130 9999 SCT020 SCT035 FEW040TCU 22/19 Q1015,
SBMT,2024-12-30 19:00,71.60,68.00,88.43,,9.00,0.00,29.94,,6.21,,SCT,SCT,FEW,,1700.00,3000.00,4000.00,,,,,,,,,71.60,SBMT 301900Z VRB09KT 9999 SCT017 SCT030 FEW040TCU 22/20 Q1014,
SBMT,2024-12-30 20:00,73.40,64.40,73.44,70.00,9.00,0.00,29.94,,6.21,,SCT,,,,2000.00,,,,,,,,,,,73.40,SBMT 302000Z 07009KT 030V100 9999 SCT020 23/18 Q1014,
SBMT,2024-12-30 21:00,71.60,64.40,78.04,50.00,8.00,0.00,29.97,,6.21,,SCT,,,,2000.00,,,,,,,,,,,71.60,SBMT 302100Z 05008KT 010V080 9999 SCT020 22/18 Q1015,
SBMT,2024-12-30 22:00,69.80,64.40,82.98,50.00,6.00,0.00,29.97,,6.21,,SCT,,,,2000.00,,,,,,,,,,,69.80,SBMT 302200Z 05006KT 9999 SCT020 21/18 Q1015,
SBMT,2024-12-30 23:00,69.80,64.40,82.98,40.00,8.00,0.00,29.97,,6.21,,BKN,,,,2000.00,,,,,,,,,,,69.80,SBMT 302300Z 04008KT 9999 BKN020 21/18 Q1015,
